{"type":"FeatureCollection","features":[{"type":"Feature","properties":{"name":"DeWitt","status":"Current","zoning":"Commercial Industrial","bill":"CB 2005-301","link":"https://cityofchampaign.sharepoint.com/:b:/g/EZbO5kfDHWlDpnTS9jl1xCoBWjBuT7e1oRUn5vBHWWj4kg?e=nCYecb"},"geometry":{"type":"Polygon","coordinates":[[[-88.305545,40.113302],[-88.305584,40.116791],[-88.309778,40.116834],[-88.309766,40.115756],[-88.30976,40.115234],[-88.309757,40.11496],[-88.309751,40.11441],[-88.309746,40.113937],[-88.309745,40.113875],[-88.309745,40.113862],[-88.309739,40.113326],[-88.309735,40.113326],[-88.308701,40.113313],[-88.305545,40.113274],[-88.305545,40.113302]]]},"id":0},{"type":"Feature","properties":{"name":"Borchers","status":"Current","zoning":"Commercial Industrial","bill":"CB 2005-301 & 302","link":"https://cityofchampaign.sharepoint.com/:b:/g/EZcq0jKojhlFpa7MT4oE2-wBgeox-J6couNzaKiQQkz-nQ?e=ypxSHI"},"geometry":{"type":"Polygon","coordinates":[[[-88.314765,40.117814],[-88.315872,40.117816],[-88.319249,40.117823],[-88.319238,40.116914],[-88.317097,40.116913],[-88.316953,40.116913],[-88.316898,40.116912],[-88.316891,40.116449],[-88.316884,40.115999],[-88.316875,40.115387],[-88.316874,40.115373],[-88.31687,40.115083],[-88.316731,40.115082],[-88.314701,40.115075],[-88.314705,40.11598],[-88.314706,40.115991],[-88.314723,40.115991],[-88.314733,40.116441],[-88.314732,40.116905],[-88.314732,40.117274],[-88.314711,40.117723],[-88.314705,40.117814],[-88.314711,40.117814],[-88.314765,40.117814]]]},"id":1},{"type":"Feature","properties":{"name":"Turner Sub.","status":"Current","zoning":"SF1, Single Family Residential","bill":"CB 2014-049","link":"https://cityofchampaign.sharepoint.com/:b:/g/EZoNeUChCjFJoVamaNCTtrUBmPGgwQsoQ-EF0WXVWkwFvg?e=gcB8KJ"},"geometry":{"type":"Polygon","coordinates":[[[-88.333297,40.113136],[-88.333283,40.111848],[-88.331298,40.111848],[-88.331255,40.113131],[-88.333297,40.113136]]]},"id":2},{"type":"Feature","properties":{"name":"Bentley","status":"Annexed","zoning":"Commercial Industrial","bill":"CB 2007-051","link":"https://cityofchampaign.sharepoint.com/:b:/g/EaWbUvE-5-xAhGr4w8M03PwBykX0wbACawR8CwrZ8glBZA?e=ic8TMO"},"geometry":{"type":"Polygon","coordinates":[[[-88.314701,40.115075],[-88.316731,40.115082],[-88.31687,40.115083],[-88.316862,40.114556],[-88.316856,40.114174],[-88.314928,40.114167],[-88.31491,40.114167],[-88.314696,40.114166],[-88.314701,40.115075]]]},"id":3},{"type":"Feature","properties":{"name":"Staley-Springfield","status":"Annexed","zoning":"Commercial General","bill":"CB 2004-207","link":"https://cityofchampaign.sharepoint.com/:b:/g/EcNGmhi9BdlFrjMBECX_BLcBIydpw2UdxiX_1ENmk5wiDg?e=uAZORY"},"geometry":{"type":"Polygon","coordinates":[[[-88.316106,40.113406],[-88.315147,40.11341],[-88.314835,40.113423],[-88.314821,40.113438],[-88.314809,40.113452],[-88.314719,40.113548],[-88.314694,40.114097],[-88.314696,40.114166],[-88.31491,40.114167],[-88.314928,40.114167],[-88.316856,40.114174],[-88.316854,40.114074],[-88.316844,40.113392],[-88.316106,40.113406]]]},"id":4},{"type":"Feature","properties":{"name":"Atkins-Staley","status":"Current","zoning":"Light Industrial","bill":"CB 2005-301","link":"https://cityofchampaign.sharepoint.com/:b:/g/EZbO5kfDHWlDpnTS9jl1xCoBWjBuT7e1oRUn5vBHWWj4kg?e=nCYecb"},"geometry":{"type":"Polygon","coordinates":[[[-88.314705,40.117814],[-88.314704,40.11834],[-88.314984,40.119809],[-88.315163,40.11981],[-88.315807,40.119821],[-88.316452,40.119839],[-88.317096,40.119865],[-88.31774,40.119897],[-88.318383,40.119937],[-88.319025,40.119984],[-88.319273,40.120004],[-88.319249,40.117823],[-88.315872,40.117816],[-88.314765,40.117814],[-88.314711,40.117814],[-88.314705,40.117814]]]},"id":5},{"type":"Feature","properties":{"name":"Lincolnshire Fields NW III","status":"Expired","zoning":"Multifamily Low Density","bill":"CB 1990-149"},"geometry":{"type":"MultiPolygon","coordinates":[[[[-88.305261,40.09749],[-88.305263,40.09772],[-88.30549,40.097649],[-88.305985,40.09757],[-88.306251,40.097479],[-88.306344,40.097447],[-88.30645,40.09741],[-88.306749,40.097307],[-88.307092,40.097192],[-88.307158,40.09717],[-88.307014,40.096971],[-88.306885,40.096794],[-88.306882,40.096794],[-88.306859,40.096802],[-88.306836,40.09681],[-88.306812,40.096817],[-88.306788,40.096824],[-88.306764,40.09683],[-88.30674,40.096836],[-88.306715,40.096842],[-88.306691,40.096847],[-88.306666,40.096852],[-88.306642,40.096857],[-88.306617,40.096861],[-88.306509,40.096878],[-88.306267,40.096917],[-88.306244,40.096921],[-88.306221,40.096925],[-88.306199,40.09693],[-88.306176,40.096935],[-88.306154,40.09694],[-88.306131,40.096946],[-88.306109,40.096952],[-88.306087,40.096958],[-88.306064,40.096965],[-88.306042,40.096972],[-88.30602,40.09698],[-88.305999,40.096988],[-88.305977,40.096996],[-88.305956,40.097005],[-88.305935,40.097014],[-88.305914,40.097023],[-88.305894,40.097033],[-88.305873,40.097043],[-88.305853,40.097053],[-88.305834,40.097063],[-88.305814,40.097074],[-88.305795,40.097086],[-88.30578,40.097095],[-88.305764,40.097105],[-88.305749,40.097115],[-88.305741,40.09712],[-88.305734,40.097124],[-88.305725,40.097129],[-88.305717,40.097132],[-88.305708,40.097136],[-88.305699,40.097139],[-88.30569,40.097141],[-88.30568,40.097144],[-88.305671,40.097146],[-88.305661,40.097147],[-88.305651,40.097148],[-88.305642,40.097149],[-88.305632,40.097149],[-88.305622,40.097149],[-88.305612,40.097148],[-88.305602,40.097147],[-88.305593,40.097146],[-88.305583,40.097144],[-88.305574,40.097142],[-88.305565,40.097139],[-88.305556,40.097136],[-88.305547,40.097133],[-88.305538,40.097129],[-88.30553,40.097125],[-88.305522,40.09712],[-88.305515,40.097116],[-88.305507,40.09711],[-88.3055,40.097105],[-88.305494,40.097099],[-88.305488,40.097093],[-88.305482,40.097087],[-88.305477,40.097081],[-88.305472,40.097074],[-88.305468,40.097068],[-88.305465,40.097061],[-88.305461,40.097054],[-88.305459,40.097046],[-88.305456,40.097039],[-88.305455,40.097032],[-88.305454,40.097024],[-88.305453,40.097017],[-88.305453,40.097009],[-88.305453,40.097001],[-88.305454,40.096994],[-88.305456,40.096986],[-88.305458,40.096979],[-88.305461,40.096971],[-88.305464,40.096964],[-88.305468,40.096957],[-88.305472,40.09695],[-88.305476,40.096943],[-88.305482,40.096937],[-88.305487,40.096931],[-88.305493,40.096925],[-88.3055,40.096919],[-88.305507,40.096913],[-88.305514,40.096908],[-88.305522,40.096903],[-88.30553,40.096899],[-88.305538,40.096895],[-88.305547,40.096891],[-88.305556,40.096887],[-88.305565,40.096884],[-88.305574,40.096882],[-88.305584,40.096879],[-88.305594,40.096878],[-88.305603,40.096876],[-88.305613,40.096875],[-88.305623,40.096875],[-88.305633,40.096874],[-88.305643,40.096875],[-88.305653,40.096875],[-88.305663,40.096877],[-88.305673,40.096878],[-88.305682,40.09688],[-88.305692,40.096882],[-88.305701,40.096885],[-88.30571,40.096888],[-88.305716,40.096891],[-88.305723,40.096892],[-88.305729,40.096894],[-88.305736,40.096895],[-88.305743,40.096895],[-88.30575,40.096895],[-88.305757,40.096895],[-88.305764,40.096895],[-88.30577,40.096893],[-88.305777,40.096892],[-88.305784,40.09689],[-88.30579,40.096888],[-88.305796,40.096885],[-88.305816,40.096876],[-88.305836,40.096867],[-88.305857,40.096859],[-88.305878,40.09685],[-88.305898,40.096842],[-88.305922,40.096833],[-88.305946,40.096825],[-88.305971,40.096817],[-88.305995,40.096809],[-88.30602,40.096801],[-88.306045,40.096794],[-88.30607,40.096788],[-88.306095,40.096781],[-88.30612,40.096776],[-88.306146,40.09677],[-88.306171,40.096765],[-88.306197,40.09676],[-88.306223,40.096756],[-88.306278,40.096747],[-88.306573,40.0967],[-88.306597,40.096695],[-88.306621,40.096691],[-88.306645,40.096686],[-88.306668,40.096681],[-88.306692,40.096675],[-88.306715,40.096669],[-88.306738,40.096662],[-88.306761,40.096655],[-88.306784,40.096648],[-88.306806,40.09664],[-88.306828,40.096632],[-88.30685,40.096623],[-88.306872,40.096614],[-88.306893,40.096605],[-88.306914,40.096595],[-88.306935,40.096585],[-88.306956,40.096575],[-88.306976,40.096564],[-88.306996,40.096553],[-88.307015,40.096541],[-88.307035,40.096529],[-88.307053,40.096517],[-88.307072,40.096505],[-88.30709,40.096492],[-88.307108,40.096479],[-88.307089,40.096471],[-88.307071,40.096463],[-88.307052,40.096455],[-88.307033,40.096448],[-88.307014,40.096441],[-88.306994,40.096435],[-88.306975,40.096429],[-88.306955,40.096424],[-88.306933,40.096418],[-88.306912,40.096412],[-88.30689,40.096405],[-88.30687,40.096398],[-88.306849,40.096391],[-88.306828,40.096383],[-88.306808,40.096375],[-88.306788,40.096367],[-88.306768,40.096358],[-88.306748,40.096349],[-88.306729,40.096339],[-88.30671,40.096329],[-88.306692,40.096319],[-88.306673,40.096309],[-88.306655,40.096298],[-88.306637,40.096287],[-88.30662,40.096275],[-88.306603,40.096264],[-88.306586,40.096252],[-88.30657,40.096239],[-88.306554,40.096227],[-88.30636,40.096073],[-88.306062,40.095836],[-88.306001,40.095787],[-88.305996,40.095783],[-88.305991,40.09578],[-88.305985,40.095777],[-88.305979,40.095774],[-88.305973,40.095772],[-88.305966,40.09577],[-88.30596,40.095769],[-88.305953,40.095767],[-88.305946,40.095767],[-88.305939,40.095766],[-88.305932,40.095766],[-88.305925,40.095767],[-88.305919,40.095768],[-88.305912,40.095769],[-88.305902,40.095771],[-88.305892,40.095772],[-88.305882,40.095773],[-88.305872,40.095774],[-88.305862,40.095774],[-88.305852,40.095774],[-88.305842,40.095774],[-88.305832,40.095772],[-88.305823,40.095771],[-88.305813,40.095769],[-88.305803,40.095767],[-88.305794,40.095764],[-88.305785,40.095761],[-88.305776,40.095757],[-88.305767,40.095754],[-88.305759,40.095749],[-88.305751,40.095745],[-88.305743,40.09574],[-88.305736,40.095734],[-88.305729,40.095729],[-88.305723,40.095723],[-88.305717,40.095717],[-88.305711,40.095711],[-88.305706,40.095704],[-88.305701,40.095697],[-88.305697,40.09569],[-88.305694,40.095683],[-88.30569,40.095676],[-88.305688,40.095668],[-88.305686,40.095661],[-88.305684,40.095653],[-88.305684,40.095645],[-88.305683,40.095638],[-88.305683,40.09563],[-88.305684,40.095622],[-88.305686,40.095615],[-88.305688,40.095607],[-88.30569,40.0956],[-88.305693,40.095592],[-88.305697,40.095585],[-88.3057,40.095578],[-88.305705,40.095572],[-88.30571,40.095565],[-88.305715,40.095559],[-88.30572,40.095553],[-88.305727,40.095548],[-88.305733,40.095542],[-88.30574,40.095537],[-88.305747,40.095532],[-88.305755,40.095527],[-88.305763,40.095523],[-88.305771,40.095519],[-88.305779,40.095515],[-88.305788,40.095512],[-88.305797,40.095509],[-88.305806,40.095507],[-88.305815,40.095505],[-88.305824,40.095503],[-88.305834,40.095502],[-88.305843,40.095501],[-88.305853,40.0955],[-88.305863,40.0955],[-88.305872,40.0955],[-88.305882,40.095501],[-88.305891,40.095502],[-88.305901,40.095503],[-88.30591,40.095505],[-88.305919,40.095507],[-88.305928,40.09551],[-88.305937,40.095513],[-88.305946,40.095516],[-88.305954,40.095519],[-88.305962,40.095523],[-88.305969,40.095527],[-88.305977,40.095532],[-88.305984,40.095537],[-88.305991,40.095542],[-88.306174,40.095688],[-88.306447,40.095905],[-88.306708,40.096112],[-88.306721,40.096122],[-88.306734,40.096132],[-88.306747,40.096141],[-88.30676,40.09615],[-88.306774,40.096159],[-88.30679,40.096169],[-88.306806,40.096178],[-88.306823,40.096188],[-88.30684,40.096196],[-88.306857,40.096205],[-88.306875,40.096213],[-88.306893,40.096221],[-88.306911,40.096229],[-88.306929,40.096236],[-88.306948,40.096242],[-88.306967,40.096249],[-88.306986,40.096255],[-88.307005,40.09626],[-88.307024,40.096266],[-88.307044,40.096271],[-88.307063,40.096276],[-88.307082,40.096282],[-88.307101,40.096289],[-88.30712,40.096295],[-88.307139,40.096302],[-88.307157,40.09631],[-88.307175,40.096317],[-88.307193,40.096326],[-88.30721,40.096334],[-88.307227,40.096343],[-88.307244,40.096352],[-88.307257,40.096336],[-88.30727,40.096321],[-88.307282,40.096305],[-88.307294,40.096289],[-88.307305,40.096273],[-88.307316,40.096256],[-88.307326,40.096239],[-88.307336,40.096223],[-88.307346,40.096206],[-88.307354,40.096188],[-88.307482,40.095932],[-88.307487,40.095922],[-88.307492,40.095911],[-88.307496,40.095901],[-88.307468,40.095878],[-88.307255,40.095712],[-88.306991,40.095504],[-88.306944,40.095467],[-88.306707,40.095295],[-88.306421,40.095087],[-88.305864,40.094682],[-88.305799,40.094635],[-88.305405,40.094177],[-88.305259,40.094173],[-88.305224,40.094172],[-88.305239,40.095503],[-88.305246,40.09619],[-88.305256,40.097028],[-88.305261,40.09749]]],[[[-88.307906,40.098094],[-88.307911,40.09812],[-88.307915,40.098146],[-88.307919,40.098173],[-88.307923,40.0982],[-88.307926,40.098227],[-88.307928,40.098255],[-88.30793,40.098282],[-88.307932,40.09831],[-88.307933,40.098337],[-88.307933,40.098365],[-88.307933,40.098392],[-88.307986,40.098393],[-88.308362,40.098397],[-88.30838,40.098397],[-88.308645,40.098401],[-88.309217,40.098407],[-88.309521,40.098411],[-88.309557,40.098411],[-88.309557,40.098082],[-88.309557,40.097834],[-88.309557,40.097807],[-88.309557,40.097794],[-88.309557,40.097519],[-88.309557,40.097272],[-88.309557,40.097039],[-88.309557,40.096851],[-88.309222,40.096618],[-88.30922,40.09662],[-88.309204,40.096632],[-88.30919,40.096644],[-88.309175,40.096656],[-88.309161,40.096669],[-88.309147,40.096681],[-88.309134,40.096694],[-88.309122,40.096705],[-88.309111,40.096716],[-88.3091,40.096727],[-88.30909,40.096738],[-88.30908,40.09675],[-88.30907,40.096761],[-88.309061,40.096773],[-88.309052,40.096786],[-88.309044,40.096798],[-88.309037,40.096811],[-88.30903,40.096823],[-88.309023,40.096836],[-88.309014,40.096856],[-88.309004,40.096875],[-88.308993,40.096894],[-88.308982,40.096913],[-88.308971,40.096931],[-88.308959,40.09695],[-88.308947,40.096968],[-88.308935,40.096987],[-88.308933,40.096989],[-88.308919,40.097008],[-88.308904,40.097028],[-88.308889,40.097047],[-88.308874,40.097066],[-88.308857,40.097085],[-88.308841,40.097103],[-88.308824,40.097122],[-88.308806,40.09714],[-88.308788,40.097157],[-88.30877,40.097175],[-88.308751,40.097192],[-88.308732,40.097209],[-88.308712,40.097225],[-88.308728,40.097239],[-88.308743,40.097253],[-88.308758,40.097268],[-88.308773,40.097282],[-88.308789,40.097298],[-88.308804,40.097315],[-88.308819,40.097331],[-88.308833,40.097348],[-88.308847,40.097365],[-88.30886,40.097382],[-88.308873,40.0974],[-88.308886,40.097418],[-88.308898,40.097436],[-88.308909,40.097454],[-88.30892,40.097472],[-88.308931,40.09749],[-88.308941,40.097509],[-88.30895,40.097528],[-88.308959,40.097547],[-88.308968,40.097565],[-88.308975,40.097584],[-88.308983,40.097603],[-88.30899,40.097622],[-88.308996,40.097642],[-88.309002,40.097661],[-88.309007,40.09768],[-88.309012,40.0977],[-88.309016,40.097719],[-88.30902,40.097739],[-88.309023,40.097758],[-88.309026,40.097778],[-88.309028,40.097798],[-88.309029,40.097802],[-88.30903,40.097806],[-88.309031,40.097811],[-88.309032,40.097815],[-88.309035,40.09782],[-88.309038,40.097824],[-88.309041,40.097829],[-88.309045,40.097833],[-88.309049,40.097837],[-88.309053,40.097841],[-88.30906,40.097846],[-88.309067,40.097852],[-88.309073,40.097859],[-88.309078,40.097865],[-88.309083,40.097872],[-88.309088,40.097879],[-88.309092,40.097886],[-88.309095,40.097893],[-88.309098,40.097901],[-88.3091,40.097908],[-88.309102,40.097916],[-88.309103,40.097923],[-88.309104,40.097931],[-88.309104,40.097939],[-88.309104,40.097946],[-88.309103,40.097954],[-88.309101,40.097962],[-88.309099,40.097969],[-88.309097,40.097977],[-88.309093,40.097984],[-88.30909,40.097991],[-88.309085,40.097998],[-88.309081,40.098005],[-88.30908,40.098006],[-88.309075,40.098012],[-88.309069,40.098018],[-88.309064,40.098024],[-88.309057,40.09803],[-88.30905,40.098035],[-88.309043,40.09804],[-88.309036,40.098045],[-88.309028,40.098049],[-88.30902,40.098053],[-88.309012,40.098057],[-88.309003,40.09806],[-88.308994,40.098064],[-88.308985,40.098066],[-88.308976,40.098069],[-88.308966,40.09807],[-88.308957,40.098072],[-88.308947,40.098073],[-88.308937,40.098074],[-88.308927,40.098074],[-88.308917,40.098074],[-88.308908,40.098073],[-88.308898,40.098072],[-88.308888,40.098071],[-88.308879,40.098069],[-88.308869,40.098067],[-88.30886,40.098065],[-88.308851,40.098062],[-88.308842,40.098058],[-88.308834,40.098055],[-88.308826,40.098051],[-88.308818,40.098046],[-88.30881,40.098042],[-88.308803,40.098037],[-88.308796,40.098032],[-88.30879,40.098026],[-88.308784,40.09802],[-88.308778,40.098014],[-88.308773,40.098008],[-88.308768,40.098002],[-88.308764,40.097995],[-88.30876,40.097988],[-88.308757,40.097981],[-88.308754,40.097974],[-88.308751,40.097967],[-88.308749,40.097959],[-88.308748,40.097952],[-88.308747,40.097944],[-88.308747,40.097937],[-88.308747,40.097929],[-88.308748,40.097922],[-88.308749,40.097914],[-88.308751,40.097907],[-88.308754,40.097899],[-88.308757,40.097892],[-88.30876,40.097885],[-88.308764,40.097878],[-88.308768,40.097871],[-88.308773,40.097865],[-88.308779,40.097859],[-88.308785,40.097852],[-88.308791,40.097847],[-88.308795,40.097843],[-88.308799,40.097839],[-88.308802,40.097834],[-88.308805,40.09783],[-88.308808,40.097825],[-88.30881,40.09782],[-88.308811,40.097815],[-88.308812,40.09781],[-88.308813,40.097805],[-88.308813,40.0978],[-88.308812,40.097795],[-88.30881,40.097777],[-88.308807,40.09776],[-88.308804,40.097742],[-88.3088,40.097724],[-88.308795,40.097707],[-88.30879,40.09769],[-88.308785,40.097672],[-88.308779,40.097655],[-88.308772,40.097638],[-88.308765,40.09762],[-88.308758,40.097603],[-88.30875,40.097586],[-88.308741,40.097569],[-88.308732,40.097552],[-88.308722,40.097536],[-88.308712,40.097519],[-88.308702,40.097503],[-88.308691,40.097487],[-88.308679,40.097471],[-88.308667,40.097455],[-88.308655,40.09744],[-88.308642,40.097425],[-88.308629,40.097409],[-88.308615,40.097395],[-88.308601,40.09738],[-88.308586,40.097366],[-88.308571,40.097352],[-88.308556,40.097338],[-88.308553,40.097339],[-88.308532,40.097352],[-88.30851,40.097365],[-88.308488,40.097378],[-88.308466,40.09739],[-88.308443,40.097402],[-88.30842,40.097413],[-88.308397,40.097424],[-88.308374,40.097435],[-88.30835,40.097446],[-88.308327,40.097456],[-88.308302,40.097466],[-88.308278,40.097475],[-88.308254,40.097485],[-88.308169,40.097516],[-88.30775,40.09767],[-88.307762,40.097694],[-88.307775,40.097718],[-88.307787,40.097742],[-88.307798,40.097766],[-88.307809,40.09779],[-88.30782,40.097815],[-88.30783,40.097839],[-88.30784,40.097864],[-88.307849,40.097889],[-88.307858,40.097914],[-88.307866,40.097939],[-88.307874,40.097965],[-88.307881,40.09799],[-88.307888,40.098016],[-88.307895,40.098042],[-88.307901,40.098068],[-88.307906,40.098094]]],[[[-88.307759,40.095893],[-88.307721,40.095895],[-88.307716,40.095911],[-88.30771,40.095927],[-88.307704,40.095943],[-88.307698,40.095958],[-88.307691,40.095974],[-88.307683,40.095989],[-88.307576,40.096204],[-88.307556,40.096246],[-88.307555,40.096248],[-88.307545,40.096267],[-88.307535,40.096285],[-88.307524,40.096304],[-88.307513,40.096322],[-88.307501,40.09634],[-88.307489,40.096358],[-88.307477,40.096376],[-88.307464,40.096393],[-88.30745,40.096411],[-88.307436,40.096428],[-88.307422,40.096445],[-88.307407,40.096461],[-88.307391,40.096478],[-88.307376,40.096494],[-88.307374,40.096496],[-88.307358,40.096511],[-88.307341,40.096527],[-88.307325,40.096542],[-88.307307,40.096557],[-88.30729,40.096572],[-88.307272,40.096586],[-88.307253,40.0966],[-88.307234,40.096614],[-88.307215,40.096627],[-88.307196,40.096641],[-88.307176,40.096653],[-88.307156,40.096666],[-88.307135,40.096678],[-88.307115,40.09669],[-88.307093,40.096702],[-88.307072,40.096713],[-88.307212,40.096907],[-88.307356,40.097105],[-88.307499,40.097303],[-88.30764,40.097497],[-88.307657,40.097521],[-88.308079,40.097366],[-88.308161,40.097336],[-88.308185,40.097327],[-88.308209,40.097317],[-88.308233,40.097307],[-88.308257,40.097297],[-88.30828,40.097286],[-88.308303,40.097275],[-88.308325,40.097264],[-88.308348,40.097252],[-88.30837,40.09724],[-88.308391,40.097228],[-88.308413,40.097215],[-88.308434,40.097202],[-88.308454,40.097188],[-88.308475,40.097174],[-88.308494,40.09716],[-88.308514,40.097146],[-88.308533,40.097131],[-88.308552,40.097116],[-88.30857,40.097101],[-88.308588,40.097085],[-88.308605,40.097069],[-88.308622,40.097053],[-88.308639,40.097037],[-88.308655,40.09702],[-88.30867,40.097003],[-88.308686,40.096986],[-88.3087,40.096968],[-88.308715,40.096951],[-88.308728,40.096933],[-88.308742,40.096915],[-88.308754,40.096896],[-88.308767,40.096878],[-88.308779,40.096859],[-88.308788,40.096843],[-88.308797,40.096827],[-88.308806,40.096811],[-88.308814,40.096795],[-88.308822,40.096779],[-88.308829,40.096765],[-88.308837,40.096751],[-88.308845,40.096737],[-88.308853,40.096723],[-88.308862,40.09671],[-88.308872,40.096696],[-88.308881,40.096683],[-88.308892,40.09667],[-88.308902,40.096657],[-88.308913,40.096645],[-88.308925,40.096632],[-88.308937,40.09662],[-88.308949,40.096608],[-88.308962,40.096596],[-88.308386,40.096271],[-88.308402,40.096246],[-88.308618,40.095901],[-88.30865,40.095851],[-88.307759,40.095893]]]]},"id":6},{"type":"Feature","properties":{"name":"Wisegarver","status":"Current","zoning":"Single Family","bill":"CB 1999-238","link":"https://cityofchampaign.sharepoint.com/:b:/g/EVWFZ4gTFjdMq8rxUpQe0L8Bz_mJXXRbnmTihmo9Qto0kg?e=cmIHbB"},"geometry":{"type":"Polygon","coordinates":[[[-88.328268,40.084774],[-88.328274,40.085303],[-88.328509,40.085292],[-88.328733,40.085213],[-88.329544,40.084356],[-88.329631,40.084314],[-88.329722,40.084314],[-88.329722,40.084252],[-88.3297,40.084252],[-88.328833,40.08425],[-88.328839,40.084775],[-88.328268,40.084774]]]},"id":7},{"type":"Feature","properties":{"name":"FMC Property","status":"Current","zoning":"TBD upon Annexation","bill":"CB 2003-196","link":"https://cityofchampaign.sharepoint.com/:b:/g/EXjvI-y5zoJEl7q5PON7Rh4BleQosP6rjHGIcg77pGrn6Q?e=36sBjC"},"geometry":{"type":"Polygon","coordinates":[[[-88.332992,40.076924],[-88.332907,40.076925],[-88.332921,40.078748],[-88.332931,40.080074],[-88.332933,40.080296],[-88.332935,40.080571],[-88.332937,40.08084],[-88.332962,40.084192],[-88.337707,40.084127],[-88.337706,40.084046],[-88.337641,40.077428],[-88.337641,40.077423],[-88.337635,40.076874],[-88.332992,40.076924]]]},"id":8},{"type":"Feature","properties":{"name":"New Century Estates","status":"Annexed","zoning":"Light Industrial","bill":"CB 1996-269","link":"https://cityofchampaign.sharepoint.com/:b:/g/EQGNvgK5yplKkNaJiocKXn4BluwW4CZWT4ZE_Nfk92akeA?e=qdeCye"},"geometry":{"type":"Polygon","coordinates":[[[-88.328254,40.08308],[-88.328235,40.080553],[-88.323517,40.080534],[-88.323538,40.082303],[-88.326309,40.082303],[-88.326309,40.08308],[-88.328254,40.08308]]]},"id":9},{"type":"Feature","properties":{"name":"Lincolnshire Townhomes","status":"Expired","zoning":"Single Family & Multifamily Low Density","bill":"CB 1997-203","link":"https://cityofchampaign.sharepoint.com/:b:/g/EQGcqhvdRK9MosBZ4u8byc4B6h1UyoZYCRfyqS7eUdEmiQ?e=e5CfYn"},"geometry":{"type":"Polygon","coordinates":[[[-88.30704,40.08678],[-88.307028,40.086898],[-88.30764,40.087716],[-88.307729,40.087789],[-88.307947,40.087789],[-88.307922,40.087242],[-88.308506,40.087107],[-88.308819,40.086883],[-88.308819,40.086804],[-88.308798,40.086812],[-88.308777,40.08682],[-88.308754,40.086829],[-88.308732,40.086837],[-88.308709,40.086845],[-88.308691,40.086849],[-88.308667,40.086854],[-88.308642,40.086857],[-88.308625,40.086859],[-88.308618,40.08686],[-88.30861,40.08686],[-88.308585,40.086859],[-88.308561,40.086855],[-88.308544,40.08685],[-88.308522,40.086841],[-88.3085,40.086831],[-88.308477,40.086823],[-88.308467,40.086821],[-88.308443,40.086815],[-88.308419,40.086809],[-88.308395,40.086804],[-88.30837,40.0868],[-88.30835,40.086797],[-88.308326,40.086794],[-88.308301,40.086791],[-88.308276,40.086788],[-88.308251,40.086786],[-88.308241,40.086785],[-88.308216,40.086782],[-88.308191,40.08678],[-88.308166,40.086778],[-88.308153,40.086777],[-88.308141,40.086776],[-88.308116,40.086774],[-88.308091,40.086773],[-88.308084,40.086772],[-88.308059,40.086771],[-88.308034,40.086769],[-88.308009,40.086769],[-88.307984,40.086769],[-88.307974,40.08677],[-88.307949,40.086772],[-88.307924,40.086775],[-88.3079,40.086779],[-88.307875,40.086782],[-88.30785,40.086784],[-88.307825,40.086786],[-88.307814,40.086787],[-88.307806,40.086787],[-88.307781,40.086787],[-88.307755,40.086787],[-88.30773,40.086787],[-88.307705,40.086786],[-88.307681,40.086785],[-88.307673,40.086784],[-88.307648,40.086781],[-88.307624,40.086778],[-88.307599,40.086775],[-88.307574,40.086772],[-88.307549,40.086769],[-88.30753,40.086768],[-88.307506,40.086766],[-88.307481,40.086765],[-88.307456,40.086764],[-88.307431,40.086763],[-88.307406,40.086762],[-88.307386,40.086762],[-88.307361,40.086762],[-88.307336,40.086763],[-88.307311,40.086764],[-88.307286,40.086764],[-88.307267,40.086765],[-88.307255,40.086765],[-88.307242,40.086766],[-88.307217,40.086767],[-88.307193,40.086768],[-88.307168,40.086768],[-88.307143,40.086769],[-88.307118,40.08677],[-88.307093,40.086771],[-88.307071,40.086775],[-88.307047,40.086779],[-88.30704,40.08678]]]},"id":10},{"type":"Feature","properties":{"name":"Van Vorst","status":"Current","zoning":"Multifamily Low Density","bill":"CB 2007-084","link":"https://cityofchampaign.sharepoint.com/:b:/g/EQcwVNzIGnhMhWGnFZqYhZ0B8_vOdf-ti2f8BlTMocSd9g?e=ZpoEQy"},"geometry":{"type":"Polygon","coordinates":[[[-88.315439,40.084076],[-88.316479,40.084079],[-88.31647,40.083331],[-88.31543,40.083327],[-88.315439,40.084076]]]},"id":11},{"type":"Feature","properties":{"name":"Champaign Highlands Fire Protection","status":"Current","zoning":"Multifamily Low Density","bill":"CB 2007-055","link":"https://cityofchampaign.sharepoint.com/:b:/g/Ecd_J9_UJElCmXtiDPvBgCQBK7JG-MgPbYH8i4WgRteOEA?e=KLSknq"},"geometry":{"type":"Polygon","coordinates":[[[-88.306246,40.086979],[-88.306257,40.086976],[-88.306281,40.086969],[-88.306304,40.086962],[-88.306327,40.086956],[-88.30635,40.08695],[-88.306374,40.086944],[-88.306398,40.086938],[-88.306422,40.086933],[-88.306446,40.086927],[-88.30647,40.086921],[-88.306493,40.086914],[-88.306502,40.086911],[-88.306524,40.086903],[-88.306545,40.086892],[-88.306566,40.086882],[-88.306588,40.086873],[-88.306595,40.08687],[-88.306618,40.086864],[-88.306642,40.086859],[-88.306667,40.086854],[-88.306691,40.086849],[-88.306715,40.086845],[-88.306736,40.08684],[-88.30676,40.086835],[-88.306784,40.086829],[-88.306808,40.086823],[-88.306832,40.086818],[-88.306856,40.086812],[-88.30688,40.086807],[-88.306889,40.086805],[-88.306914,40.0868],[-88.306938,40.086796],[-88.306963,40.086793],[-88.306986,40.086789],[-88.306987,40.086789],[-88.306998,40.086787],[-88.307022,40.086783],[-88.30704,40.08678],[-88.307047,40.086779],[-88.307071,40.086775],[-88.307093,40.086771],[-88.307118,40.08677],[-88.307143,40.086769],[-88.307168,40.086768],[-88.307193,40.086768],[-88.307217,40.086767],[-88.307242,40.086766],[-88.307255,40.086765],[-88.307267,40.086765],[-88.307286,40.086764],[-88.307311,40.086764],[-88.307336,40.086763],[-88.307361,40.086762],[-88.307386,40.086762],[-88.307406,40.086762],[-88.307431,40.086763],[-88.307456,40.086764],[-88.307481,40.086765],[-88.307506,40.086766],[-88.30753,40.086768],[-88.307549,40.086769],[-88.307574,40.086772],[-88.307599,40.086775],[-88.307624,40.086778],[-88.307648,40.086781],[-88.307673,40.086784],[-88.307681,40.086785],[-88.307705,40.086786],[-88.30773,40.086787],[-88.307755,40.086787],[-88.307781,40.086787],[-88.307806,40.086787],[-88.307814,40.086787],[-88.307825,40.086786],[-88.30785,40.086784],[-88.307875,40.086782],[-88.3079,40.086779],[-88.307924,40.086775],[-88.307949,40.086772],[-88.307974,40.08677],[-88.307984,40.086769],[-88.308009,40.086769],[-88.308034,40.086769],[-88.308059,40.086771],[-88.308084,40.086772],[-88.308091,40.086773],[-88.308116,40.086774],[-88.308141,40.086776],[-88.308153,40.086777],[-88.308166,40.086778],[-88.308191,40.08678],[-88.308216,40.086782],[-88.308241,40.086785],[-88.308251,40.086786],[-88.308276,40.086788],[-88.308301,40.086791],[-88.308326,40.086794],[-88.30835,40.086797],[-88.30837,40.0868],[-88.308395,40.086804],[-88.308419,40.086809],[-88.308443,40.086815],[-88.308467,40.086821],[-88.308477,40.086823],[-88.3085,40.086831],[-88.308522,40.086841],[-88.308544,40.08685],[-88.308561,40.086855],[-88.308585,40.086859],[-88.30861,40.08686],[-88.308618,40.08686],[-88.308625,40.086859],[-88.308642,40.086857],[-88.308667,40.086854],[-88.308691,40.086849],[-88.308709,40.086845],[-88.308732,40.086837],[-88.308754,40.086829],[-88.308777,40.08682],[-88.308798,40.086812],[-88.308819,40.086804],[-88.308821,40.086804],[-88.308844,40.086797],[-88.308864,40.086793],[-88.308889,40.08679],[-88.308914,40.086789],[-88.308929,40.086789],[-88.308954,40.08679],[-88.308979,40.08679],[-88.308982,40.08679],[-88.309006,40.086787],[-88.309031,40.086784],[-88.309055,40.086779],[-88.309062,40.086778],[-88.309086,40.086772],[-88.309109,40.086765],[-88.309133,40.086758],[-88.309149,40.086754],[-88.309173,40.086751],[-88.309197,40.086748],[-88.30922,40.08674],[-88.309241,40.086733],[-88.309265,40.086727],[-88.309289,40.086722],[-88.309301,40.08672],[-88.309313,40.086718],[-88.309337,40.086716],[-88.309337,40.086613],[-88.309425,40.086545],[-88.309646,40.086375],[-88.309646,40.08627],[-88.309329,40.086002],[-88.309317,40.085992],[-88.308925,40.08566],[-88.308428,40.08524],[-88.308428,40.085281],[-88.308428,40.085515],[-88.308317,40.085662],[-88.308303,40.085684],[-88.308295,40.085708],[-88.308291,40.085732],[-88.308292,40.085756],[-88.308298,40.08578],[-88.308309,40.085802],[-88.308325,40.085823],[-88.308345,40.085842],[-88.308368,40.085858],[-88.308531,40.085953],[-88.308545,40.085962],[-88.308776,40.086096],[-88.3088,40.086092],[-88.308825,40.086091],[-88.308835,40.086092],[-88.308863,40.086095],[-88.30889,40.086101],[-88.308916,40.086111],[-88.308939,40.086123],[-88.308959,40.086139],[-88.308976,40.086156],[-88.308989,40.086175],[-88.308998,40.086196],[-88.309002,40.086212],[-88.309003,40.08623],[-88.309001,40.08625],[-88.308995,40.086269],[-88.308985,40.086288],[-88.308985,40.086288],[-88.308985,40.086289],[-88.308984,40.086289],[-88.308984,40.08629],[-88.308984,40.08629],[-88.308983,40.086291],[-88.308983,40.086291],[-88.308983,40.086291],[-88.308982,40.086292],[-88.308982,40.086293],[-88.308982,40.086293],[-88.308982,40.086294],[-88.308981,40.086294],[-88.308981,40.086295],[-88.308981,40.086295],[-88.30898,40.086295],[-88.30898,40.086296],[-88.30898,40.086296],[-88.30898,40.086296],[-88.308979,40.086297],[-88.308979,40.086297],[-88.308967,40.086311],[-88.308954,40.086323],[-88.308954,40.086323],[-88.308953,40.086323],[-88.308953,40.086324],[-88.308953,40.086324],[-88.308952,40.086324],[-88.308951,40.086325],[-88.30895,40.086326],[-88.30895,40.086326],[-88.308942,40.086332],[-88.308919,40.086345],[-88.308894,40.086355],[-88.308867,40.086362],[-88.308838,40.086365],[-88.308809,40.086365],[-88.308808,40.086365],[-88.308807,40.086365],[-88.308806,40.086365],[-88.308805,40.086365],[-88.308804,40.086365],[-88.308803,40.086365],[-88.308802,40.086365],[-88.308802,40.086365],[-88.308801,40.086365],[-88.308801,40.086365],[-88.308801,40.086365],[-88.308787,40.086363],[-88.308766,40.086358],[-88.308741,40.08635],[-88.308717,40.086338],[-88.308696,40.086324],[-88.308679,40.086308],[-88.308664,40.08629],[-88.308654,40.08627],[-88.308648,40.086249],[-88.308645,40.086228],[-88.308322,40.086048],[-88.308068,40.085906],[-88.308048,40.085894],[-88.308026,40.085885],[-88.308002,40.085878],[-88.307977,40.085875],[-88.307952,40.085874],[-88.307927,40.085877],[-88.307903,40.085882],[-88.30788,40.085891],[-88.307718,40.085963],[-88.307658,40.085988],[-88.307601,40.086018],[-88.307548,40.086051],[-88.307499,40.086088],[-88.307454,40.086128],[-88.307414,40.08617],[-88.307313,40.086304],[-88.307289,40.086336],[-88.307294,40.086356],[-88.307294,40.086376],[-88.307291,40.086396],[-88.307283,40.086416],[-88.307272,40.086435],[-88.307258,40.086452],[-88.307255,40.086455],[-88.307235,40.086471],[-88.307213,40.086484],[-88.307189,40.086494],[-88.307162,40.086501],[-88.307135,40.086505],[-88.307107,40.086506],[-88.307079,40.086503],[-88.307052,40.086497],[-88.30704,40.086493],[-88.30702,40.086485],[-88.307002,40.086475],[-88.306986,40.086463],[-88.306968,40.086446],[-88.306954,40.086427],[-88.306944,40.086406],[-88.30694,40.086392],[-88.306937,40.086373],[-88.306938,40.086354],[-88.306943,40.086335],[-88.30695,40.086317],[-88.306963,40.086298],[-88.306979,40.086281],[-88.306998,40.086266],[-88.307019,40.086253],[-88.307044,40.086243],[-88.307073,40.086235],[-88.307103,40.086232],[-88.307134,40.086232],[-88.307218,40.086122],[-88.307251,40.08608],[-88.307288,40.08604],[-88.307344,40.085988],[-88.307406,40.085941],[-88.307473,40.085897],[-88.307545,40.085858],[-88.307584,40.08584],[-88.307762,40.085762],[-88.307955,40.085676],[-88.308079,40.085621],[-88.308115,40.085602],[-88.308146,40.08558],[-88.308173,40.085554],[-88.308194,40.085526],[-88.308209,40.085495],[-88.308219,40.085463],[-88.308222,40.085431],[-88.308218,40.085373],[-88.308205,40.085316],[-88.308184,40.08526],[-88.308155,40.085207],[-88.308147,40.085195],[-88.30772,40.085384],[-88.307526,40.08547],[-88.307349,40.085548],[-88.306962,40.08572],[-88.306717,40.086046],[-88.306602,40.086198],[-88.306466,40.086379],[-88.306247,40.086671],[-88.306247,40.086677],[-88.306247,40.0867],[-88.306246,40.086979]]]},"id":12},{"type":"Feature","properties":{"name":"Fields East Fire Protection","status":"Current","zoning":"Multifamily Low Density","bill":"CB 2007-056","link":"https://cityofchampaign.sharepoint.com/:b:/g/EZoHbjSc-txCkinm-3YDlsoBb5WN6OLqSmZ9E3dpffEGsg?e=TrJg8q"},"geometry":{"type":"Polygon","coordinates":[[[-88.296178,40.088828],[-88.29618,40.089302],[-88.296436,40.089302],[-88.296984,40.089127],[-88.297673,40.088907],[-88.298035,40.088792],[-88.298014,40.088243],[-88.297624,40.088234],[-88.297643,40.088142],[-88.296933,40.088145],[-88.296208,40.088147],[-88.29581,40.088149],[-88.295337,40.08815],[-88.29534,40.088604],[-88.295828,40.088603],[-88.29583,40.088603],[-88.295851,40.088603],[-88.295871,40.088602],[-88.295891,40.088601],[-88.295912,40.088599],[-88.295932,40.088597],[-88.295952,40.088595],[-88.295972,40.088592],[-88.295992,40.088589],[-88.296012,40.088585],[-88.296032,40.088581],[-88.296123,40.088561],[-88.296139,40.088558],[-88.296158,40.088555],[-88.296177,40.088552],[-88.296196,40.088549],[-88.296215,40.088547],[-88.296234,40.088545],[-88.296253,40.088544],[-88.296272,40.088543],[-88.296292,40.088542],[-88.296311,40.088542],[-88.29633,40.088542],[-88.29635,40.088543],[-88.296841,40.088536],[-88.296851,40.088536],[-88.296861,40.088536],[-88.296871,40.088537],[-88.296881,40.088538],[-88.296891,40.08854],[-88.296901,40.088542],[-88.29691,40.088544],[-88.29692,40.088547],[-88.296929,40.08855],[-88.29756,40.088536],[-88.297564,40.088638],[-88.297027,40.08865],[-88.297028,40.088657],[-88.297029,40.088665],[-88.297029,40.088672],[-88.297029,40.08868],[-88.297028,40.088688],[-88.297027,40.088695],[-88.297025,40.088703],[-88.297023,40.08871],[-88.29702,40.088717],[-88.297016,40.088724],[-88.297013,40.088731],[-88.297008,40.088738],[-88.297003,40.088745],[-88.296998,40.088751],[-88.296992,40.088757],[-88.296986,40.088763],[-88.296979,40.088769],[-88.296972,40.088774],[-88.296964,40.088779],[-88.296957,40.088784],[-88.296948,40.088788],[-88.29694,40.088792],[-88.296931,40.088796],[-88.296922,40.088799],[-88.296913,40.088802],[-88.296904,40.088805],[-88.296894,40.088807],[-88.296884,40.088808],[-88.296875,40.088809],[-88.296865,40.08881],[-88.296855,40.088811],[-88.296845,40.088811],[-88.296835,40.08881],[-88.296825,40.088809],[-88.296815,40.088808],[-88.296806,40.088806],[-88.296796,40.088804],[-88.296787,40.088802],[-88.296778,40.088799],[-88.296769,40.088796],[-88.29676,40.088792],[-88.296752,40.088788],[-88.296744,40.088783],[-88.296736,40.088779],[-88.296729,40.088774],[-88.296721,40.088768],[-88.296715,40.088763],[-88.296709,40.088757],[-88.296703,40.088751],[-88.296697,40.088744],[-88.296693,40.088738],[-88.296688,40.088731],[-88.296684,40.088724],[-88.296681,40.088717],[-88.296678,40.088709],[-88.296676,40.088702],[-88.296674,40.088695],[-88.296673,40.088687],[-88.296354,40.088694],[-88.296347,40.088694],[-88.296328,40.088695],[-88.296309,40.088696],[-88.29629,40.088698],[-88.296272,40.0887],[-88.296253,40.088702],[-88.296235,40.088704],[-88.296216,40.088707],[-88.296198,40.088711],[-88.29618,40.088715],[-88.296161,40.088719],[-88.296128,40.088726],[-88.296178,40.088828]]]},"id":13},{"type":"Feature","properties":{"name":"Brookview Fire Protection","status":"Current","zoning":"Multifamily Low Density","bill":"CB 2007-054","link":"https://cityofchampaign.sharepoint.com/:b:/g/ETpBOTjy3CZGklwXJKtjMMoBYDwfUN04GXGsaD0pW6Mc9Q?e=ULgYMc"},"geometry":{"type":"Polygon","coordinates":[[[-88.296088,40.088735],[-88.296066,40.088739],[-88.296044,40.088743],[-88.296022,40.088747],[-88.296,40.08875],[-88.295978,40.088753],[-88.295955,40.088756],[-88.295933,40.088758],[-88.295911,40.08876],[-88.295888,40.088761],[-88.295866,40.088762],[-88.295848,40.088762],[-88.295831,40.088762],[-88.295829,40.088762],[-88.295341,40.088764],[-88.295344,40.089305],[-88.295353,40.090758],[-88.295355,40.090757],[-88.295377,40.090748],[-88.295399,40.090739],[-88.295421,40.090729],[-88.295442,40.09072],[-88.29546,40.090712],[-88.295464,40.09071],[-88.295485,40.0907],[-88.295507,40.090691],[-88.295529,40.090681],[-88.29555,40.09067],[-88.295571,40.09066],[-88.295592,40.09065],[-88.295613,40.09064],[-88.295615,40.090639],[-88.295636,40.090628],[-88.295636,40.090628],[-88.295656,40.090617],[-88.295676,40.090606],[-88.29568,40.090604],[-88.295696,40.090594],[-88.295716,40.090582],[-88.295724,40.090578],[-88.295736,40.09057],[-88.295756,40.090558],[-88.295775,40.090546],[-88.295795,40.090535],[-88.295815,40.090523],[-88.295817,40.090522],[-88.29581,40.089304],[-88.29618,40.089302],[-88.296178,40.088828],[-88.296128,40.088726],[-88.296088,40.088735]]]},"id":14},{"type":"Feature","properties":{"name":"Friendship Lutheran Church","status":"Current","zoning":"Single Family","bill":"CB1997-222","link":"https://cityofchampaign.sharepoint.com/:b:/g/EX2nWqCUjcNEjg8NdrutBNoBwjqM5_Upe4-ppYN3GDcPnA?e=v8sXtw"},"geometry":{"type":"Polygon","coordinates":[[[-88.295268,40.068107],[-88.295115,40.068107],[-88.295036,40.068108],[-88.295041,40.068722],[-88.295046,40.069389],[-88.295128,40.069389],[-88.295722,40.069395],[-88.298382,40.069417],[-88.298382,40.069387],[-88.298371,40.068092],[-88.295268,40.068107]]]},"id":15},{"type":"Feature","properties":{"name":"Thompson Tract Annexation Agreement Amendment","status":"Current","zoning":"SF1, SF2, CN, MF2","bill":"CB 2009-050","link":"https://cityofchampaign.sharepoint.com/:b:/g/EUeChp976bBIubg5kXue4foBNvjmezPOsvrb4qg_lNv1hA?e=f3soIn"},"geometry":{"type":"Polygon","coordinates":[[[-88.276089,40.062746],[-88.2761,40.065556],[-88.276101,40.065843],[-88.276111,40.068361],[-88.276188,40.068361],[-88.280459,40.068415],[-88.285585,40.06848],[-88.285583,40.068216],[-88.285581,40.068052],[-88.285578,40.067623],[-88.285575,40.067197],[-88.285574,40.067033],[-88.28557,40.066625],[-88.285567,40.0662],[-88.285566,40.066035],[-88.285563,40.065665],[-88.285534,40.062026],[-88.283172,40.061998],[-88.28081,40.061971],[-88.276154,40.061917],[-88.276086,40.061917],[-88.276089,40.062746]]]},"id":16},{"type":"Feature","properties":{"name":"O'Neills Sub South First Street","status":"Current","zoning":"Two Family","bill":"CB 2008-260","link":"https://cityofchampaign.sharepoint.com/:b:/g/ESWlwedNkQ9DjFSgPCfTDnIBieyWErHS5_QvXiA6Lpq2cg?e=Hjgho9"},"geometry":{"type":"MultiPolygon","coordinates":[[[[-88.237493,40.076795],[-88.237279,40.076795],[-88.23728,40.07707],[-88.237281,40.077344],[-88.237282,40.077619],[-88.237284,40.077893],[-88.237285,40.078118],[-88.237285,40.078168],[-88.237288,40.078804],[-88.237502,40.078804],[-88.238324,40.078804],[-88.238321,40.078166],[-88.23832,40.077892],[-88.238319,40.077617],[-88.238317,40.077342],[-88.238316,40.077068],[-88.238315,40.076793],[-88.237493,40.076795]]],[[[-88.237505,40.079353],[-88.23729,40.079353],[-88.237292,40.079628],[-88.237506,40.079628],[-88.238328,40.079628],[-88.238327,40.079455],[-88.238327,40.079353],[-88.237505,40.079353]]]]},"id":17},{"type":"Feature","properties":{"name":"Kraft","status":"Current","zoning":"Light Industrial & Heavy Industrial","bill":"CB 1987-333"},"geometry":{"type":"Polygon","coordinates":[[[-88.26746,40.127199],[-88.267464,40.127199],[-88.27541,40.127308],[-88.275976,40.127315],[-88.276507,40.127323],[-88.276669,40.127287],[-88.276735,40.127221],[-88.276766,40.127163],[-88.27678,40.126888],[-88.276776,40.1266],[-88.276807,40.12631],[-88.276783,40.124752],[-88.27245,40.124691],[-88.272418,40.12469],[-88.272386,40.124689],[-88.272353,40.124688],[-88.272321,40.124686],[-88.272289,40.124683],[-88.272257,40.12468],[-88.272225,40.124677],[-88.272193,40.124673],[-88.272161,40.124669],[-88.27213,40.124665],[-88.272098,40.12466],[-88.272067,40.124654],[-88.272035,40.124649],[-88.272004,40.124642],[-88.271973,40.124636],[-88.271942,40.124628],[-88.271911,40.124621],[-88.271881,40.124613],[-88.27185,40.124605],[-88.27182,40.124596],[-88.27179,40.124587],[-88.27176,40.124577],[-88.271731,40.124567],[-88.271701,40.124557],[-88.271672,40.124546],[-88.271643,40.124535],[-88.271615,40.124523],[-88.271587,40.124512],[-88.271559,40.124499],[-88.271531,40.124487],[-88.271503,40.124474],[-88.271476,40.12446],[-88.271449,40.124446],[-88.271423,40.124432],[-88.271397,40.124418],[-88.271371,40.124403],[-88.271345,40.124388],[-88.27132,40.124372],[-88.271366,40.12433],[-88.271505,40.1242],[-88.271604,40.123698],[-88.271363,40.12367],[-88.271363,40.123414],[-88.272065,40.122751],[-88.272167,40.122281],[-88.273019,40.122007],[-88.273346,40.121891],[-88.273666,40.121815],[-88.274726,40.121691],[-88.275396,40.121638],[-88.275911,40.12187],[-88.27603,40.122087],[-88.276036,40.122321],[-88.276175,40.122497],[-88.276438,40.122503],[-88.276435,40.122304],[-88.276633,40.122266],[-88.276711,40.122213],[-88.276744,40.122156],[-88.276729,40.121202],[-88.276729,40.121199],[-88.267524,40.122274],[-88.267407,40.122288],[-88.267407,40.122288],[-88.267422,40.123671],[-88.267432,40.12459],[-88.267434,40.124784],[-88.267436,40.124978],[-88.267441,40.125418],[-88.267446,40.125906],[-88.267449,40.126178],[-88.267449,40.126192],[-88.267449,40.126206],[-88.267452,40.126478],[-88.267453,40.12657],[-88.267454,40.126643],[-88.267454,40.126647],[-88.26746,40.127199]]]},"id":18},{"type":"Feature","properties":{"name":"Phillip Warner","status":"Current","zoning":"Commercial Industrial","bill":"CB 2005-050","link":"https://cityofchampaign.sharepoint.com/:b:/g/ES5dvwLkXzZNohkTIAH1GigBZHbtIx6GePG-jDGixnpVkA?e=vVczpZ"},"geometry":{"type":"Polygon","coordinates":[[[-88.239683,40.180171],[-88.239695,40.180139],[-88.239707,40.180107],[-88.23972,40.180075],[-88.239733,40.180044],[-88.23975,40.180005],[-88.239767,40.179966],[-88.239784,40.179928],[-88.239802,40.179888],[-88.239821,40.179848],[-88.239841,40.179809],[-88.239861,40.17977],[-88.239882,40.179731],[-88.239903,40.179692],[-88.239924,40.179653],[-88.239946,40.179614],[-88.239969,40.179576],[-88.239992,40.179538],[-88.240015,40.1795],[-88.240039,40.179462],[-88.240064,40.179424],[-88.240089,40.179386],[-88.240114,40.179349],[-88.24014,40.179312],[-88.240167,40.179275],[-88.240194,40.179238],[-88.240221,40.179202],[-88.240249,40.179165],[-88.240278,40.179129],[-88.240306,40.179093],[-88.240336,40.179058],[-88.240365,40.179022],[-88.240396,40.178987],[-88.240426,40.178952],[-88.240457,40.178917],[-88.24047,40.178904],[-88.240482,40.17889],[-88.240512,40.178858],[-88.240543,40.178826],[-88.240574,40.178794],[-88.240605,40.178762],[-88.240636,40.178731],[-88.240668,40.178699],[-88.240701,40.178668],[-88.241159,40.178234],[-88.241225,40.178171],[-88.241197,40.178137],[-88.241169,40.178103],[-88.241125,40.17805],[-88.241082,40.177997],[-88.24104,40.177944],[-88.240998,40.177891],[-88.240957,40.177837],[-88.240916,40.177783],[-88.240875,40.177729],[-88.240835,40.177674],[-88.240796,40.17762],[-88.240757,40.177565],[-88.240718,40.17751],[-88.24068,40.177455],[-88.240643,40.177399],[-88.240606,40.177344],[-88.240569,40.177288],[-88.240533,40.177232],[-88.240498,40.177176],[-88.240463,40.177119],[-88.240429,40.177063],[-88.240395,40.177006],[-88.240362,40.176949],[-88.240329,40.176892],[-88.240296,40.176835],[-88.240265,40.176777],[-88.240233,40.17672],[-88.240203,40.176662],[-88.240172,40.176604],[-88.240143,40.176546],[-88.240114,40.176488],[-88.240085,40.176429],[-88.240057,40.176371],[-88.240029,40.176312],[-88.240002,40.176253],[-88.239976,40.176194],[-88.23995,40.176135],[-88.239925,40.176075],[-88.2399,40.176016],[-88.239876,40.175956],[-88.239852,40.175897],[-88.239829,40.175837],[-88.239806,40.175777],[-88.239784,40.175717],[-88.239762,40.175657],[-88.239741,40.175596],[-88.239721,40.175536],[-88.239701,40.175475],[-88.239682,40.175415],[-88.239663,40.175354],[-88.239645,40.175294],[-88.239636,40.175262],[-88.239601,40.175102],[-88.239599,40.175091],[-88.239598,40.175086],[-88.239595,40.175074],[-88.239588,40.17504],[-88.239591,40.175296],[-88.239484,40.175297],[-88.238518,40.175302],[-88.238559,40.178232],[-88.238559,40.178237],[-88.239525,40.178231],[-88.239526,40.178231],[-88.239526,40.178232],[-88.239575,40.180143],[-88.239682,40.180143],[-88.239683,40.180171]]]},"id":19},{"type":"Feature","properties":{"name":"Boll's Subdivision","status":"Current","zoning":"Single Family","bill":"CB 2008-028","link":"https://cityofchampaign.sharepoint.com/:b:/g/EROEYkIn7L5OmBprPVMByQ0BqEQHyqY2_DVMDvdQarxDrA?e=NNUCNv"},"geometry":{"type":"Polygon","coordinates":[[[-88.23982,40.172494],[-88.239827,40.173014],[-88.239827,40.173016],[-88.239827,40.173023],[-88.239829,40.173124],[-88.239829,40.173126],[-88.239831,40.173253],[-88.239831,40.173282],[-88.239832,40.173306],[-88.239832,40.173309],[-88.239838,40.17349],[-88.23985,40.173671],[-88.23985,40.173676],[-88.23987,40.173894],[-88.239897,40.174111],[-88.239932,40.174327],[-88.239973,40.174542],[-88.24187,40.17456],[-88.241859,40.17369],[-88.241859,40.17369],[-88.241858,40.173608],[-88.241854,40.173298],[-88.241851,40.173087],[-88.241142,40.173082],[-88.241142,40.172735],[-88.241143,40.172429],[-88.241143,40.172123],[-88.241143,40.171818],[-88.240974,40.171816],[-88.240545,40.171812],[-88.240115,40.171808],[-88.239703,40.171804],[-88.239712,40.172466],[-88.239712,40.172466],[-88.239819,40.172466],[-88.23982,40.172494]]]},"id":20},{"type":"Feature","properties":{"name":"Atkins West (Allen-Bradley)","status":"Expired","zoning":"Multifamily High Density","bill":"CB 1995-144","link":"https://cityofchampaign.sharepoint.com/:b:/g/EbP2FwOgt71PqHGTbT-j9t4BvjFFqMXL5NyZc9UWz1RYlg?e=Bsd5FS"},"geometry":{"type":"Polygon","coordinates":[[[-88.277718,40.142272],[-88.277573,40.144059],[-88.277565,40.144112],[-88.277558,40.144164],[-88.27755,40.144217],[-88.277542,40.144269],[-88.277533,40.144321],[-88.277524,40.144373],[-88.277326,40.145453],[-88.277316,40.14551],[-88.277306,40.145565],[-88.277297,40.145619],[-88.277288,40.145673],[-88.27728,40.145728],[-88.277273,40.145782],[-88.277265,40.145837],[-88.277259,40.145891],[-88.277253,40.145946],[-88.277247,40.146001],[-88.277242,40.146055],[-88.277238,40.14611],[-88.277234,40.146165],[-88.27723,40.14622],[-88.277228,40.146274],[-88.277225,40.146329],[-88.277223,40.146384],[-88.277222,40.146439],[-88.277221,40.146494],[-88.277221,40.146548],[-88.277221,40.146583],[-88.277221,40.146618],[-88.277226,40.147018],[-88.277219,40.148052],[-88.277279,40.148811],[-88.280151,40.148806],[-88.280756,40.148265],[-88.280851,40.14818],[-88.280936,40.148091],[-88.281024,40.147999],[-88.28119,40.147125],[-88.280907,40.146337],[-88.280977,40.144747],[-88.280361,40.143914],[-88.279209,40.142703],[-88.278819,40.142401],[-88.278234,40.142101],[-88.278233,40.142101],[-88.277732,40.1421],[-88.277718,40.142272]]]},"id":21},{"type":"Feature","properties":{"name":"The Andersons","status":"Current","zoning":"Heavy Industrial","bill":"CB 2007-107","link":"https://cityofchampaign.sharepoint.com/:b:/g/EcXo645b58hCjfAzIkc-J8oBmjlHOxA1-L8tYAbXemYC4w?e=BhbnzV"},"geometry":{"type":"Polygon","coordinates":[[[-88.314892,40.149446],[-88.314914,40.158073],[-88.31519,40.158073],[-88.315853,40.158073],[-88.316682,40.158073],[-88.317511,40.158073],[-88.318119,40.157989],[-88.319113,40.157989],[-88.319721,40.157989],[-88.320218,40.157607],[-88.320219,40.157141],[-88.320219,40.156844],[-88.32044,40.15659],[-88.320882,40.156505],[-88.321434,40.156505],[-88.321932,40.156378],[-88.321987,40.155827],[-88.321987,40.155233],[-88.321987,40.154513],[-88.321932,40.153792],[-88.321932,40.153156],[-88.321601,40.152562],[-88.320993,40.152138],[-88.319722,40.151544],[-88.318396,40.150951],[-88.316021,40.14989],[-88.314892,40.149446]]]},"id":22},{"type":"Feature","properties":{"name":"Camp Farm Management","status":"Current","zoning":"Light Industrial","bill":"CB 2007-012","link":"https://cityofchampaign.sharepoint.com/:b:/g/EfUYjfsKMTVMgEbW_FSUp24BsXbwkAg6zQ7kbGr6hFwclA?e=P1B9IL"},"geometry":{"type":"Polygon","coordinates":[[[-88.314892,40.149446],[-88.305329,40.145346],[-88.305342,40.147038],[-88.306282,40.147041],[-88.306282,40.146648],[-88.314787,40.150121],[-88.314892,40.149446]]]},"id":23},{"type":"Feature","properties":{"name":"Christie Foundation","status":"Current","zoning":"Light Industrial and Commercial General","bill":"CB 2007-011","link":"https://cityofchampaign.sharepoint.com/:b:/g/EVUfPFSh_oBDqbMDEzJn8bMBsAHETDc-zKQELj1y-ako8w?e=stlzbr"},"geometry":{"type":"Polygon","coordinates":[[[-88.300663,40.15322],[-88.30066,40.151235],[-88.305373,40.15121],[-88.30536,40.149429],[-88.305332,40.14575],[-88.295973,40.145748],[-88.295891,40.145748],[-88.295877,40.145748],[-88.295867,40.144618],[-88.295798,40.144618],[-88.295013,40.144615],[-88.289722,40.144597],[-88.289723,40.144598],[-88.289723,40.144599],[-88.289725,40.144601],[-88.289777,40.144675],[-88.289778,40.144677],[-88.28978,40.144679],[-88.289791,40.144696],[-88.289793,40.144698],[-88.289794,40.1447],[-88.289879,40.14483],[-88.289881,40.144832],[-88.289882,40.144834],[-88.289976,40.144991],[-88.290063,40.14515],[-88.290143,40.145312],[-88.290215,40.145475],[-88.290279,40.14564],[-88.290336,40.145807],[-88.290341,40.145823],[-88.290549,40.146716],[-88.290562,40.146756],[-88.290619,40.146923],[-88.290685,40.147089],[-88.290758,40.147252],[-88.29084,40.147413],[-88.29093,40.147572],[-88.291028,40.147728],[-88.291134,40.147881],[-88.291247,40.148031],[-88.291368,40.148177],[-88.291496,40.14832],[-88.29163,40.148458],[-88.291772,40.148593],[-88.291921,40.148723],[-88.292075,40.148849],[-88.292236,40.14897],[-88.292403,40.149087],[-88.292576,40.149198],[-88.292754,40.149304],[-88.292937,40.149405],[-88.293003,40.14944],[-88.294191,40.150049],[-88.294131,40.150119],[-88.294205,40.150158],[-88.295253,40.150695],[-88.295855,40.151004],[-88.29592,40.151042],[-88.295907,40.149412],[-88.295919,40.149412],[-88.295993,40.149412],[-88.296,40.150647],[-88.295998,40.150958],[-88.295998,40.151077],[-88.296276,40.15121],[-88.29632,40.151231],[-88.296409,40.151273],[-88.296583,40.151356],[-88.299817,40.152892],[-88.29986,40.152839],[-88.300663,40.15322]]]},"id":24},{"type":"Feature","properties":{"name":"Atkins West","status":"Current","zoning":"Interstate Business Park and Commercial Office","bill":"CB 2005-192","link":"https://cityofchampaign.sharepoint.com/:b:/g/EQpYYpgIrd5Dgfw3qbng_CgB-yu1MqzDphwolZp36T0Msw?e=SmKR7t"},"geometry":{"type":"Polygon","coordinates":[[[-88.299915,40.1544],[-88.299434,40.154725],[-88.298718,40.155211],[-88.298664,40.155247],[-88.298703,40.155282],[-88.298757,40.15533],[-88.298813,40.155379],[-88.298841,40.155405],[-88.29889,40.155532],[-88.299156,40.156229],[-88.299159,40.156427],[-88.29916,40.156505],[-88.299163,40.156709],[-88.299172,40.157305],[-88.29857,40.158169],[-88.298548,40.158201],[-88.300713,40.160042],[-88.303369,40.162301],[-88.303387,40.162316],[-88.303467,40.162384],[-88.304362,40.163145],[-88.304307,40.156718],[-88.304305,40.156488],[-88.303876,40.156487],[-88.303865,40.155101],[-88.303855,40.155096],[-88.303583,40.154967],[-88.303306,40.154836],[-88.302596,40.154498],[-88.301562,40.154007],[-88.301538,40.154038],[-88.301371,40.153959],[-88.300898,40.153734],[-88.300828,40.153782],[-88.300668,40.15389],[-88.299915,40.1544]]]},"id":25},{"type":"Feature","properties":{"name":"Auterman","status":"Current","zoning":"Single Family","bill":"CB 2005-303","link":"https://cityofchampaign.sharepoint.com/:b:/g/EUgzR7gUGfFPrzV6rNOlFzgB1I_4JkhB5oZ1m3WHeXWeTg?e=QXrmvx"},"geometry":{"type":"Polygon","coordinates":[[[-88.291272,40.158529],[-88.291367,40.158529],[-88.293632,40.15853],[-88.295903,40.158531],[-88.295891,40.157621],[-88.295887,40.157296],[-88.295886,40.157218],[-88.295885,40.157141],[-88.295365,40.156703],[-88.295275,40.156703],[-88.291367,40.156701],[-88.291272,40.156701],[-88.291272,40.158529]]]},"id":26},{"type":"Feature","properties":{"name":"Clearview","status":"Current","zoning":"Two Family & Interstate Office Park","bill":"CB 2007-008","link":"https://cityofchampaign.sharepoint.com/:b:/g/EVWfJ64Lha5PorkZr8YMjMgBlwKubdeGR1OyEsXyG5WsCA?e=Qs4ffp"},"geometry":{"type":"MultiPolygon","coordinates":[[[[-88.285488,40.160871],[-88.285444,40.160921],[-88.285379,40.160994],[-88.285423,40.161165],[-88.28601,40.161459],[-88.286118,40.161515],[-88.286245,40.161577],[-88.286405,40.161649],[-88.286568,40.161714],[-88.286736,40.161775],[-88.286907,40.161829],[-88.287081,40.161877],[-88.287258,40.161918],[-88.287437,40.161954],[-88.287618,40.161983],[-88.2878,40.162006],[-88.287984,40.162022],[-88.288168,40.162032],[-88.288353,40.162035],[-88.291298,40.162037],[-88.291318,40.162037],[-88.291302,40.160813],[-88.291284,40.159443],[-88.291278,40.158986],[-88.291272,40.158529],[-88.291272,40.156701],[-88.290587,40.156701],[-88.290209,40.156701],[-88.290052,40.156701],[-88.289988,40.156701],[-88.28992,40.156796],[-88.289845,40.156888],[-88.289763,40.156977],[-88.289674,40.157062],[-88.28958,40.157143],[-88.289479,40.15722],[-88.289373,40.157292],[-88.289261,40.157359],[-88.289145,40.157422],[-88.289024,40.157479],[-88.288909,40.157532],[-88.287867,40.15801],[-88.287802,40.15804],[-88.287698,40.158091],[-88.287597,40.158146],[-88.287501,40.158206],[-88.28741,40.158269],[-88.287324,40.158337],[-88.287355,40.158359],[-88.287266,40.158439],[-88.287184,40.158524],[-88.287109,40.158612],[-88.287042,40.158704],[-88.286983,40.158799],[-88.286932,40.158897],[-88.28689,40.158997],[-88.286857,40.159099],[-88.286806,40.159233],[-88.286747,40.159365],[-88.286679,40.159496],[-88.286603,40.159623],[-88.28652,40.159748],[-88.286428,40.159869],[-88.286329,40.159986],[-88.285602,40.160802],[-88.285567,40.160783],[-88.285488,40.160871]]],[[[-88.283383,40.164001],[-88.283433,40.164001],[-88.286607,40.164011],[-88.288969,40.164011],[-88.291343,40.164011],[-88.291323,40.162448],[-88.291317,40.162448],[-88.288353,40.162447],[-88.288147,40.162444],[-88.28794,40.162433],[-88.287735,40.162415],[-88.287531,40.16239],[-88.287329,40.162357],[-88.287129,40.162318],[-88.286931,40.162272],[-88.286736,40.162219],[-88.286545,40.16216],[-88.286357,40.162094],[-88.286174,40.162021],[-88.285994,40.161942],[-88.28582,40.161857],[-88.285712,40.161801],[-88.285126,40.161508],[-88.284903,40.161542],[-88.284707,40.161441],[-88.284662,40.16127],[-88.283812,40.160834],[-88.283703,40.160963],[-88.28367,40.161002],[-88.283397,40.161325],[-88.283397,40.161338],[-88.283383,40.164001]]]]},"id":27},{"type":"Feature","properties":{"name":"Clearview","status":"Current","zoning":"Two Family","bill":"CB 2007-008","link":"https://cityofchampaign.sharepoint.com/:b:/g/EVWfJ64Lha5PorkZr8YMjMgBlwKubdeGR1OyEsXyG5WsCA?e=Qs4ffp"},"geometry":{"type":"Polygon","coordinates":[[[-88.291405,40.171264],[-88.29613,40.171291],[-88.296101,40.16812],[-88.296012,40.16812],[-88.294652,40.168112],[-88.294649,40.167796],[-88.294309,40.167795],[-88.294308,40.167661],[-88.294286,40.165255],[-88.295986,40.165265],[-88.296075,40.165265],[-88.296072,40.164872],[-88.29607,40.164707],[-88.296065,40.164148],[-88.296064,40.164011],[-88.295974,40.164011],[-88.291368,40.164011],[-88.291343,40.164011],[-88.288969,40.164011],[-88.288987,40.165825],[-88.289006,40.167638],[-88.286643,40.167638],[-88.281912,40.167623],[-88.281942,40.17115],[-88.281943,40.171237],[-88.28668,40.171238],[-88.291405,40.171264]]]},"id":28},{"type":"Feature","properties":{"name":"Alto Vineyards","status":"Current","zoning":"Single Family","bill":"CB 2001-207","link":"https://cityofchampaign.sharepoint.com/:b:/g/EWThFpNYB5JBmd0uog751vMBbAKMzTKY2l_jth7iOxjIcw?e=V18edE"},"geometry":{"type":"Polygon","coordinates":[[[-88.294308,40.167661],[-88.294309,40.167795],[-88.294649,40.167796],[-88.294652,40.168112],[-88.296012,40.16812],[-88.296101,40.16812],[-88.296097,40.167651],[-88.296077,40.165448],[-88.296075,40.165265],[-88.295986,40.165265],[-88.294286,40.165255],[-88.294308,40.167661]]]},"id":29},{"type":"Feature","properties":{"name":"William Pankau AAA No. 1","status":"Current","zoning":"Single Family","bill":"CB 2014-151","link":"https://cityofchampaign.sharepoint.com/:b:/g/EZkCMNdFEBlDgkCV7qggMF4B24ahtMrj8UhUTOmUb_xDHA?e=Df4QR8"},"geometry":{"type":"Polygon","coordinates":[[[-88.305307,40.15672],[-88.305307,40.156807],[-88.305309,40.157068],[-88.305312,40.157387],[-88.305314,40.157699],[-88.305329,40.159787],[-88.305354,40.159787],[-88.305444,40.159787],[-88.306425,40.159789],[-88.306683,40.159789],[-88.306658,40.156722],[-88.306656,40.156395],[-88.30656,40.156349],[-88.306388,40.156267],[-88.30629,40.156221],[-88.30624,40.156197],[-88.30591,40.15604],[-88.305857,40.156015],[-88.305825,40.156],[-88.305408,40.155802],[-88.305325,40.155763],[-88.3053,40.155751],[-88.305307,40.15672]]]},"id":30},{"type":"Feature","properties":{"name":"Royse Wagner","status":"Current","zoning":"Commercial Industrial","bill":"CB 2006-266","link":"https://cityofchampaign.sharepoint.com/:b:/g/EaMWkAqDSLNBrMDZdLIKoskBL7xg6SWUFX5LN343mSGFug?e=ge18mN"},"geometry":{"type":"Polygon","coordinates":[[[-88.30182,40.153844],[-88.302238,40.154042],[-88.302267,40.154056],[-88.302747,40.153462],[-88.302308,40.15324],[-88.30182,40.153844]]]},"id":31},{"type":"Feature","properties":{"name":"Lange Industrial Park","status":"Current","zoning":"Light Industrial, Multifamily High Density & CO","bill":"CB 2001-065","link":"https://cityofchampaign.sharepoint.com/:b:/g/ETe9EmLY-apAgppJbn9LGbsBFmBaaYQwRWWDlEi9LHKYIg?e=MW7thW"},"geometry":{"type":"Polygon","coordinates":[[[-88.258115,40.157123],[-88.258117,40.157251],[-88.258124,40.157951],[-88.258141,40.159568],[-88.258231,40.159569],[-88.258347,40.159571],[-88.258888,40.159577],[-88.258894,40.160149],[-88.267049,40.160241],[-88.267055,40.160235],[-88.2675,40.159839],[-88.267517,40.157008],[-88.267517,40.15698],[-88.267329,40.15696],[-88.267301,40.156957],[-88.2673,40.156957],[-88.266857,40.15691],[-88.266832,40.156907],[-88.265737,40.156792],[-88.262855,40.156763],[-88.262855,40.156694],[-88.262854,40.156563],[-88.262662,40.156561],[-88.26266,40.156561],[-88.262658,40.156561],[-88.260313,40.156534],[-88.260219,40.156533],[-88.259979,40.156531],[-88.258198,40.156511],[-88.258109,40.15651],[-88.258115,40.157123]]]},"id":32},{"type":"Feature","properties":{"name":"Opal Gilliland Trust Annexation Agreement","status":"Annexed","zoning":"SF-1","bill":"CB 2009-082","link":"https://cityofchampaign.sharepoint.com/:b:/g/EVo-_Db6PelOmeMAegEpIwwB9_LwOGnCAv5-VRcKCq8upw?e=UvhMJI"},"geometry":{"type":"Polygon","coordinates":[[[-88.276154,40.071483],[-88.276157,40.07162],[-88.276161,40.071864],[-88.276178,40.072803],[-88.27618,40.072923],[-88.280919,40.07298],[-88.280917,40.072876],[-88.280871,40.069656],[-88.280869,40.069469],[-88.276278,40.069414],[-88.276118,40.069412],[-88.276154,40.071483]]]},"id":33},{"type":"Feature","properties":{"name":"Larry L. Zahnd & E. Aline Cruse Annexation","status":"Annexed","zoning":"Neighborhood Commercial","bill":"CB 2009-167","link":"https://cityofchampaign.sharepoint.com/:b:/g/EWsGSdf7vP1Bs_IAX5Ghpm4BmgMHtZhnxGy4Cv_n6woa_A?e=Z2saUZ"},"geometry":{"type":"Polygon","coordinates":[[[-88.2976,40.126932],[-88.296987,40.126926],[-88.296563,40.126922],[-88.295807,40.126914],[-88.295813,40.127354],[-88.295944,40.127492],[-88.296571,40.127498],[-88.297494,40.127508],[-88.297608,40.127509],[-88.297607,40.127468],[-88.2976,40.126932]]]},"id":34},{"type":"Feature","properties":{"name":"407 Wallace Ave (Wilbur Heights)","status":"Annexed","zoning":"I1","bill":"CB 2002-291","link":"https://cityofchampaign.sharepoint.com/:b:/g/EaBltWci955Lv6eXaMmV3DAB2XMGp42xY4etS0XYmLPb3w?e=aGLMwr"},"geometry":{"type":"Polygon","coordinates":[[[-88.232142,40.143529],[-88.23223,40.143529],[-88.232318,40.143529],[-88.232407,40.143529],[-88.232495,40.143529],[-88.232498,40.143529],[-88.232584,40.143528],[-88.232672,40.143528],[-88.232673,40.143147],[-88.232584,40.143146],[-88.232498,40.143146],[-88.232407,40.143146],[-88.232319,40.143146],[-88.232231,40.143146],[-88.232142,40.143146],[-88.232142,40.143529]]]},"id":35},{"type":"Feature","properties":{"name":"411 Wallace Ave","status":"Current","zoning":"I1","bill":"CB 1996-278","link":"https://cityofchampaign.sharepoint.com/:b:/g/EWIhNCdgZTJGk0PqBAI156gBEAPfKqefxVswTbeXNdfj6w?e=Ja8Ntx"},"geometry":{"type":"Polygon","coordinates":[[[-88.232672,40.143528],[-88.232761,40.143528],[-88.232849,40.143528],[-88.232937,40.143528],[-88.233026,40.143528],[-88.233026,40.143147],[-88.232938,40.143147],[-88.23285,40.143147],[-88.232761,40.143147],[-88.232673,40.143147],[-88.232672,40.143528]]]},"id":36},{"type":"Feature","properties":{"name":"South Research Park Phase IV AAA No. 2","zoning":"NC, CO, MF2","bill":"CB 2009-039","link":"https://cityofchampaign.sharepoint.com/:b:/g/ETN1x91Lh8hNqFTjitSjp6sBYc1W1Vt0IVeNiv0Jooor6w?e=Jhzr0k"},"geometry":{"type":"Polygon","coordinates":[[[-88.239797,40.086209],[-88.239862,40.083601],[-88.239847,40.083448],[-88.237781,40.083434],[-88.23671,40.083481],[-88.23541,40.083574],[-88.23417,40.083596],[-88.232534,40.083606],[-88.232569,40.09081],[-88.238077,40.090779],[-88.238099,40.085679],[-88.238298,40.085668],[-88.238941,40.085656],[-88.238955,40.086209],[-88.239797,40.086209]]]},"id":37},{"type":"Feature","properties":{"name":"South Research Park Ph IV Annexation Petition","zoning":"CN, CO, MF2","bill":"CB 2009-051","link":"https://cityofchampaign.sharepoint.com/:b:/g/ERen984nXstJoy9H8SDHn0gBJMqyGKnIYQ_ng6IkUDE5cQ?e=kshJh8"},"geometry":{"type":"Polygon","coordinates":[[[-88.239774,40.086167],[-88.239945,40.083471],[-88.239443,40.08347],[-88.238574,40.08347],[-88.23737,40.083469],[-88.2363,40.083468],[-88.235531,40.083544],[-88.235587,40.090787],[-88.238095,40.090789],[-88.238069,40.085678],[-88.238905,40.085627],[-88.239072,40.086167],[-88.239774,40.086167]]]},"id":38},{"type":"Feature","properties":{"name":"South Research Park AAA No. 3 (IV-east)","status":"Current","zoning":"CO","bill":"CB 2009-051","link":"https://cityofchampaign.sharepoint.com/:b:/g/ERen984nXstJoy9H8SDHn0gBJMqyGKnIYQ_ng6IkUDE5cQ?e=kshJh8"},"geometry":{"type":"Polygon","coordinates":[[[-88.235587,40.090762],[-88.235531,40.08357],[-88.232555,40.083593],[-88.232644,40.090759],[-88.235587,40.090762]]]},"id":39},{"type":"Feature","properties":{"name":"Canterbury House Apartments","status":"Annexed","zoning":"MF3","bill":"CB 2009-032"},"geometry":{"type":"Polygon","coordinates":[[[-88.239256,40.155337],[-88.239276,40.156322],[-88.239419,40.156324],[-88.242463,40.156355],[-88.242461,40.156235],[-88.242459,40.154953],[-88.244012,40.154954],[-88.243999,40.152725],[-88.243999,40.152723],[-88.243996,40.152222],[-88.243996,40.15222],[-88.240764,40.152217],[-88.240768,40.152409],[-88.240775,40.153035],[-88.239351,40.15303],[-88.239208,40.153031],[-88.239256,40.155337]]]},"id":40},{"type":"Feature","properties":{"name":"Westwood Trace Lot 12","status":"Annexed","bill":"CB 2010-002","link":"https://cityofchampaign.sharepoint.com/:b:/g/EfbQXL6XqP5Eiq3ii-L7GhwBz2DvofKZl9uMCX83X53BZA?e=SXzh99"},"geometry":{"type":"Polygon","coordinates":[[[-88.312547,40.113983],[-88.312547,40.114367],[-88.313287,40.11438],[-88.314391,40.114398],[-88.314389,40.114097],[-88.314389,40.114091],[-88.314368,40.113541],[-88.314332,40.11353],[-88.313963,40.113427],[-88.312594,40.11341],[-88.312548,40.113409],[-88.312546,40.113409],[-88.312547,40.113983]]]},"id":41},{"type":"Feature","properties":{"name":"Hobby Dynamics","status":"Expired","zoning":"Light Industrial","bill":"CB 1991-243"},"geometry":{"type":"MultiPolygon","coordinates":[[[[-88.312665,40.11438],[-88.311212,40.114329],[-88.311278,40.115698],[-88.312599,40.115747],[-88.312665,40.11438]]],[[[-88.312665,40.115749],[-88.312599,40.115747],[-88.312599,40.115749],[-88.312665,40.115749]]]]},"id":42},{"type":"Feature","properties":{"name":"Wellness at Prairie Village (Tract 1)","status":"Expired","zoning":"UND","bill":"CB 2010-184","link":"https://cityofchampaign.sharepoint.com/:b:/g/EWnciZXSZ6FLpkD1aQa2TpwBHkAFqJnLtQeDREdEmmCo8A?e=KdLM2i"},"geometry":{"type":"Polygon","coordinates":[[[-88.309234,40.07316],[-88.313822,40.073201],[-88.313984,40.073203],[-88.313984,40.073202],[-88.313971,40.072336],[-88.313811,40.072337],[-88.313692,40.070278],[-88.313573,40.069933],[-88.309219,40.069997],[-88.309234,40.07316]]]},"id":43},{"type":"Feature","properties":{"name":"Wellness at Prairie Village (Tract 2)","status":"Expired","zoning":"UND","bill":"CB 2010-184","link":"https://cityofchampaign.sharepoint.com/:b:/g/EWnciZXSZ6FLpkD1aQa2TpwBHkAFqJnLtQeDREdEmmCo8A?e=KdLM2i"},"geometry":{"type":"Polygon","coordinates":[[[-88.308569,40.070006],[-88.307139,40.070106],[-88.306959,40.070242],[-88.306591,40.071052],[-88.305421,40.071883],[-88.305433,40.072981],[-88.305354,40.073095],[-88.305334,40.073124],[-88.305335,40.073124],[-88.309199,40.073159],[-88.309234,40.07316],[-88.309219,40.069997],[-88.308569,40.070006]]]},"id":44},{"type":"Feature","properties":{"name":"1504 Dobbins Downs","status":"Current","zoning":"Single Family","bill":"CB 1999-295","link":"https://cityofchampaign.sharepoint.com/:b:/g/EekpzBgqD25KrW_c9rg4Eu8BdnRUecDulSW4ExR_LB73Mw?e=O5J9tN"},"geometry":{"type":"Polygon","coordinates":[[[-88.272336,40.142033],[-88.272336,40.142047],[-88.272473,40.142048],[-88.272603,40.14205],[-88.272603,40.142036],[-88.272605,40.141692],[-88.272348,40.14169],[-88.272344,40.14169],[-88.272337,40.14169],[-88.272336,40.142033]]]},"id":45},{"type":"Feature","properties":{"name":"IL American Water Treatment Facility AA","status":"Current","zoning":"L1 Light Industrial","bill":"CB 2007-192","link":"https://cityofchampaign.sharepoint.com/:b:/g/Ed7H5sp8kb9Mp8A_N2rm8RABxYX4wQlrIUQjvo-frRtq7w?e=2JeCag"},"geometry":{"type":"Polygon","coordinates":[[[-88.355521,40.127701],[-88.355521,40.12771],[-88.355522,40.127756],[-88.355569,40.131307],[-88.360273,40.131306],[-88.360224,40.127736],[-88.360223,40.127681],[-88.355521,40.127701]]]},"id":46},{"type":"Feature","properties":{"status":"Current","zoning":"SF1, Single Family Residential","bill":"CB 1999-237","link":"https://cityofchampaign.sharepoint.com/:b:/g/EUjTs-7p-CFErA0osUAbJckBxFAGKXbjDO5UHFnqzS49pA?e=F2HGD3"},"geometry":{"type":"Polygon","coordinates":[[[-88.269286,40.085364],[-88.269288,40.085554],[-88.26929,40.085773],[-88.269291,40.085878],[-88.269647,40.085881],[-88.26988,40.085883],[-88.269876,40.085186],[-88.269769,40.085185],[-88.269284,40.085181],[-88.269286,40.085364]]]},"id":47},{"type":"Feature","properties":{"name":"Lot 5 Stahly Sub","status":"Annexed","zoning":"Light Industrial","bill":"CB 1994-340"},"geometry":{"type":"Polygon","coordinates":[[[-88.31687,40.115083],[-88.316874,40.115373],[-88.316875,40.115387],[-88.316884,40.115999],[-88.316891,40.116449],[-88.316898,40.116912],[-88.316953,40.116913],[-88.317097,40.116913],[-88.319238,40.116914],[-88.319212,40.114589],[-88.319212,40.114561],[-88.318211,40.114558],[-88.318153,40.114557],[-88.318175,40.114575],[-88.318192,40.114594],[-88.318204,40.114616],[-88.318212,40.114639],[-88.318213,40.114663],[-88.31821,40.114687],[-88.318201,40.11471],[-88.318188,40.114731],[-88.318169,40.11475],[-88.318147,40.114767],[-88.318121,40.11478],[-88.318093,40.11479],[-88.318063,40.114796],[-88.318032,40.114797],[-88.318002,40.114795],[-88.317972,40.114789],[-88.317945,40.114778],[-88.317919,40.114765],[-88.317898,40.114749],[-88.317881,40.11473],[-88.317868,40.114709],[-88.317859,40.114686],[-88.317856,40.114663],[-88.317858,40.11464],[-88.317865,40.114618],[-88.317876,40.114596],[-88.317893,40.114577],[-88.317913,40.11456],[-88.317917,40.114556],[-88.317882,40.114556],[-88.316952,40.114556],[-88.316917,40.114556],[-88.316897,40.114556],[-88.316862,40.114556],[-88.31687,40.115083]]]},"id":48},{"type":"Feature","properties":{"name":"Handal Annexation Agreement","status":"Current","zoning":"I1 Light Industrial","bill":"CB 2015-028","link":"https://cityofchampaign.sharepoint.com/:b:/g/EWavS_0O0PZPn5gP_-Rsrl8BYr6C1rgpcDpP5GDVD7wHDQ?e=tlK2vq"},"geometry":{"type":"Polygon","coordinates":[[[-88.307197,40.156397],[-88.307188,40.155465],[-88.30703,40.15539],[-88.305399,40.154615],[-88.305406,40.155547],[-88.307096,40.15635],[-88.307197,40.156397]]]},"id":49},{"type":"Feature","properties":{"name":"Siuts Annexation Agreement","status":"Pending"},"geometry":{"type":"Polygon","coordinates":[[[-88.221033,40.171016],[-88.227826,40.170975],[-88.229798,40.170962],[-88.229797,40.170894],[-88.229797,40.170889],[-88.22971,40.163626],[-88.221303,40.16372],[-88.221225,40.163721],[-88.220497,40.165475],[-88.220166,40.166272],[-88.218225,40.170949],[-88.218221,40.170958],[-88.218192,40.171027],[-88.220219,40.171021],[-88.221033,40.171016]]]},"id":50},{"type":"Feature","properties":{"name":"Zahnd Annexation Agreement","status":"Current","zoning":"SF1 Single Family Residential","bill":"CB 2013-161","link":"https://cityofchampaign.sharepoint.com/:b:/g/EVpmB89NLGhNsTFYVVjLd5ABUpjfJ3_vdScLgsyEv7EyoA?e=14beBD"},"geometry":{"type":"Polygon","coordinates":[[[-88.338062,40.062443],[-88.340098,40.062457],[-88.342133,40.062471],[-88.342826,40.062476],[-88.342743,40.058626],[-88.342686,40.056009],[-88.341994,40.056004],[-88.341099,40.055997],[-88.341084,40.055269],[-88.341082,40.05521],[-88.339421,40.055197],[-88.338587,40.05519],[-88.337987,40.055186],[-88.337988,40.055245],[-88.338061,40.062374],[-88.338062,40.062443]]]},"id":51},{"type":"Feature","properties":{"name":"Carle at the Fields AA","status":"Annexed","bill":"CB 2016-169"},"geometry":{"type":"Polygon","coordinates":[[[-88.309589,40.076793],[-88.313865,40.076846],[-88.313822,40.073201],[-88.313984,40.073203],[-88.313984,40.073202],[-88.313971,40.072336],[-88.313811,40.072337],[-88.313692,40.070278],[-88.313573,40.069933],[-88.309219,40.069997],[-88.308569,40.070006],[-88.307139,40.070106],[-88.306959,40.070242],[-88.306591,40.071052],[-88.305421,40.071883],[-88.305433,40.072981],[-88.305354,40.073095],[-88.305334,40.073124],[-88.305335,40.073124],[-88.309199,40.073159],[-88.309234,40.07316],[-88.309249,40.076302],[-88.309251,40.076789],[-88.309589,40.076793]]]},"id":52},{"type":"Feature","properties":{"bill":"CB 2017-135"},"geometry":{"type":"Polygon","coordinates":[[[-88.297098,40.076688],[-88.297061,40.074825],[-88.297069,40.073003],[-88.295166,40.072994],[-88.295089,40.072993],[-88.295102,40.074077],[-88.295114,40.07515],[-88.295118,40.075438],[-88.295119,40.075583],[-88.295124,40.075999],[-88.29513,40.076457],[-88.295132,40.076676],[-88.295205,40.076677],[-88.295293,40.076677],[-88.295847,40.07668],[-88.29602,40.076681],[-88.297098,40.076688]]]},"id":53}]}