{"type":"FeatureCollection","features":[{"type":"Feature","properties":{"name":"Champaign County-City of Champaign Joint Enterprise Zone","expires":"2030-12-31"},"geometry":{"type":"Polygon","coordinates":[[[-88.228883,40.112703],[-88.228882,40.112785],[-88.228882,40.112703],[-88.228838,40.112703],[-88.228888,40.116257],[-88.228823,40.116258],[-88.228824,40.116378],[-88.228757,40.116379],[-88.228777,40.116481],[-88.228783,40.117092],[-88.228804,40.119295],[-88.228843,40.123213],[-88.229006,40.124607],[-88.229096,40.12525],[-88.229068,40.126172],[-88.229082,40.12724],[-88.229023,40.127333],[-88.225504,40.127356],[-88.225503,40.127475],[-88.225324,40.127559],[-88.225324,40.127576],[-88.22532,40.128654],[-88.226325,40.128655],[-88.226325,40.128683],[-88.226328,40.128949],[-88.226328,40.12898],[-88.226708,40.12898],[-88.227923,40.128979],[-88.227924,40.129006],[-88.227929,40.129296],[-88.228376,40.129295],[-88.229048,40.129294],[-88.229069,40.130982],[-88.236151,40.130936],[-88.236151,40.130963],[-88.236166,40.13234],[-88.234328,40.13234],[-88.221225,40.163721],[-88.22971,40.163626],[-88.229656,40.15998],[-88.239345,40.159978],[-88.239243,40.15634],[-88.248688,40.156419],[-88.248698,40.149245],[-88.243978,40.149176],[-88.243996,40.152222],[-88.240764,40.152217],[-88.240775,40.153035],[-88.239208,40.153031],[-88.238985,40.149139],[-88.239028,40.134384],[-88.241073,40.13436],[-88.241548,40.134223],[-88.242505,40.133247],[-88.242701,40.13302],[-88.243368,40.132245],[-88.243821,40.132202],[-88.245092,40.133337],[-88.245906,40.134054],[-88.246258,40.134241],[-88.24684,40.134354],[-88.247168,40.134354],[-88.251533,40.134342],[-88.254506,40.134333],[-88.254877,40.134201],[-88.257442,40.13379],[-88.258566,40.133863],[-88.261945,40.135062],[-88.263403,40.135553],[-88.26525,40.136105],[-88.265267,40.136667],[-88.265291,40.139473],[-88.26758,40.139416],[-88.267575,40.138916],[-88.268979,40.138892],[-88.268975,40.142032],[-88.267687,40.142017],[-88.267749,40.147419],[-88.26746,40.147417],[-88.262171,40.147408],[-88.262156,40.148671],[-88.262197,40.148962],[-88.261926,40.148965],[-88.261561,40.148964],[-88.261572,40.151546],[-88.258223,40.151575],[-88.258284,40.156238],[-88.258596,40.156434],[-88.262854,40.156563],[-88.262855,40.156763],[-88.265737,40.156792],[-88.267607,40.157012],[-88.268553,40.157051],[-88.269383,40.157237],[-88.269459,40.157869],[-88.269229,40.158333],[-88.267684,40.159751],[-88.268458,40.160233],[-88.277306,40.160306],[-88.277302,40.161316],[-88.283397,40.161338],[-88.283806,40.160831],[-88.285712,40.161801],[-88.287209,40.162335],[-88.291317,40.162448],[-88.291272,40.156701],[-88.295727,40.156766],[-88.29801,40.158707],[-88.299172,40.157305],[-88.299159,40.156427],[-88.29889,40.155532],[-88.298664,40.155247],[-88.297446,40.154244],[-88.29645,40.153423],[-88.296223,40.15295],[-88.296105,40.152117],[-88.296173,40.151515],[-88.291486,40.149002],[-88.290974,40.148562],[-88.290223,40.147484],[-88.289664,40.146011],[-88.289247,40.145088],[-88.289228,40.144444],[-88.289979,40.143825],[-88.290839,40.143096],[-88.291646,40.14249],[-88.292743,40.14215],[-88.287943,40.14211],[-88.290516,40.139629],[-88.277144,40.134739],[-88.277047,40.131783],[-88.278838,40.131717],[-88.278824,40.131141],[-88.278823,40.130467],[-88.280077,40.130481],[-88.280735,40.130635],[-88.28069,40.128689],[-88.280681,40.128285],[-88.280662,40.127473],[-88.295653,40.127606],[-88.295619,40.125137],[-88.294803,40.125042],[-88.294727,40.124786],[-88.293437,40.124798],[-88.292617,40.124904],[-88.291822,40.12524],[-88.290653,40.125273],[-88.288656,40.125309],[-88.287831,40.125517],[-88.287065,40.125575],[-88.287067,40.126424],[-88.286228,40.126455],[-88.286229,40.125216],[-88.286199,40.123024],[-88.286169,40.121784],[-88.286139,40.120736],[-88.28614,40.119759],[-88.286172,40.119115],[-88.287677,40.117817],[-88.288368,40.118265],[-88.28854,40.118353],[-88.288714,40.118439],[-88.288912,40.118531],[-88.288913,40.118531],[-88.289353,40.118718],[-88.289655,40.118832],[-88.290291,40.11904],[-88.290813,40.119179],[-88.29095,40.119211],[-88.291183,40.119261],[-88.291314,40.119288],[-88.291576,40.119335],[-88.291717,40.119358],[-88.291725,40.119359],[-88.291787,40.119369],[-88.292141,40.119455],[-88.292141,40.119455],[-88.292174,40.119463],[-88.292456,40.119532],[-88.292782,40.119548],[-88.293249,40.11957],[-88.293757,40.119585],[-88.294224,40.119592],[-88.295854,40.119583],[-88.297376,40.119597],[-88.297377,40.119597],[-88.298838,40.11955],[-88.300298,40.119504],[-88.300531,40.119496],[-88.30168,40.119249],[-88.302481,40.118493],[-88.302714,40.118273],[-88.303987,40.117781],[-88.304443,40.117009],[-88.304414,40.114392],[-88.304401,40.11325],[-88.305545,40.113274],[-88.305545,40.113302],[-88.305584,40.116791],[-88.305586,40.117129],[-88.305967,40.11769],[-88.307206,40.118313],[-88.307841,40.119203],[-88.30889,40.11963],[-88.311368,40.119753],[-88.314038,40.119765],[-88.314558,40.1198],[-88.319273,40.120004],[-88.319238,40.116914],[-88.319215,40.113278],[-88.314539,40.11326],[-88.314432,40.106551],[-88.313226,40.106647],[-88.312088,40.106956],[-88.311968,40.107265],[-88.311144,40.107257],[-88.311144,40.108623],[-88.309963,40.108612],[-88.309872,40.108366],[-88.309709,40.108324],[-88.309735,40.108105],[-88.305301,40.108055],[-88.305544,40.112678],[-88.30442,40.112678],[-88.304451,40.108045],[-88.304461,40.105851],[-88.300622,40.105813],[-88.29532,40.105638],[-88.295246,40.098465],[-88.285791,40.09837],[-88.281176,40.098315],[-88.2769,40.09826],[-88.276245,40.098148],[-88.2718,40.098136],[-88.271769,40.096683],[-88.271204,40.096951],[-88.270189,40.096921],[-88.26994,40.097369],[-88.26974,40.097307],[-88.2695,40.097508],[-88.269495,40.09813],[-88.269486,40.098312],[-88.27621,40.098362],[-88.276654,40.098627],[-88.276682,40.109161],[-88.279017,40.109226],[-88.279035,40.109316],[-88.279071,40.111047],[-88.276739,40.111032],[-88.27675,40.111902],[-88.271305,40.111841],[-88.27132,40.112791],[-88.276779,40.112857],[-88.27683,40.116439],[-88.268623,40.116364],[-88.257857,40.116284],[-88.254282,40.116287],[-88.250122,40.116291],[-88.25011,40.11532],[-88.246811,40.115326],[-88.2468,40.112616],[-88.248452,40.112622],[-88.248432,40.110157],[-88.246782,40.11016],[-88.246769,40.108993],[-88.245112,40.108988],[-88.245069,40.10495],[-88.245032,40.102277],[-88.244862,40.10228],[-88.244905,40.101243],[-88.245486,40.101247],[-88.245484,40.09991],[-88.246672,40.099914],[-88.246661,40.09901],[-88.248826,40.099034],[-88.24882,40.098103],[-88.251087,40.098109],[-88.251081,40.096836],[-88.251118,40.096414],[-88.25128,40.096159],[-88.251478,40.095877],[-88.25148,40.094496],[-88.251462,40.093096],[-88.251518,40.092945],[-88.25191,40.092911],[-88.251915,40.09241],[-88.251919,40.092121],[-88.251975,40.091912],[-88.252028,40.091716],[-88.252032,40.091702],[-88.252087,40.091495],[-88.252091,40.091481],[-88.252094,40.091468],[-88.252135,40.091315],[-88.252143,40.091286],[-88.252148,40.091238],[-88.252171,40.091025],[-88.252178,40.090966],[-88.252189,40.090862],[-88.252204,40.090724],[-88.252205,40.090713],[-88.252229,40.090497],[-88.252232,40.09047],[-88.252233,40.090454],[-88.252235,40.09044],[-88.252242,40.090369],[-88.252242,40.090222],[-88.252241,40.090181],[-88.252239,40.08989],[-88.252194,40.089514],[-88.252009,40.089539],[-88.251822,40.089568],[-88.251629,40.089606],[-88.251486,40.089641],[-88.251438,40.089557],[-88.251423,40.089532],[-88.251279,40.08928],[-88.251262,40.08925],[-88.251188,40.089133],[-88.251191,40.086257],[-88.250942,40.086232],[-88.25084,40.086153],[-88.250841,40.085863],[-88.250608,40.085532],[-88.250447,40.085409],[-88.249638,40.085403],[-88.24972,40.084744],[-88.249733,40.084396],[-88.249619,40.083565],[-88.248178,40.083571],[-88.247627,40.083569],[-88.247278,40.083566],[-88.246631,40.08354],[-88.246268,40.083538],[-88.242576,40.083469],[-88.241613,40.083414],[-88.239764,40.083362],[-88.238721,40.083356],[-88.238377,40.083347],[-88.237199,40.083365],[-88.235733,40.083447],[-88.232958,40.083491],[-88.23309,40.090699],[-88.232481,40.090859],[-88.232544,40.093812],[-88.232676,40.094516],[-88.24337,40.094476],[-88.243324,40.087051],[-88.242576,40.087051],[-88.242606,40.083909],[-88.24573,40.083987],[-88.245605,40.085785],[-88.245523,40.086952],[-88.245492,40.087174],[-88.245364,40.088088],[-88.245235,40.089001],[-88.245107,40.089914],[-88.245056,40.090275],[-88.244979,40.090823],[-88.245194,40.090825],[-88.244595,40.094477],[-88.244576,40.094592],[-88.244022,40.097969],[-88.244005,40.098075],[-88.243984,40.098203],[-88.243262,40.102605],[-88.243229,40.102808],[-88.243177,40.103124],[-88.242504,40.107232],[-88.242434,40.107657],[-88.242202,40.109077],[-88.242033,40.110109],[-88.242004,40.11029],[-88.241841,40.11128],[-88.241831,40.111345],[-88.24182,40.111409],[-88.241815,40.11145],[-88.241802,40.111541],[-88.241789,40.111632],[-88.241775,40.111723],[-88.241772,40.111739],[-88.241758,40.111835],[-88.241742,40.11193],[-88.241727,40.112026],[-88.241711,40.112121],[-88.241695,40.112217],[-88.241677,40.112321],[-88.241658,40.112425],[-88.241639,40.112529],[-88.241432,40.112531],[-88.233728,40.112592],[-88.23244,40.112604],[-88.230323,40.112624],[-88.22907,40.112636],[-88.228881,40.112631],[-88.228882,40.112703],[-88.228883,40.112703]]]},"id":0}]}