{"type":"FeatureCollection","features":[{"type":"Feature","properties":{"name":"Fire Station No. 1","station":1},"geometry":{"type":"Point","coordinates":[-88.245689,40.114144]},"id":0},{"type":"Feature","properties":{"name":"Fire Station No. 2","station":2},"geometry":{"type":"Point","coordinates":[-88.25792,40.09239]},"id":1},{"type":"Feature","properties":{"name":"Fire Station No. 3","station":3},"geometry":{"type":"Point","coordinates":[-88.253483,40.127409]},"id":2},{"type":"Feature","properties":{"name":"Fire Station No. 4","station":4},"geometry":{"type":"Point","coordinates":[-88.28519,40.108979]},"id":3},{"type":"Feature","properties":{"name":"Fire Station No. 5","station":5},"geometry":{"type":"Point","coordinates":[-88.276547,40.135438]},"id":4},{"type":"Feature","properties":{"name":"Fire Station No. 6","station":6},"geometry":{"type":"Point","coordinates":[-88.31082,40.083749]},"id":5}]}