{"type":"FeatureCollection","features":[{"type":"Feature","properties":{"name":"Salem Baptist Church","type":"Building","address":"500 E Park St","designated":"8/18/1998","link":"https://cityofchampaign.sharepoint.com/:b:/g/Edw7NTwC4JlEufSyvRNQYYIBi3OCWNydCpgJwgqoQ416Sg?e=Zw9yne"},"geometry":{"type":"Polygon","coordinates":[[[-88.231753,40.117478],[-88.231754,40.117839],[-88.231989,40.117838],[-88.231988,40.117476],[-88.231753,40.117478]]]},"id":0},{"type":"Feature","properties":{"name":"Lincoln Building","type":"Building","address":"44 Main St","designated":"9/17/2002","link":"https://cityofchampaign.sharepoint.com/:b:/g/EQ3fylkRpbJAiLnJMiCeMKgBvjLD0vtMrjNGzLpj_gK1sg?e=c8TUXu"},"geometry":{"type":"Polygon","coordinates":[[[-88.241533,40.117249],[-88.241514,40.117296],[-88.241421,40.11752],[-88.241701,40.11759],[-88.241791,40.117365],[-88.241809,40.117318],[-88.241828,40.117271],[-88.241553,40.117202],[-88.241533,40.117249]]]},"id":1},{"type":"Feature","properties":{"name":"Solon Building","type":"Building","address":"201 N Market St","designated":"9/17/2002","link":"https://cityofchampaign.sharepoint.com/:b:/g/ESlMM02WdktKgk5tikz6pbUBSsaq3W8WifrcPSQJjDkG-g?e=0sY1iB"},"geometry":{"type":"Polygon","coordinates":[[[-88.241592,40.117109],[-88.241591,40.11711],[-88.241865,40.117179],[-88.241866,40.117177],[-88.241889,40.11712],[-88.241874,40.117116],[-88.241615,40.117051],[-88.241592,40.117109]]]},"id":2},{"type":"Feature","properties":{"name":"Rick Orr Florist Building","type":"Building","address":"122 N Walnut St","designated":"11/18/2003","link":"https://cityofchampaign.sharepoint.com/:b:/g/EUxteeTW11hBt_G15Y0UF4oBnxBLiR-Sc1uZ8Ylvx_OTWg?e=9blhM7"},"geometry":{"type":"Polygon","coordinates":[[[-88.241939,40.117017],[-88.242206,40.117084],[-88.242229,40.117031],[-88.241961,40.116963],[-88.241939,40.117017]]]},"id":3},{"type":"Feature","properties":{"name":"Park Theater","type":"Building","address":"126-128 W Church St","designated":"8/18/1998","link":"https://cityofchampaign.sharepoint.com/:b:/g/ETDESFBj4zdPrmp46GhujKQBRTTzO2paz01IY4ouXAEw_w?e=eyMhJC"},"geometry":{"type":"Polygon","coordinates":[[[-88.244592,40.118359],[-88.244594,40.118727],[-88.244752,40.118727],[-88.24475,40.118359],[-88.244592,40.118359]]]},"id":4},{"type":"Feature","properties":{"name":"Virginia Theater","type":"Building","address":"203 W Park St","designated":"3/29/2001","link":"https://cityofchampaign.sharepoint.com/:b:/g/EYPQBpfYVJJBoJXq4sRTZ9ABgyC-QKJd7OFkyO5zYWXFMA?e=NO3sVJ"},"geometry":{"type":"Polygon","coordinates":[[[-88.245292,40.116823],[-88.245293,40.117002],[-88.245294,40.117181],[-88.245767,40.117181],[-88.245766,40.117002],[-88.245765,40.116822],[-88.245292,40.116823]]]},"id":5},{"type":"Feature","properties":{"name":"Women's Town Club (Buzard Organ)","type":"Building","address":"112 W Hill St","designated":"8/18/1998","link":"https://cityofchampaign.sharepoint.com/:b:/g/ERPgBbjcFrZJnJc89BLBOC0B-_gd2zlU8Ve9T6BNyUJBAA?e=mdYfGp"},"geometry":{"type":"Polygon","coordinates":[[[-88.244121,40.119325],[-88.244016,40.119326],[-88.244016,40.119504],[-88.244016,40.11968],[-88.244122,40.11968],[-88.244292,40.11968],[-88.244291,40.119324],[-88.244121,40.119325]]]},"id":6},{"type":"Feature","properties":{"name":"Orpheum Theater","type":"Building","address":"346-352 N Neil St","designated":"3/17/1998","link":"https://cityofchampaign.sharepoint.com/:b:/g/EY6f4ddwd6dGizr_0tKwtNsB9nqofQcplmj6_w41GA8oTw?e=r0epwz"},"geometry":{"type":"Polygon","coordinates":[[[-88.24222,40.119529],[-88.242483,40.119596],[-88.242747,40.119663],[-88.242837,40.119455],[-88.242306,40.11932],[-88.24222,40.119529]]]},"id":7},{"type":"Feature","properties":{"name":"Inter-Urban Trolley Barn","type":"Building","address":"804 N Neil St","designated":"8/4/1998","link":"https://cityofchampaign.sharepoint.com/:b:/g/EffzibbL1IVJsezaayN1Fp0BS6EIdDyHs9XtmECznOGgdQ?e=eBbncH"},"geometry":{"type":"Polygon","coordinates":[[[-88.242602,40.123909],[-88.24277,40.123909],[-88.242938,40.123909],[-88.243106,40.123909],[-88.243274,40.123909],[-88.243441,40.123909],[-88.243439,40.123637],[-88.243274,40.123637],[-88.243107,40.123636],[-88.24303,40.123636],[-88.242939,40.123636],[-88.242771,40.123636],[-88.242603,40.123636],[-88.242602,40.123909]]]},"id":8},{"type":"Feature","properties":{"name":"The Parkview","type":"Building","address":"305 W University Ave","designated":"10/19/1999","link":"https://cityofchampaign.sharepoint.com/:b:/g/EcMa_JCder9KjDu8Rl6a29oBdkdBsSxVRfXixVMMbOlgeg?e=t4N0l1"},"geometry":{"type":"Polygon","coordinates":[[[-88.24741,40.115822],[-88.247411,40.116005],[-88.247412,40.116185],[-88.247647,40.116184],[-88.247645,40.115821],[-88.24741,40.115822]]]},"id":9},{"type":"Feature","properties":{"name":"Trevett House","type":"Building","address":"101 N Elm St","designated":"1/19/1999","link":"https://cityofchampaign.sharepoint.com/:b:/g/Eb6xEVZZ0lJCuuHuKerqWtMBaJJejLSUPkagz86UrL5i8A?e=EtMXkV"},"geometry":{"type":"Polygon","coordinates":[[[-88.250942,40.116398],[-88.250705,40.116399],[-88.250231,40.116401],[-88.250233,40.116582],[-88.250233,40.116664],[-88.250711,40.116665],[-88.250944,40.116665],[-88.25118,40.116665],[-88.251179,40.116397],[-88.250942,40.116398]]]},"id":10},{"type":"Feature","properties":{"name":"Mattis House","type":"Building","address":"201 N Elm St","designated":"1/19/1999","link":"https://cityofchampaign.sharepoint.com/:b:/g/ES1MXGh7BVJBvZbtIJKcw3IBl2CfvNJes7GqghUircgxpQ?e=aP6MaU"},"geometry":{"type":"Polygon","coordinates":[[[-88.250242,40.117761],[-88.250711,40.11776],[-88.250947,40.117759],[-88.250986,40.117759],[-88.250986,40.117638],[-88.250947,40.117642],[-88.250949,40.117395],[-88.250712,40.117396],[-88.250239,40.117397],[-88.250241,40.117579],[-88.250242,40.117761]]]},"id":11},{"type":"Feature","properties":{"name":"Dunning/Marks House","type":"Building","address":"1018 W Church St","designated":"12/14/2001","link":"https://cityofchampaign.sharepoint.com/:b:/g/EaUBExeJkvpPvg7TNRdBl2EBCSMJdG1c4gm06ciAZhRnEg?e=zlOqG6"},"geometry":{"type":"Polygon","coordinates":[[[-88.262106,40.118767],[-88.262308,40.118769],[-88.262303,40.118384],[-88.262101,40.118382],[-88.261899,40.11838],[-88.261904,40.118765],[-88.262106,40.118767]]]},"id":12},{"type":"Feature","properties":{"name":"Atkinson Monument/ Price Paint Store","type":"Building","address":"106 S Neil St","designated":"11/18/2003","link":"https://cityofchampaign.sharepoint.com/:b:/g/EW5ehaYY64xItBHn50GEpVUBg0S_GeaJ8aiyTf_VBcyJYg?e=OKh9Rr"},"geometry":{"type":"Polygon","coordinates":[[[-88.242973,40.11585],[-88.242948,40.115907],[-88.242947,40.115908],[-88.242937,40.115933],[-88.243387,40.116047],[-88.243386,40.11602],[-88.243386,40.115955],[-88.243386,40.115891],[-88.242998,40.115793],[-88.242973,40.11585]]]},"id":13},{"type":"Feature","properties":{"name":"Phi Delta Theta","type":"Building","address":"309 E Chalmers St","designated":"8/18/1998","link":"https://cityofchampaign.sharepoint.com/:b:/g/EWjzozhqN7ZBhJcFZTCkc6YBInSoIfwRWfnF4QsoiKHqsg?e=1ldApc"},"geometry":{"type":"Polygon","coordinates":[[[-88.234192,40.106094],[-88.234086,40.106095],[-88.234085,40.106126],[-88.234091,40.106493],[-88.23432,40.10649],[-88.23455,40.106488],[-88.234546,40.106122],[-88.234547,40.106091],[-88.234192,40.106094]]]},"id":14},{"type":"Feature","properties":{"name":"Harwood-Solon House","type":"Building","address":"503 S State St","designated":"9/1/1998","link":"https://cityofchampaign.sharepoint.com/:b:/g/EQwecllZEqBNnfz6YH3Nx4QBzDXum9SVD_ntdXotHLyGbQ?e=Anjkhx"},"geometry":{"type":"Polygon","coordinates":[[[-88.246912,40.111578],[-88.247659,40.111579],[-88.247659,40.111057],[-88.246906,40.111056],[-88.246912,40.111578]]]},"id":15},{"type":"Feature","properties":{"name":"Villard Court Historic District","type":"Historic District","address":"1-8 Villard Ct","designated":"8/4/1998","link":"https://cityofchampaign.sharepoint.com/:b:/g/Ee4MV2ZBrVVKqRgchFG_vD8BPMNVdFlImotDOV1WV02d0w?e=8U3iix"},"geometry":{"type":"Polygon","coordinates":[[[-88.245221,40.108441],[-88.245222,40.108579],[-88.245408,40.108579],[-88.245575,40.108579],[-88.245587,40.108579],[-88.245607,40.108579],[-88.245759,40.108579],[-88.245771,40.108579],[-88.245928,40.108578],[-88.245927,40.108491],[-88.245927,40.108444],[-88.245927,40.108441],[-88.245927,40.108366],[-88.245927,40.108305],[-88.24577,40.108305],[-88.245605,40.108304],[-88.245573,40.108304],[-88.245405,40.108303],[-88.245219,40.108303],[-88.245221,40.108441]]]},"id":16},{"type":"Feature","properties":{"name":"Illinois Central Railroad Historic District","type":"Historic District","address":"Downtown","designated":"8/18/1998","link":"https://cityofchampaign.sharepoint.com/:b:/g/EbHhy9zJ675AiVXb1q8_lB4BGUMaABh7FO8aIfSi4nRnOw?e=wgZx4e"},"geometry":{"type":"Polygon","coordinates":[[[-88.240052,40.117383],[-88.239656,40.118334],[-88.239717,40.118347],[-88.239511,40.118812],[-88.239849,40.118894],[-88.239719,40.11921],[-88.239799,40.119159],[-88.239883,40.119113],[-88.239934,40.119088],[-88.24002,40.119051],[-88.240108,40.119017],[-88.240199,40.118987],[-88.2411,40.118945],[-88.241464,40.118896],[-88.241757,40.1182],[-88.24049,40.117886],[-88.240508,40.117844],[-88.24064,40.117529],[-88.2405,40.117494],[-88.240578,40.117298],[-88.24093,40.116402],[-88.240574,40.11632],[-88.240197,40.117203],[-88.240192,40.117216],[-88.240129,40.1172],[-88.240052,40.117383]]]},"id":17},{"type":"Feature","properties":{"name":"Wojnar House","type":"Building","address":"212 E University Ave","designated":"8/4/1998","link":"https://cityofchampaign.sharepoint.com/:b:/g/ER9O-7KC1LZDu4UFfqOUVuwBjoJ4NMm5J4gtnHCdr3xanw?e=Sa30ES"},"geometry":{"type":"Polygon","coordinates":[[[-88.235546,40.116453],[-88.235547,40.116818],[-88.235781,40.116817],[-88.23578,40.116452],[-88.235546,40.116453]]]},"id":18},{"type":"Feature","properties":{"name":"Georgian Apartment Building","type":"Building","address":"1005 S Sixth St","designated":"2/15/2005","link":"https://cityofchampaign.sharepoint.com/:b:/g/EaJKWeSBOGVNoM7eUG1F_HEBd-JmKd4buTgoEgUUg3UyCw?e=WNzGwT"},"geometry":{"type":"Polygon","coordinates":[[[-88.230425,40.106187],[-88.230428,40.106336],[-88.230428,40.106339],[-88.23115,40.106336],[-88.23115,40.106184],[-88.230425,40.106187]]]},"id":19},{"type":"Feature","properties":{"name":"Champaign City Building","type":"Building","address":"102 N Neil St","designated":"7/18/2005","link":"https://cityofchampaign.sharepoint.com/:b:/g/EZPr9otI5vhAiozAqxN4eewBxZRHEXWxYlsdnttdPXu15Q?e=TAjF1Q"},"geometry":{"type":"Polygon","coordinates":[[[-88.243044,40.116403],[-88.242733,40.116404],[-88.242705,40.116475],[-88.242708,40.116476],[-88.242988,40.116546],[-88.243395,40.116649],[-88.24339,40.116401],[-88.243044,40.116403]]]},"id":20},{"type":"Feature","properties":{"name":"The Greystone","type":"Building","address":"107 S Wright St","designated":"5/23/2007","link":"https://cityofchampaign.sharepoint.com/:b:/g/Ef-1x4v7iMxIiUjVfjgie6QB302xSOtj4jcuIp77KZA44Q?e=Q3cEET"},"geometry":{"type":"Polygon","coordinates":[[[-88.229362,40.115498],[-88.229121,40.1155],[-88.229123,40.115678],[-88.229364,40.115676],[-88.229604,40.115675],[-88.229603,40.115496],[-88.229362,40.115498]]]},"id":21},{"type":"Feature","properties":{"name":"The Cambridge Building","type":"Building","address":"805-807 W Church St","designated":"9/18/2008"},"geometry":{"type":"Polygon","coordinates":[[[-88.256121,40.11768],[-88.256099,40.11768],[-88.2561,40.118164],[-88.256337,40.118164],[-88.256781,40.118163],[-88.256783,40.117789],[-88.256337,40.117787],[-88.256337,40.11768],[-88.256121,40.11768]]]},"id":22},{"type":"Feature","properties":{"name":"The Haley-Walker-Ginza Building","type":"Building","address":"315 E University Ave","designated":"2/15/2011","link":"https://cityofchampaign.sharepoint.com/:b:/g/EWD5gOOgQTxCrTBK5hBmX4EBKLDfdR9wXIHSLUVRSqNsoQ?e=imNYjW"},"geometry":{"type":"Polygon","coordinates":[[[-88.233643,40.11588],[-88.233644,40.116167],[-88.233645,40.11624],[-88.233881,40.116239],[-88.233879,40.115879],[-88.233643,40.11588]]]},"id":23},{"type":"Feature","properties":{"name":"Franks House","type":"Building","address":"704 N Randolph St","designated":"9/21/1999","link":"https://cityofchampaign.sharepoint.com/:b:/g/EaHJrD4YbJtMlLrbLgvP4WIBLFAljcmqKFWkgDLqTHGY7A?e=fTYKhK"},"geometry":{"type":"Polygon","coordinates":[[[-88.24485,40.122572],[-88.245091,40.122572],[-88.24509,40.122403],[-88.24485,40.122401],[-88.24485,40.122572]]]},"id":24},{"type":"Feature","properties":{"name":"The Stone Arch Bridge","type":"Bridge","address":"Second & Springfield","designated":"5/11/1999"},"geometry":{"type":"Polygon","coordinates":[[[-88.23719,40.112748],[-88.23719,40.112786],[-88.237189,40.112952],[-88.237308,40.112951],[-88.237305,40.112893],[-88.237293,40.112833],[-88.237275,40.112748],[-88.23719,40.112748]]]},"id":25},{"type":"Feature","properties":{"name":"U.S. Post Office","type":"Building","address":"301 N Randolph St","designated":"5/11/1999"},"geometry":{"type":"Polygon","coordinates":[[[-88.245774,40.118357],[-88.245301,40.118358],[-88.245302,40.118541],[-88.245303,40.118725],[-88.245776,40.118723],[-88.246012,40.118723],[-88.24601,40.118357],[-88.245774,40.118357]]]},"id":26},{"type":"Feature","properties":{"name":"1509 W. Park (Wee Haven)","type":"Building","address":"1509 W. Park","designated":"5/15/2012","link":"https://cityofchampaign.sharepoint.com/:b:/g/EaWZxTR07C5Ju8_uTPWKCFABUfOpHdFvPuOb3eCC-eAMRQ?e=vcNLyY"},"geometry":{"type":"Polygon","coordinates":[[[-88.271287,40.117312],[-88.271501,40.117314],[-88.271494,40.11691],[-88.27128,40.116907],[-88.271287,40.117312]]]},"id":27},{"type":"Feature","properties":{"name":"Coca-Cola Bottling Plant","type":"Building","address":"1701 S. Neil St.","designated":"07/21/2015","link":"https://cityofchampaign.sharepoint.com/:b:/g/EU9NbsFRcflLlKn40ZxuPAYB1-pXhXP9W_8MQX5tKIBiLA?e=yl5bQV"},"geometry":{"type":"Polygon","coordinates":[[[-88.243842,40.10337],[-88.24464,40.103373],[-88.244642,40.102852],[-88.244541,40.102852],[-88.244458,40.102852],[-88.244458,40.102983],[-88.244458,40.103134],[-88.243878,40.103135],[-88.243842,40.10337]]]},"id":28},{"type":"Feature","properties":{},"geometry":{"type":"Polygon","coordinates":[[[-88.249161,40.108274],[-88.249807,40.108276],[-88.249808,40.108141],[-88.249808,40.108075],[-88.249808,40.108065],[-88.24916,40.108063],[-88.24916,40.10814],[-88.249161,40.108274]]]},"id":29}]}