{"type":"FeatureCollection","features":[{"type":"Feature","properties":{"name":"Far East Grocery","case":"ZBA 00-228","status":"Conforming","link":"https://cityofchampaign.sharepoint.com/_layouts/15/guestaccess.aspx?guestaccesstoken=jfUc0jjYM3waKPg3TLE2w0gWd1UKmNsYPIpx%2fPnyXRA%3d&docid=0277434a9eb2446fbb84879ba3d2734d1&rev=1"},"geometry":{"type":"Polygon","coordinates":[[[-88.232457,40.115839],[-88.232455,40.115478],[-88.232218,40.115479],[-88.232219,40.11584],[-88.232457,40.115839]]]},"id":0},{"type":"Feature","properties":{"name":"Dietary Food Store","case":"ZBA 98-223","status":"Expired","link":"https://cityofchampaign.sharepoint.com/_layouts/15/guestaccess.aspx?guestaccesstoken=ByKQ7lNJzFPauCrjkrtgRG%2fAoEVAwnzCIyBlJCVMYCQ%3d&docid=02501e85008474a86a2f1520a4fe65615&rev=1"},"geometry":{"type":"Polygon","coordinates":[[[-88.25647,40.109343],[-88.25647,40.109126],[-88.255981,40.109124],[-88.255984,40.109342],[-88.25647,40.109343]]]},"id":1},{"type":"Feature","properties":{"name":"Yan Xix Qigong Health Center/Bob Wallace Co.","case":"ZBA 98-225","status":"Conforming","link":"https://cityofchampaign.sharepoint.com/_layouts/15/guestaccess.aspx?guestaccesstoken=XuC8ZMZP1TXD%2f0PRR7%2fsQty0E5N%2b2M2cVXk1muESsRY%3d&docid=04d298b5b2f5e4b2d815ef0322539917f&rev=1"},"geometry":{"type":"Polygon","coordinates":[[[-88.258532,40.124795],[-88.25853,40.124627],[-88.258065,40.124622],[-88.258067,40.12479],[-88.258532,40.124795]]]},"id":2},{"type":"Feature","properties":{"name":"Cochran's State Street Auto Imports/Neil Auto","case":"ZBA 98-226","status":"Conforming","link":"https://cityofchampaign.sharepoint.com/_layouts/15/guestaccess.aspx?guestaccesstoken=AvIpB%2fpvj2fdq3%2b8pYRf2WFRzEV8gLjXNTtF9k39PTI%3d&docid=00f9e0aca74704c038a72a9a7488ae9f8&rev=1"},"geometry":{"type":"Polygon","coordinates":[[[-88.247301,40.123315],[-88.2473,40.123091],[-88.246979,40.123092],[-88.246981,40.123314],[-88.247301,40.123315]]]},"id":3},{"type":"Feature","properties":{"name":"Illini Inn","case":"ZBA 98-219","status":"Expired","link":"https://cityofchampaign.sharepoint.com/_layouts/15/guestaccess.aspx?guestaccesstoken=9GHG8MfrPWvEyw5Y0LYZsVO%2fPgpq5WF0JojQG2jBSmM%3d&docid=0bafcf063166348b8aa9496e4c4b3a7c9&rev=1"},"geometry":{"type":"Polygon","coordinates":[[[-88.233881,40.107866],[-88.233878,40.107634],[-88.233648,40.107636],[-88.233652,40.107868],[-88.233881,40.107866]]]},"id":4},{"type":"Feature","properties":{"name":"McCabe Brothers Tool Rental","case":"PL03-0094","status":"Conforming","link":"https://cityofchampaign.sharepoint.com/_layouts/15/guestaccess.aspx?guestaccesstoken=jF7b2QtD5%2bNzaOPHQXM2J7j7318DfdP90cB1ZUowhtU%3d&docid=04ac33c2cdc574d6dbd22d71c1adc43cc&rev=1"},"geometry":{"type":"Polygon","coordinates":[[[-88.22916,40.119756],[-88.229157,40.119385],[-88.228919,40.119385],[-88.228923,40.119757],[-88.22916,40.119756]]]},"id":5},{"type":"Feature","properties":{"name":"Reasonable Auto Repair/Cecil's Auto Repair","case":"ZBA 98-218","status":"Conforming","link":"https://cityofchampaign.sharepoint.com/_layouts/15/guestaccess.aspx?guestaccesstoken=LD90PnAj1isCDBkDCJxycbMRh4ud7YqWNu9YGsC2tjs%3d&docid=034456c16fe4646129a7df532dab48190&rev=1"},"geometry":{"type":"Polygon","coordinates":[[[-88.286149,40.109791],[-88.286152,40.110002],[-88.287401,40.110002],[-88.2874,40.109915],[-88.287398,40.109788],[-88.286642,40.109782],[-88.286149,40.109791]]]},"id":6},{"type":"Feature","properties":{"name":"Champaign A&K Insulation Co.","case":"ZBA 98-221","status":"Conforming","link":"https://cityofchampaign.sharepoint.com/_layouts/15/guestaccess.aspx?guestaccesstoken=JpOvbJbfepnm3gtw5wMyvcoUZ7OK4kmncNj2KNxEJ4k%3d&docid=067551450fc684638bb14d02087abfeee&rev=1"},"geometry":{"type":"Polygon","coordinates":[[[-88.291508,40.111307],[-88.291367,40.111513],[-88.291348,40.11154],[-88.291061,40.111958],[-88.291706,40.112096],[-88.291823,40.11178],[-88.291833,40.111752],[-88.291973,40.111373],[-88.291967,40.111371],[-88.291966,40.111371],[-88.291962,40.11137],[-88.291949,40.111367],[-88.291945,40.111366],[-88.291938,40.111364],[-88.291933,40.111363],[-88.291933,40.111363],[-88.291928,40.111362],[-88.291921,40.11136],[-88.291916,40.111359],[-88.291915,40.111359],[-88.29191,40.111358],[-88.291904,40.111356],[-88.291899,40.111355],[-88.291893,40.111354],[-88.291888,40.111353],[-88.291887,40.111352],[-88.291882,40.111351],[-88.291876,40.11135],[-88.29187,40.111349],[-88.29187,40.111349],[-88.291865,40.111348],[-88.291858,40.111346],[-88.291853,40.111345],[-88.291853,40.111345],[-88.291847,40.111344],[-88.291841,40.111343],[-88.291836,40.111342],[-88.291836,40.111341],[-88.29183,40.11134],[-88.291824,40.111339],[-88.291824,40.111339],[-88.291819,40.111338],[-88.291813,40.111337],[-88.291807,40.111336],[-88.291806,40.111335],[-88.291801,40.111334],[-88.291795,40.111333],[-88.29179,40.111332],[-88.291789,40.111332],[-88.291784,40.111331],[-88.29176,40.111326],[-88.291755,40.111325],[-88.291745,40.111324],[-88.291742,40.111323],[-88.291738,40.111322],[-88.291725,40.11132],[-88.29172,40.111319],[-88.291714,40.111318],[-88.291709,40.111317],[-88.291708,40.111317],[-88.291703,40.111316],[-88.291697,40.111315],[-88.291696,40.111315],[-88.291691,40.111314],[-88.291684,40.111313],[-88.29168,40.111312],[-88.291679,40.111312],[-88.291674,40.111311],[-88.29167,40.11131],[-88.291661,40.111309],[-88.291656,40.111308],[-88.29165,40.111307],[-88.291645,40.111306],[-88.291644,40.111306],[-88.291639,40.111305],[-88.291639,40.111305],[-88.291633,40.111304],[-88.291633,40.111304],[-88.291627,40.111303],[-88.291627,40.111303],[-88.291621,40.111303],[-88.291616,40.111302],[-88.291615,40.111301],[-88.29161,40.111301],[-88.291604,40.1113],[-88.291598,40.111299],[-88.291597,40.111299],[-88.291592,40.111298],[-88.291585,40.111297],[-88.29158,40.111296],[-88.29158,40.111296],[-88.291575,40.111296],[-88.291568,40.111295],[-88.291563,40.111294],[-88.291562,40.111294],[-88.291557,40.111293],[-88.291526,40.111281],[-88.291508,40.111307]]]},"id":7},{"type":"Feature","properties":{"name":"The Ice House","case":"ZBA 98-211","status":"Expired"},"geometry":{"type":"Polygon","coordinates":[[[-88.258045,40.122564],[-88.258046,40.122632],[-88.258421,40.122633],[-88.258421,40.122564],[-88.258403,40.122564],[-88.258401,40.122409],[-88.258044,40.122407],[-88.258045,40.122564]]]},"id":8},{"type":"Feature","properties":{"name":"Wisegarver Annexation Petition","case":"PL09-0051","status":"Conforming","link":"https://cityofchampaign.sharepoint.com/_layouts/15/guestaccess.aspx?guestaccesstoken=Rg%2bLrcjTm3phFR%2bTV3xzfqTsSkOHqV5mnQtbNICZm5k%3d&docid=08ed1fffe682a44d9885f7dd74b7fa507&rev=1"},"geometry":{"type":"Polygon","coordinates":[[[-88.328274,40.085303],[-88.328509,40.085292],[-88.328733,40.085213],[-88.329544,40.084356],[-88.329631,40.084314],[-88.329722,40.084314],[-88.329722,40.084252],[-88.3297,40.084252],[-88.328833,40.08425],[-88.328839,40.084775],[-88.328268,40.084774],[-88.328274,40.085303]]]},"id":9},{"type":"Feature","properties":{"name":"Park View Parking Lot (405-409 N Prairie St)","case":"PL15-0005","status":"Conforming","link":"https://cityofchampaign.sharepoint.com/_layouts/15/guestaccess.aspx?guestaccesstoken=rNtZzaYN84AAiCTvXk%2b6gV81MCGaG9K13%2fol2j7O2fk%3d&docid=01894e0c5b8c74d6eb7a06611ffcefe4c&rev=1"},"geometry":{"type":"Polygon","coordinates":[[[-88.248848,40.11971],[-88.248611,40.11971],[-88.248612,40.11995],[-88.248613,40.120076],[-88.248848,40.120077],[-88.248848,40.119947],[-88.248848,40.11971]]]},"id":10}]}