{"type":"FeatureCollection","features":[{"type":"Feature","properties":{"name":"MLK Subdivision","type":"NA"},"geometry":{"type":"Polygon","coordinates":[[[-88.235221,40.124742],[-88.235222,40.124772],[-88.235273,40.124775],[-88.235323,40.124778],[-88.235437,40.124784],[-88.23555,40.124791],[-88.235697,40.124794],[-88.235779,40.124795],[-88.236319,40.124795],[-88.236319,40.124597],[-88.236319,40.124399],[-88.23632,40.124224],[-88.23632,40.124049],[-88.236258,40.123971],[-88.236231,40.123937],[-88.236204,40.123902],[-88.236186,40.123879],[-88.236186,40.123851],[-88.236185,40.123645],[-88.236183,40.123438],[-88.236182,40.123232],[-88.236181,40.123025],[-88.236181,40.122998],[-88.23618,40.122832],[-88.23618,40.122681],[-88.236174,40.122407],[-88.236175,40.122244],[-88.236177,40.122081],[-88.236043,40.12208],[-88.235909,40.12208],[-88.235775,40.122079],[-88.235641,40.122079],[-88.235641,40.12199],[-88.235642,40.1219],[-88.235642,40.121797],[-88.235643,40.121694],[-88.235643,40.121605],[-88.235644,40.121516],[-88.235644,40.121417],[-88.235645,40.121318],[-88.235645,40.121218],[-88.235646,40.121117],[-88.235637,40.120838],[-88.235637,40.120655],[-88.235637,40.120595],[-88.235638,40.120519],[-88.235638,40.120442],[-88.235638,40.120361],[-88.235639,40.12028],[-88.235639,40.120197],[-88.235639,40.120113],[-88.235529,40.120113],[-88.235419,40.120114],[-88.235295,40.120115],[-88.235171,40.120116],[-88.234918,40.120117],[-88.234681,40.120119],[-88.234445,40.12012],[-88.234373,40.120121],[-88.234137,40.120122],[-88.233901,40.120124],[-88.233901,40.120194],[-88.233901,40.120279],[-88.233901,40.120334],[-88.233901,40.120434],[-88.233901,40.120588],[-88.233901,40.120745],[-88.233901,40.12088],[-88.233901,40.120989],[-88.233901,40.121099],[-88.233901,40.121209],[-88.233901,40.121318],[-88.233901,40.121421],[-88.233901,40.121524],[-88.233901,40.121614],[-88.233901,40.121705],[-88.233901,40.121795],[-88.233901,40.121886],[-88.233901,40.121967],[-88.233901,40.122078],[-88.233901,40.12227],[-88.233901,40.122462],[-88.233901,40.122626],[-88.233901,40.122812],[-88.233901,40.122998],[-88.233901,40.123211],[-88.233901,40.123521],[-88.233902,40.123684],[-88.233905,40.123879],[-88.233906,40.123962],[-88.233908,40.124045],[-88.23391,40.124236],[-88.233914,40.124474],[-88.233917,40.124712],[-88.234073,40.124712],[-88.234229,40.124712],[-88.234354,40.124712],[-88.23448,40.124712],[-88.234605,40.124712],[-88.234731,40.124712],[-88.234884,40.124712],[-88.235036,40.124712],[-88.235129,40.124712],[-88.235221,40.124712],[-88.235221,40.124742]]]},"id":0},{"type":"Feature","properties":{"name":"Mittendorf Neighborhood Association","type":"NW"},"geometry":{"type":"Polygon","coordinates":[[[-88.250434,40.13081],[-88.250435,40.130946],[-88.250419,40.131004],[-88.250393,40.131035],[-88.250436,40.131061],[-88.250479,40.131086],[-88.250537,40.131065],[-88.251109,40.131064],[-88.25168,40.131064],[-88.25168,40.130887],[-88.25168,40.130806],[-88.251745,40.130806],[-88.251852,40.130807],[-88.251959,40.130807],[-88.252066,40.130807],[-88.252173,40.130808],[-88.252301,40.130808],[-88.25243,40.130808],[-88.252568,40.130809],[-88.252705,40.130809],[-88.25294,40.130809],[-88.253149,40.130808],[-88.253295,40.130808],[-88.253571,40.13094],[-88.253642,40.130976],[-88.253713,40.131012],[-88.253927,40.131011],[-88.254178,40.13101],[-88.254428,40.131009],[-88.254425,40.130873],[-88.254422,40.130738],[-88.254174,40.130632],[-88.253927,40.130525],[-88.253744,40.130447],[-88.253572,40.130373],[-88.253359,40.130282],[-88.253163,40.130197],[-88.253167,40.130191],[-88.253172,40.130185],[-88.253148,40.130175],[-88.252927,40.130079],[-88.252706,40.129983],[-88.252554,40.129917],[-88.252438,40.129866],[-88.252024,40.129686],[-88.251898,40.129631],[-88.251736,40.129561],[-88.251313,40.129377],[-88.250873,40.129185],[-88.250704,40.129112],[-88.250557,40.129048],[-88.250503,40.12904],[-88.250436,40.129074],[-88.25037,40.129163],[-88.250329,40.129219],[-88.250261,40.129311],[-88.25023,40.129384],[-88.250249,40.129444],[-88.250279,40.12949],[-88.250322,40.129579],[-88.250346,40.129655],[-88.25036,40.129749],[-88.250359,40.129826],[-88.250347,40.129907],[-88.250323,40.129987],[-88.250307,40.130025],[-88.250306,40.130078],[-88.250348,40.13012],[-88.250429,40.130157],[-88.25043,40.130249],[-88.25043,40.130317],[-88.250431,40.130399],[-88.250432,40.13048],[-88.250432,40.130565],[-88.250433,40.13065],[-88.250434,40.13073],[-88.250434,40.13081]]]},"id":1},{"type":"Feature","properties":{"name":"Ironwood","type":"HOA"},"geometry":{"type":"Polygon","coordinates":[[[-88.314304,40.08651],[-88.314307,40.086774],[-88.314337,40.089102],[-88.314344,40.08962],[-88.314344,40.089626],[-88.314346,40.089791],[-88.31435,40.090138],[-88.314357,40.090694],[-88.314367,40.091427],[-88.315384,40.091429],[-88.315536,40.091429],[-88.316018,40.09143],[-88.316312,40.091431],[-88.316598,40.091432],[-88.316884,40.091432],[-88.31717,40.091433],[-88.317398,40.091433],[-88.317456,40.091433],[-88.317742,40.091434],[-88.318028,40.091435],[-88.318314,40.091435],[-88.3186,40.091436],[-88.318887,40.091437],[-88.319175,40.091437],[-88.319211,40.091437],[-88.319499,40.091438],[-88.319787,40.091438],[-88.320073,40.091439],[-88.320358,40.09144],[-88.320558,40.09144],[-88.320644,40.09144],[-88.32093,40.091441],[-88.320995,40.091441],[-88.321067,40.091441],[-88.321216,40.091442],[-88.321362,40.091442],[-88.321578,40.091442],[-88.321792,40.091443],[-88.321846,40.091443],[-88.322195,40.091444],[-88.322221,40.091444],[-88.322219,40.091239],[-88.322218,40.091113],[-88.322217,40.091038],[-88.322216,40.090838],[-88.322215,40.090838],[-88.322215,40.090811],[-88.322215,40.090811],[-88.322213,40.09061],[-88.322213,40.090591],[-88.322211,40.09041],[-88.322211,40.090358],[-88.322209,40.090209],[-88.322209,40.090138],[-88.322208,40.090009],[-88.322207,40.089904],[-88.322206,40.089808],[-88.322204,40.089685],[-88.322204,40.089608],[-88.322202,40.089451],[-88.322202,40.089408],[-88.3222,40.089232],[-88.3222,40.089207],[-88.322198,40.089007],[-88.322198,40.088998],[-88.322196,40.088806],[-88.322196,40.088779],[-88.322193,40.088476],[-88.322191,40.088311],[-88.322191,40.088309],[-88.322189,40.088032],[-88.322188,40.087953],[-88.322187,40.087819],[-88.322184,40.087589],[-88.322184,40.087505],[-88.32218,40.087099],[-88.322179,40.087042],[-88.322177,40.086835],[-88.32217,40.086104],[-88.322162,40.086101],[-88.322059,40.086071],[-88.322044,40.086066],[-88.322032,40.086063],[-88.322023,40.08606],[-88.322015,40.085928],[-88.322024,40.085898],[-88.322034,40.085861],[-88.322042,40.085824],[-88.322047,40.085801],[-88.322051,40.085777],[-88.322055,40.085754],[-88.322058,40.08573],[-88.322061,40.085699],[-88.322063,40.085668],[-88.322065,40.085637],[-88.322065,40.085606],[-88.322065,40.085582],[-88.322064,40.085559],[-88.32206,40.085387],[-88.322042,40.085386],[-88.32197,40.085384],[-88.321886,40.085383],[-88.321883,40.085383],[-88.321858,40.085382],[-88.321833,40.085382],[-88.321808,40.085382],[-88.321783,40.085381],[-88.321758,40.08538],[-88.321733,40.08538],[-88.321708,40.085379],[-88.321683,40.085379],[-88.321658,40.085379],[-88.321633,40.085378],[-88.321608,40.085377],[-88.321583,40.085377],[-88.321558,40.085376],[-88.321533,40.085376],[-88.321508,40.085375],[-88.321483,40.085375],[-88.321458,40.085374],[-88.321433,40.085374],[-88.321429,40.085373],[-88.321404,40.085373],[-88.321379,40.085372],[-88.321354,40.085371],[-88.321329,40.085369],[-88.321304,40.085368],[-88.321279,40.085367],[-88.321254,40.085366],[-88.321229,40.085365],[-88.321204,40.085364],[-88.321179,40.085363],[-88.321154,40.085362],[-88.321129,40.085362],[-88.321104,40.085362],[-88.321079,40.085363],[-88.321054,40.085364],[-88.321031,40.085365],[-88.321006,40.085367],[-88.320981,40.08537],[-88.320956,40.085373],[-88.320931,40.085378],[-88.320907,40.085383],[-88.320883,40.085388],[-88.320859,40.085394],[-88.320836,40.085401],[-88.320829,40.085403],[-88.320806,40.085411],[-88.320784,40.085419],[-88.320761,40.085428],[-88.320739,40.085437],[-88.320717,40.085446],[-88.320695,40.085456],[-88.320674,40.085467],[-88.320652,40.085477],[-88.320632,40.085488],[-88.320612,40.0855],[-88.320592,40.085511],[-88.320561,40.085523],[-88.320538,40.085532],[-88.320516,40.08554],[-88.320494,40.085549],[-88.320472,40.085558],[-88.320449,40.085566],[-88.320427,40.085575],[-88.320404,40.085583],[-88.320389,40.085589],[-88.320367,40.085599],[-88.320345,40.085608],[-88.320323,40.085617],[-88.3203,40.085626],[-88.320278,40.085634],[-88.320255,40.085641],[-88.320234,40.085647],[-88.320211,40.085653],[-88.320186,40.085658],[-88.320162,40.085663],[-88.320138,40.085667],[-88.320113,40.085671],[-88.320088,40.085675],[-88.320073,40.085677],[-88.320048,40.08568],[-88.320024,40.085683],[-88.319999,40.085686],[-88.319974,40.085689],[-88.319949,40.085691],[-88.319924,40.085693],[-88.319899,40.085695],[-88.319886,40.085696],[-88.319861,40.085698],[-88.319837,40.085699],[-88.319812,40.085701],[-88.319786,40.085702],[-88.319761,40.085703],[-88.319736,40.085704],[-88.319711,40.085706],[-88.319686,40.085707],[-88.319662,40.085708],[-88.31966,40.085709],[-88.319635,40.08571],[-88.31961,40.085712],[-88.319586,40.085714],[-88.319561,40.085716],[-88.319536,40.085718],[-88.319511,40.08572],[-88.319486,40.085721],[-88.319461,40.085723],[-88.319436,40.085724],[-88.319411,40.085725],[-88.319386,40.085726],[-88.319361,40.085726],[-88.319336,40.085727],[-88.319311,40.085727],[-88.319286,40.085727],[-88.319261,40.085728],[-88.319236,40.085728],[-88.31922,40.085728],[-88.319195,40.085728],[-88.31917,40.085727],[-88.319145,40.085727],[-88.31912,40.085726],[-88.319095,40.085725],[-88.31907,40.085725],[-88.319045,40.085724],[-88.31902,40.085724],[-88.319008,40.085724],[-88.318983,40.085724],[-88.318958,40.085725],[-88.318933,40.085726],[-88.318908,40.085727],[-88.318883,40.085727],[-88.318858,40.085728],[-88.318833,40.085728],[-88.318808,40.085729],[-88.318794,40.085729],[-88.318769,40.085729],[-88.318744,40.085729],[-88.318719,40.085729],[-88.318694,40.085729],[-88.318669,40.085729],[-88.318644,40.085729],[-88.318619,40.08573],[-88.318594,40.08573],[-88.318571,40.085731],[-88.318546,40.085731],[-88.318521,40.085733],[-88.318496,40.085734],[-88.318471,40.085735],[-88.318446,40.085737],[-88.318421,40.085738],[-88.318397,40.085739],[-88.318372,40.085739],[-88.318366,40.08574],[-88.318341,40.08574],[-88.318316,40.08574],[-88.318291,40.08574],[-88.318266,40.08574],[-88.318241,40.08574],[-88.318216,40.08574],[-88.318191,40.085739],[-88.318178,40.085739],[-88.318153,40.085738],[-88.318128,40.085736],[-88.318104,40.085734],[-88.318079,40.085733],[-88.318053,40.085732],[-88.318035,40.085732],[-88.31801,40.085733],[-88.317985,40.085734],[-88.31796,40.085738],[-88.317948,40.08574],[-88.317924,40.085747],[-88.317902,40.085756],[-88.317878,40.085763],[-88.317854,40.085768],[-88.317842,40.085769],[-88.317818,40.085771],[-88.317793,40.085772],[-88.317768,40.085772],[-88.317742,40.085772],[-88.317717,40.085772],[-88.317692,40.085772],[-88.317684,40.085772],[-88.317659,40.085772],[-88.317633,40.085772],[-88.317608,40.085773],[-88.317583,40.085773],[-88.317558,40.085773],[-88.317533,40.085772],[-88.317508,40.085771],[-88.317483,40.085771],[-88.317458,40.085769],[-88.31745,40.085769],[-88.317425,40.085766],[-88.317401,40.085763],[-88.317376,40.08576],[-88.317352,40.085755],[-88.317327,40.085752],[-88.317302,40.085748],[-88.317278,40.085744],[-88.317255,40.085741],[-88.317231,40.085738],[-88.317206,40.085735],[-88.317181,40.085732],[-88.317156,40.085729],[-88.317132,40.085726],[-88.317107,40.085723],[-88.317082,40.08572],[-88.317058,40.085718],[-88.317049,40.085717],[-88.317025,40.085714],[-88.317,40.085711],[-88.316975,40.085708],[-88.31695,40.085706],[-88.316925,40.085704],[-88.3169,40.085703],[-88.316878,40.085703],[-88.316853,40.085703],[-88.316828,40.085703],[-88.316803,40.085704],[-88.316778,40.085705],[-88.316753,40.085707],[-88.316728,40.085709],[-88.316708,40.085711],[-88.316683,40.085715],[-88.316659,40.085719],[-88.316635,40.085724],[-88.316611,40.08573],[-88.316589,40.085737],[-88.316566,40.085746],[-88.316544,40.085755],[-88.316522,40.085765],[-88.316503,40.085774],[-88.316483,40.085784],[-88.316462,40.085795],[-88.316441,40.085806],[-88.31642,40.085816],[-88.316399,40.085827],[-88.316378,40.085837],[-88.316356,40.085847],[-88.31634,40.085854],[-88.316319,40.085863],[-88.316297,40.085873],[-88.316275,40.085882],[-88.316253,40.085891],[-88.316231,40.0859],[-88.316209,40.085909],[-88.316186,40.085918],[-88.316164,40.085926],[-88.316141,40.085934],[-88.316118,40.085941],[-88.316107,40.085945],[-88.316083,40.085951],[-88.316059,40.085956],[-88.316035,40.08596],[-88.31601,40.085964],[-88.315986,40.085969],[-88.315962,40.085974],[-88.315938,40.08598],[-88.31592,40.085986],[-88.315897,40.085994],[-88.315874,40.086001],[-88.315851,40.086009],[-88.315829,40.086018],[-88.315806,40.086026],[-88.315784,40.086035],[-88.315762,40.086044],[-88.315739,40.086053],[-88.315717,40.086062],[-88.315711,40.086064],[-88.31569,40.086073],[-88.315668,40.086082],[-88.315646,40.086092],[-88.315624,40.086102],[-88.315602,40.08611],[-88.31558,40.086119],[-88.315557,40.086126],[-88.315533,40.086133],[-88.31551,40.08614],[-88.315486,40.086146],[-88.315463,40.086153],[-88.315439,40.086159],[-88.315415,40.086165],[-88.315392,40.086172],[-88.315368,40.086178],[-88.315358,40.086181],[-88.315335,40.086188],[-88.315311,40.086194],[-88.315288,40.086201],[-88.315264,40.086208],[-88.315241,40.086215],[-88.315217,40.086222],[-88.315194,40.086228],[-88.315171,40.086235],[-88.315147,40.086242],[-88.315124,40.086249],[-88.315108,40.086253],[-88.315084,40.08626],[-88.315061,40.086267],[-88.315037,40.086273],[-88.315014,40.08628],[-88.31499,40.086286],[-88.314967,40.086292],[-88.314943,40.086298],[-88.314938,40.086299],[-88.314914,40.086304],[-88.314889,40.086309],[-88.314865,40.086314],[-88.314841,40.086318],[-88.314816,40.086323],[-88.314792,40.086328],[-88.314769,40.086335],[-88.314768,40.086335],[-88.314745,40.086341],[-88.314721,40.086348],[-88.314697,40.086356],[-88.314675,40.086363],[-88.314652,40.086371],[-88.314629,40.08638],[-88.314607,40.086389],[-88.314587,40.0864],[-88.314585,40.0864],[-88.314565,40.086411],[-88.314546,40.086424],[-88.314527,40.086437],[-88.314509,40.08645],[-88.314492,40.086464],[-88.314475,40.086479],[-88.314459,40.086493],[-88.31444,40.086495],[-88.314415,40.086498],[-88.31439,40.086501],[-88.314365,40.086503],[-88.314341,40.086506],[-88.314316,40.086509],[-88.314304,40.08651]]]},"id":2},{"type":"Feature","properties":{"name":"Glenshire II HOA","type":"HOA"},"geometry":{"type":"Polygon","coordinates":[[[-88.309002,40.102273],[-88.309238,40.102277],[-88.309616,40.102282],[-88.309611,40.102008],[-88.309601,40.101843],[-88.309598,40.101583],[-88.309598,40.10156],[-88.309595,40.101364],[-88.309595,40.101332],[-88.309593,40.101144],[-88.309592,40.101105],[-88.30959,40.100924],[-88.30959,40.100877],[-88.309588,40.100705],[-88.309587,40.10065],[-88.309585,40.100485],[-88.309584,40.100422],[-88.309582,40.100265],[-88.309581,40.100195],[-88.30958,40.100046],[-88.309578,40.099913],[-88.309577,40.099826],[-88.309576,40.099733],[-88.309573,40.099538],[-88.309573,40.09947],[-88.309571,40.099299],[-88.309567,40.099028],[-88.309566,40.09888],[-88.309564,40.09877],[-88.309555,40.09877],[-88.309364,40.098767],[-88.307953,40.098751],[-88.307953,40.098751],[-88.307695,40.09875],[-88.307342,40.098761],[-88.305299,40.098824],[-88.305314,40.10222],[-88.305483,40.102222],[-88.306062,40.102231],[-88.306097,40.102231],[-88.306278,40.102234],[-88.306383,40.102236],[-88.306669,40.10224],[-88.306955,40.102244],[-88.307241,40.102248],[-88.307283,40.102249],[-88.307527,40.102252],[-88.307813,40.102256],[-88.308099,40.10226],[-88.308385,40.102264],[-88.308526,40.102266],[-88.308641,40.102268],[-88.308671,40.102269],[-88.309002,40.102273]]]},"id":3},{"type":"Feature","properties":{"name":"West Haven Dr","type":"NW"},"geometry":{"type":"Polygon","coordinates":[[[-88.251005,40.094673],[-88.251005,40.094854],[-88.251005,40.095031],[-88.251005,40.095215],[-88.251004,40.095393],[-88.251004,40.095402],[-88.251004,40.095574],[-88.251004,40.095756],[-88.251004,40.096002],[-88.251021,40.096002],[-88.251063,40.096006],[-88.251103,40.096015],[-88.251142,40.096028],[-88.251398,40.096181],[-88.251631,40.096283],[-88.251663,40.096297],[-88.251743,40.096297],[-88.25177,40.096297],[-88.251958,40.096297],[-88.252042,40.096297],[-88.252172,40.096297],[-88.252314,40.096297],[-88.252549,40.096298],[-88.252584,40.096298],[-88.252853,40.096298],[-88.252852,40.096131],[-88.252852,40.096071],[-88.252851,40.095967],[-88.25285,40.095803],[-88.252849,40.095752],[-88.252848,40.095639],[-88.252848,40.095575],[-88.252847,40.095475],[-88.252847,40.095397],[-88.252846,40.095311],[-88.252845,40.095219],[-88.252845,40.095147],[-88.252844,40.095041],[-88.252844,40.094983],[-88.252843,40.094863],[-88.252842,40.094819],[-88.252841,40.094686],[-88.252841,40.094655],[-88.25284,40.094508],[-88.252903,40.094508],[-88.252903,40.094481],[-88.252902,40.094392],[-88.252902,40.094337],[-88.252766,40.094291],[-88.252632,40.094242],[-88.252527,40.094202],[-88.252405,40.094154],[-88.252297,40.094123],[-88.252187,40.094098],[-88.25217,40.094094],[-88.25209,40.094081],[-88.252008,40.09407],[-88.251927,40.094063],[-88.251926,40.094209],[-88.251908,40.094209],[-88.251577,40.094209],[-88.251578,40.094306],[-88.251364,40.094305],[-88.251023,40.094307],[-88.251005,40.094307],[-88.251005,40.094491],[-88.251005,40.094673]]]},"id":4},{"type":"Feature","properties":{"name":"North Willis","type":"NW"},"geometry":{"type":"Polygon","coordinates":[[[-88.260668,40.122186],[-88.260668,40.122111],[-88.260683,40.122111],[-88.260681,40.121932],[-88.260869,40.121933],[-88.260867,40.121799],[-88.260867,40.121754],[-88.260866,40.121664],[-88.260865,40.121575],[-88.260864,40.12153],[-88.260863,40.121395],[-88.260863,40.12131],[-88.260894,40.12131],[-88.260934,40.12131],[-88.260975,40.12131],[-88.261017,40.12131],[-88.261058,40.121311],[-88.2611,40.121311],[-88.261119,40.121311],[-88.261118,40.121233],[-88.261115,40.12089],[-88.261057,40.120889],[-88.260857,40.120888],[-88.260856,40.12076],[-88.260855,40.120696],[-88.260854,40.120632],[-88.260853,40.120503],[-88.260851,40.120323],[-88.260786,40.120322],[-88.260743,40.120322],[-88.260743,40.120157],[-88.26074,40.119983],[-88.260696,40.119983],[-88.260692,40.11979],[-88.260691,40.119714],[-88.26069,40.119653],[-88.260687,40.119515],[-88.260684,40.119319],[-88.260679,40.119138],[-88.260715,40.119138],[-88.260713,40.119015],[-88.260713,40.119001],[-88.260711,40.118892],[-88.260709,40.118806],[-88.260708,40.118754],[-88.260701,40.11837],[-88.260349,40.118366],[-88.260234,40.118365],[-88.260113,40.118364],[-88.260014,40.118363],[-88.260021,40.118741],[-88.260024,40.118906],[-88.259796,40.118903],[-88.2598,40.119129],[-88.259915,40.119131],[-88.259918,40.119312],[-88.259922,40.119538],[-88.259706,40.119536],[-88.259709,40.119678],[-88.259495,40.119676],[-88.259498,40.119825],[-88.259499,40.119921],[-88.2595,40.119973],[-88.259561,40.119974],[-88.259718,40.119975],[-88.259881,40.119976],[-88.259885,40.12015],[-88.259886,40.120315],[-88.259806,40.120314],[-88.259808,40.120457],[-88.25981,40.1206],[-88.259811,40.120742],[-88.259813,40.12088],[-88.259815,40.121051],[-88.259816,40.121222],[-88.259816,40.121304],[-88.259833,40.121304],[-88.259876,40.121304],[-88.259918,40.121304],[-88.259961,40.121305],[-88.259997,40.121305],[-88.259997,40.121388],[-88.259998,40.121532],[-88.26,40.121676],[-88.259822,40.121674],[-88.259822,40.121746],[-88.259823,40.121817],[-88.259825,40.121961],[-88.259826,40.122105],[-88.260004,40.122106],[-88.260005,40.122181],[-88.260018,40.122181],[-88.260058,40.122181],[-88.2601,40.122181],[-88.260141,40.122182],[-88.260182,40.122182],[-88.260223,40.122183],[-88.260264,40.122183],[-88.260294,40.122183],[-88.260306,40.122183],[-88.260347,40.122183],[-88.260388,40.122184],[-88.260475,40.122185],[-88.260562,40.122185],[-88.260648,40.122186],[-88.260668,40.122186]]]},"id":5},{"type":"Feature","properties":{"name":"Victor St","type":"NW"},"geometry":{"type":"Polygon","coordinates":[[[-88.273584,40.110778],[-88.273584,40.110792],[-88.273818,40.110794],[-88.27423,40.110798],[-88.27423,40.110785],[-88.27423,40.110723],[-88.274444,40.110729],[-88.274677,40.110731],[-88.274679,40.110731],[-88.274909,40.110733],[-88.274909,40.110719],[-88.274907,40.110408],[-88.274904,40.110227],[-88.274922,40.110227],[-88.274918,40.110027],[-88.274913,40.109841],[-88.274909,40.109655],[-88.274905,40.109469],[-88.274901,40.109283],[-88.274896,40.109082],[-88.274878,40.109082],[-88.274412,40.109077],[-88.274197,40.109075],[-88.273805,40.109071],[-88.273787,40.109071],[-88.27379,40.109249],[-88.273793,40.109427],[-88.273562,40.109425],[-88.273538,40.109425],[-88.273543,40.109642],[-88.273548,40.109858],[-88.27377,40.109861],[-88.273993,40.109863],[-88.273993,40.109877],[-88.274003,40.110219],[-88.274003,40.110401],[-88.27383,40.110399],[-88.273812,40.110399],[-88.273794,40.110399],[-88.273577,40.110396],[-88.273584,40.110778]]]},"id":6},{"type":"Feature","properties":{"name":"Garden Hills G.A.R.D.E.N.","type":"NA"},"geometry":{"type":"Polygon","coordinates":[[[-88.264867,40.127272],[-88.262718,40.127243],[-88.261672,40.127229],[-88.260997,40.127224],[-88.260345,40.127219],[-88.259605,40.127202],[-88.259133,40.127193],[-88.258661,40.127187],[-88.257977,40.127182],[-88.257979,40.127641],[-88.25798,40.127944],[-88.257981,40.12817],[-88.25798,40.128381],[-88.257986,40.12838],[-88.258022,40.132217],[-88.265104,40.135287],[-88.270339,40.137357],[-88.273667,40.138653],[-88.274251,40.138903],[-88.274636,40.139046],[-88.274998,40.139176],[-88.275449,40.139273],[-88.2759,40.139324],[-88.276337,40.139325],[-88.276921,40.139296],[-88.27721,40.139263],[-88.27724,40.138187],[-88.277147,40.134826],[-88.277144,40.134739],[-88.277149,40.134524],[-88.277123,40.133967],[-88.277103,40.133229],[-88.277084,40.132563],[-88.277061,40.131739],[-88.27698,40.127831],[-88.276979,40.127831],[-88.276971,40.127432],[-88.274701,40.127403],[-88.274362,40.127399],[-88.272812,40.127379],[-88.271943,40.127368],[-88.271687,40.127364],[-88.270756,40.127352],[-88.268901,40.127327],[-88.266991,40.127301],[-88.266867,40.127299],[-88.265266,40.127277],[-88.264881,40.127272],[-88.264867,40.127272]]]},"id":7},{"type":"Feature","properties":{"name":"Beardsley Park","type":"NA"},"geometry":{"type":"Polygon","coordinates":[[[-88.238816,40.127249],[-88.238879,40.127249],[-88.238942,40.127249],[-88.239004,40.127249],[-88.239067,40.127248],[-88.239141,40.127247],[-88.239215,40.127246],[-88.239289,40.127245],[-88.239362,40.127243],[-88.239402,40.127242],[-88.239441,40.127241],[-88.239481,40.12724],[-88.23952,40.127239],[-88.239559,40.127237],[-88.239599,40.127236],[-88.239638,40.127235],[-88.239677,40.127234],[-88.239713,40.127234],[-88.239748,40.127235],[-88.239783,40.127235],[-88.239818,40.127236],[-88.239852,40.127236],[-88.239887,40.127237],[-88.239922,40.127237],[-88.239957,40.127237],[-88.239996,40.127236],[-88.240035,40.127234],[-88.240074,40.127232],[-88.240112,40.12723],[-88.240151,40.127228],[-88.24019,40.127225],[-88.240229,40.127224],[-88.240267,40.127222],[-88.240344,40.12722],[-88.240421,40.12722],[-88.240499,40.12722],[-88.240576,40.127219],[-88.240659,40.127219],[-88.240742,40.127219],[-88.240825,40.127218],[-88.240908,40.127218],[-88.240956,40.127217],[-88.241003,40.127216],[-88.241051,40.127215],[-88.241099,40.127215],[-88.241142,40.127214],[-88.241186,40.127214],[-88.241229,40.127215],[-88.241272,40.127215],[-88.241447,40.127215],[-88.241502,40.127215],[-88.241557,40.127215],[-88.241612,40.127215],[-88.241668,40.127215],[-88.241723,40.127214],[-88.241778,40.127214],[-88.241833,40.127214],[-88.241889,40.127214],[-88.241999,40.127214],[-88.24211,40.127213],[-88.242221,40.127214],[-88.242332,40.127216],[-88.242342,40.127216],[-88.242346,40.127216],[-88.242359,40.127217],[-88.242372,40.127217],[-88.242386,40.127218],[-88.242399,40.127218],[-88.242413,40.127218],[-88.242426,40.127219],[-88.24244,40.12722],[-88.242548,40.127223],[-88.242656,40.127225],[-88.242763,40.127227],[-88.242871,40.127228],[-88.242961,40.127229],[-88.243051,40.12723],[-88.243141,40.12723],[-88.24323,40.127229],[-88.243276,40.127227],[-88.243322,40.127226],[-88.243368,40.127224],[-88.243414,40.127222],[-88.24346,40.12722],[-88.243506,40.127218],[-88.243552,40.127217],[-88.243589,40.127215],[-88.243589,40.127215],[-88.243593,40.127215],[-88.243592,40.12719],[-88.24359,40.127126],[-88.243587,40.127062],[-88.243584,40.126999],[-88.243581,40.126935],[-88.243579,40.126871],[-88.243577,40.126807],[-88.243575,40.126714],[-88.243575,40.126621],[-88.243576,40.126527],[-88.243578,40.126434],[-88.243574,40.126325],[-88.243572,40.126217],[-88.24357,40.126108],[-88.243569,40.125999],[-88.243569,40.125933],[-88.243569,40.125867],[-88.243569,40.125801],[-88.243569,40.125735],[-88.243569,40.125669],[-88.243569,40.125603],[-88.243569,40.125537],[-88.24357,40.125471],[-88.243569,40.125403],[-88.243569,40.125336],[-88.243569,40.125269],[-88.243568,40.125201],[-88.24357,40.124907],[-88.243568,40.124835],[-88.243567,40.124763],[-88.243566,40.124692],[-88.243565,40.12462],[-88.243565,40.12457],[-88.243564,40.12452],[-88.243564,40.12447],[-88.243564,40.12442],[-88.243565,40.12437],[-88.243564,40.12432],[-88.243564,40.12427],[-88.243564,40.12422],[-88.243564,40.124164],[-88.243563,40.124108],[-88.243563,40.124052],[-88.243563,40.123996],[-88.243563,40.123913],[-88.243562,40.123829],[-88.243562,40.123746],[-88.24356,40.123663],[-88.24356,40.123646],[-88.24356,40.123629],[-88.243559,40.123612],[-88.243559,40.123595],[-88.243558,40.123578],[-88.243558,40.123561],[-88.243558,40.123544],[-88.243557,40.123527],[-88.243557,40.123485],[-88.243557,40.123445],[-88.243558,40.123403],[-88.243558,40.123362],[-88.243558,40.123321],[-88.243558,40.12328],[-88.243558,40.123239],[-88.243558,40.123198],[-88.243558,40.12316],[-88.243558,40.123121],[-88.243557,40.123083],[-88.243557,40.123045],[-88.243556,40.123006],[-88.243556,40.122968],[-88.243556,40.12293],[-88.243555,40.122891],[-88.243555,40.122855],[-88.243555,40.12282],[-88.243555,40.122784],[-88.243555,40.122748],[-88.243555,40.122712],[-88.243555,40.122676],[-88.243555,40.122641],[-88.243554,40.122605],[-88.243554,40.122597],[-88.243554,40.122588],[-88.243553,40.12258],[-88.243553,40.122572],[-88.243553,40.122563],[-88.243553,40.122555],[-88.243553,40.122547],[-88.243552,40.12254],[-88.243552,40.122539],[-88.243552,40.122501],[-88.243551,40.122463],[-88.243551,40.122425],[-88.243551,40.122387],[-88.243551,40.12235],[-88.243551,40.122312],[-88.24355,40.122274],[-88.24355,40.122236],[-88.243549,40.122184],[-88.243548,40.122138],[-88.243548,40.122132],[-88.243546,40.122079],[-88.243545,40.122027],[-88.243544,40.121975],[-88.243543,40.121923],[-88.243541,40.121871],[-88.243541,40.121819],[-88.24354,40.121774],[-88.24354,40.12173],[-88.24354,40.121686],[-88.24354,40.121642],[-88.24354,40.121598],[-88.24354,40.121553],[-88.24354,40.121509],[-88.243539,40.121465],[-88.243539,40.121427],[-88.243539,40.121388],[-88.243538,40.12135],[-88.243538,40.121312],[-88.243538,40.121274],[-88.243537,40.121235],[-88.243537,40.121197],[-88.243537,40.12116],[-88.243533,40.121159],[-88.243525,40.121157],[-88.243516,40.121154],[-88.243508,40.121152],[-88.243499,40.121149],[-88.243474,40.121143],[-88.243448,40.121137],[-88.243422,40.121131],[-88.243396,40.121126],[-88.243366,40.121122],[-88.243337,40.121118],[-88.243308,40.121114],[-88.243278,40.121111],[-88.243211,40.121107],[-88.243144,40.121106],[-88.243076,40.121107],[-88.243009,40.121108],[-88.242982,40.121107],[-88.242955,40.121107],[-88.242927,40.121107],[-88.2429,40.121107],[-88.242873,40.121107],[-88.242846,40.121107],[-88.242819,40.121107],[-88.242791,40.121107],[-88.242747,40.121107],[-88.242702,40.121107],[-88.242658,40.121107],[-88.242613,40.121107],[-88.242588,40.121107],[-88.242563,40.121107],[-88.242539,40.121107],[-88.242514,40.121107],[-88.242496,40.121107],[-88.242489,40.121107],[-88.242464,40.121107],[-88.242439,40.121107],[-88.242414,40.121106],[-88.242328,40.121106],[-88.242241,40.121106],[-88.242155,40.121106],[-88.242068,40.121106],[-88.242032,40.121106],[-88.241996,40.121106],[-88.24196,40.121106],[-88.241923,40.121106],[-88.241887,40.121106],[-88.241851,40.121106],[-88.241815,40.121105],[-88.241778,40.121105],[-88.241741,40.121105],[-88.241704,40.121105],[-88.241667,40.121105],[-88.24163,40.121105],[-88.241593,40.121105],[-88.241556,40.121105],[-88.24152,40.121105],[-88.241482,40.121105],[-88.241387,40.121104],[-88.241291,40.121104],[-88.24123,40.121104],[-88.241196,40.121104],[-88.2411,40.121104],[-88.241029,40.121103],[-88.240958,40.121103],[-88.240886,40.121103],[-88.240815,40.121102],[-88.240744,40.121102],[-88.240673,40.121102],[-88.240602,40.121102],[-88.240531,40.121102],[-88.240396,40.121102],[-88.240363,40.121102],[-88.240329,40.121102],[-88.240296,40.121102],[-88.240262,40.121101],[-88.240233,40.121101],[-88.240204,40.1211],[-88.240175,40.1211],[-88.240146,40.121099],[-88.240117,40.121099],[-88.240088,40.121098],[-88.240059,40.121098],[-88.24003,40.121097],[-88.239983,40.121097],[-88.239936,40.121096],[-88.239889,40.121096],[-88.239843,40.121095],[-88.239843,40.121095],[-88.239036,40.123034],[-88.238856,40.123467],[-88.238832,40.123534],[-88.238814,40.123602],[-88.238804,40.123671],[-88.238801,40.123741],[-88.238802,40.12387],[-88.238801,40.124943],[-88.238814,40.126035],[-88.238816,40.127249]]]},"id":8},{"type":"Feature","properties":{"name":"500-800 West Washington Street","type":"NA"},"geometry":{"type":"Polygon","coordinates":[[[-88.254675,40.120509],[-88.254892,40.120509],[-88.25499,40.120503],[-88.25499,40.120608],[-88.2551,40.120619],[-88.255105,40.120311],[-88.255105,40.120291],[-88.255105,40.120222],[-88.255105,40.120135],[-88.255157,40.120126],[-88.255158,40.120126],[-88.255158,40.119964],[-88.255158,40.119962],[-88.255158,40.119957],[-88.255151,40.119957],[-88.25498,40.119957],[-88.254979,40.119743],[-88.254978,40.119659],[-88.2548,40.119658],[-88.254771,40.119658],[-88.254735,40.119658],[-88.254622,40.119658],[-88.254621,40.119956],[-88.254443,40.119956],[-88.254443,40.119956],[-88.254444,40.119867],[-88.254265,40.119866],[-88.254141,40.119866],[-88.254141,40.119955],[-88.25411,40.119955],[-88.254083,40.119955],[-88.253903,40.119955],[-88.253882,40.119955],[-88.253883,40.119784],[-88.253727,40.119784],[-88.253727,40.119955],[-88.253633,40.119955],[-88.253548,40.119954],[-88.253548,40.119784],[-88.253548,40.119742],[-88.253372,40.119742],[-88.25335,40.119742],[-88.253337,40.119742],[-88.253124,40.119742],[-88.253124,40.119683],[-88.253124,40.119669],[-88.253003,40.119669],[-88.252758,40.119669],[-88.252546,40.11967],[-88.252385,40.11967],[-88.252385,40.119684],[-88.252384,40.119816],[-88.252383,40.119953],[-88.251909,40.119952],[-88.251798,40.119951],[-88.251797,40.119911],[-88.251797,40.119866],[-88.251796,40.11982],[-88.251795,40.119775],[-88.251795,40.11973],[-88.251795,40.119726],[-88.251671,40.119717],[-88.251436,40.119716],[-88.2512,40.119715],[-88.250964,40.119714],[-88.25078,40.119713],[-88.250637,40.119712],[-88.250509,40.119712],[-88.250508,40.11982],[-88.250467,40.119821],[-88.250467,40.11995],[-88.250467,40.119953],[-88.250467,40.120083],[-88.250494,40.120189],[-88.250494,40.120196],[-88.250425,40.120196],[-88.250323,40.120196],[-88.250274,40.120196],[-88.250262,40.120195],[-88.250262,40.120302],[-88.250263,40.120494],[-88.250499,40.120495],[-88.2505,40.120666],[-88.250735,40.120666],[-88.250971,40.120667],[-88.251088,40.120667],[-88.251206,40.120668],[-88.251441,40.120668],[-88.251677,40.120669],[-88.251808,40.120668],[-88.251913,40.12067],[-88.252127,40.120671],[-88.252365,40.120672],[-88.25258,40.120672],[-88.252795,40.120673],[-88.253009,40.120674],[-88.253144,40.120669],[-88.253144,40.120629],[-88.253245,40.120614],[-88.25342,40.120615],[-88.253603,40.120616],[-88.253603,40.120684],[-88.253782,40.120684],[-88.253962,40.120685],[-88.25414,40.120685],[-88.25423,40.120685],[-88.254318,40.120686],[-88.254411,40.120686],[-88.254499,40.120686],[-88.254498,40.120618],[-88.254497,40.12051],[-88.254675,40.120509]]]},"id":9},{"type":"Feature","properties":{"name":"Ashland Park HOA","type":"HOA"},"geometry":{"type":"Polygon","coordinates":[[[-88.243861,40.149108],[-88.243913,40.15222],[-88.240766,40.152217],[-88.240775,40.153035],[-88.239206,40.153031],[-88.239289,40.156745],[-88.239407,40.15674],[-88.239525,40.156739],[-88.24243,40.156766],[-88.242464,40.156766],[-88.242463,40.156668],[-88.242463,40.156355],[-88.242461,40.156235],[-88.242459,40.154953],[-88.24246,40.154953],[-88.242464,40.154953],[-88.242537,40.154953],[-88.243959,40.154954],[-88.243943,40.154047],[-88.243937,40.153636],[-88.243921,40.152723],[-88.243999,40.152723],[-88.244,40.152723],[-88.244044,40.152723],[-88.244442,40.152725],[-88.245253,40.152728],[-88.245717,40.15273],[-88.245973,40.152731],[-88.246567,40.152733],[-88.248629,40.152741],[-88.248629,40.152743],[-88.248643,40.153619],[-88.248649,40.154025],[-88.248665,40.155053],[-88.248665,40.155069],[-88.248678,40.155898],[-88.248679,40.155968],[-88.248684,40.156295],[-88.248684,40.156297],[-88.248687,40.156397],[-88.248688,40.156419],[-88.248694,40.156791],[-88.248694,40.156805],[-88.248902,40.156806],[-88.250755,40.156816],[-88.254742,40.156839],[-88.255762,40.156844],[-88.256374,40.156844],[-88.256986,40.15684],[-88.257598,40.156833],[-88.257926,40.156829],[-88.258026,40.156825],[-88.258125,40.156818],[-88.258066,40.152661],[-88.258017,40.149094],[-88.258016,40.149094],[-88.255135,40.149119],[-88.25359,40.149131],[-88.253042,40.149133],[-88.252494,40.149133],[-88.252273,40.149131],[-88.251151,40.14912],[-88.251142,40.14912],[-88.250843,40.149117],[-88.250423,40.149118],[-88.250003,40.149122],[-88.248789,40.149134],[-88.24858,40.149138],[-88.248169,40.14914],[-88.247759,40.149136],[-88.247348,40.149126],[-88.246877,40.149119],[-88.246405,40.149115],[-88.244211,40.149097],[-88.24416,40.149097],[-88.244131,40.149097],[-88.243861,40.149098],[-88.243861,40.149108]]]},"id":10},{"type":"Feature","properties":{"name":"Turnberry Ridge HOA","type":"HOA"},"geometry":{"type":"Polygon","coordinates":[[[-88.314386,40.105154],[-88.31435,40.102343],[-88.314189,40.102341],[-88.313674,40.102335],[-88.313347,40.102331],[-88.313063,40.102328],[-88.312778,40.102324],[-88.312494,40.102321],[-88.312209,40.102317],[-88.311924,40.102314],[-88.311635,40.10231],[-88.311346,40.102306],[-88.311057,40.102302],[-88.310768,40.102298],[-88.310725,40.102297],[-88.310479,40.102294],[-88.310189,40.10229],[-88.3099,40.102286],[-88.309616,40.102282],[-88.309238,40.102277],[-88.309002,40.102273],[-88.308671,40.102269],[-88.308641,40.102268],[-88.308526,40.102266],[-88.308385,40.102264],[-88.308099,40.10226],[-88.307813,40.102256],[-88.307527,40.102252],[-88.307283,40.102249],[-88.307241,40.102248],[-88.306955,40.102244],[-88.306669,40.10224],[-88.306383,40.102236],[-88.306278,40.102234],[-88.306097,40.102231],[-88.306062,40.102231],[-88.305483,40.102222],[-88.305314,40.10222],[-88.305278,40.10222],[-88.305309,40.105012],[-88.305502,40.105007],[-88.306092,40.105001],[-88.306093,40.105215],[-88.306093,40.105257],[-88.306307,40.105254],[-88.306744,40.105252],[-88.307192,40.105249],[-88.307407,40.105257],[-88.307771,40.105221],[-88.30812,40.105174],[-88.308387,40.105134],[-88.30865,40.105102],[-88.308904,40.105087],[-88.309153,40.105083],[-88.309154,40.105079],[-88.309183,40.105079],[-88.30939,40.105079],[-88.30958,40.10508],[-88.30973,40.105081],[-88.30984,40.105081],[-88.309881,40.105081],[-88.309995,40.105082],[-88.310109,40.105082],[-88.31026,40.105083],[-88.31041,40.105083],[-88.310524,40.105084],[-88.31066,40.105084],[-88.310696,40.105085],[-88.310796,40.105089],[-88.310931,40.105096],[-88.310973,40.105098],[-88.311068,40.105111],[-88.311204,40.105128],[-88.311252,40.105134],[-88.31134,40.105143],[-88.311476,40.105155],[-88.311551,40.105162],[-88.311612,40.105164],[-88.311752,40.105167],[-88.311933,40.105172],[-88.312148,40.105169],[-88.312479,40.105167],[-88.313311,40.105161],[-88.313382,40.105161],[-88.314225,40.105155],[-88.314386,40.105154]]]},"id":11},{"type":"Feature","properties":{"name":"Timberline Valley South HOA","type":"HOA"},"geometry":{"type":"Polygon","coordinates":[[[-88.300378,40.124859],[-88.30032,40.124858],[-88.30017,40.124857],[-88.300063,40.124856],[-88.299884,40.124854],[-88.299805,40.124853],[-88.299598,40.12485],[-88.299548,40.12485],[-88.299312,40.124847],[-88.299291,40.124847],[-88.299033,40.124844],[-88.299026,40.124844],[-88.298776,40.124841],[-88.29874,40.124841],[-88.298687,40.12484],[-88.298447,40.124838],[-88.298399,40.124837],[-88.298128,40.124834],[-88.297993,40.124832],[-88.297997,40.125165],[-88.297999,40.125356],[-88.298,40.125392],[-88.298002,40.125611],[-88.298005,40.125831],[-88.298007,40.12605],[-88.29801,40.126269],[-88.298012,40.126496],[-88.297955,40.126657],[-88.297787,40.126967],[-88.2976,40.126932],[-88.297608,40.127509],[-88.297754,40.12751],[-88.29842,40.127517],[-88.298805,40.127521],[-88.299161,40.127525],[-88.299459,40.127528],[-88.299716,40.12753],[-88.300037,40.127534],[-88.300252,40.127536],[-88.300409,40.127537],[-88.300501,40.127536],[-88.300607,40.127535],[-88.300713,40.127534],[-88.300891,40.127532],[-88.301068,40.12753],[-88.301174,40.127529],[-88.30128,40.127528],[-88.301458,40.127526],[-88.301635,40.127524],[-88.301741,40.127523],[-88.301847,40.127522],[-88.302057,40.127519],[-88.302271,40.127517],[-88.302297,40.127517],[-88.302486,40.127506],[-88.302727,40.127493],[-88.303007,40.127477],[-88.303311,40.12746],[-88.30355,40.127447],[-88.303642,40.127411],[-88.303738,40.127375],[-88.303766,40.127317],[-88.303794,40.12726],[-88.303821,40.127203],[-88.303848,40.127146],[-88.303875,40.127088],[-88.303901,40.127031],[-88.303927,40.126973],[-88.30395,40.126921],[-88.303972,40.126869],[-88.303995,40.126817],[-88.304017,40.126764],[-88.304042,40.126703],[-88.304067,40.126642],[-88.304091,40.126581],[-88.304112,40.126528],[-88.304132,40.126475],[-88.304152,40.126423],[-88.30421,40.126264],[-88.304266,40.126105],[-88.304284,40.126052],[-88.304301,40.125999],[-88.304318,40.125946],[-88.304339,40.125882],[-88.304358,40.125818],[-88.304378,40.125754],[-88.304394,40.125699],[-88.30441,40.125644],[-88.304425,40.125589],[-88.304439,40.125518],[-88.304524,40.125066],[-88.304604,40.124539],[-88.304563,40.122928],[-88.304181,40.122354],[-88.302862,40.121755],[-88.302109,40.120943],[-88.301623,40.120684],[-88.30163,40.121173],[-88.301632,40.121379],[-88.301635,40.121571],[-88.301638,40.121806],[-88.301639,40.121832],[-88.301641,40.121987],[-88.301642,40.122067],[-88.301645,40.122257],[-88.301647,40.122411],[-88.301585,40.122411],[-88.301244,40.122407],[-88.301245,40.122434],[-88.301248,40.122599],[-88.301251,40.122886],[-88.301252,40.122891],[-88.301254,40.123088],[-88.301254,40.123105],[-88.301256,40.123286],[-88.301256,40.123324],[-88.301258,40.123483],[-88.301259,40.123544],[-88.30126,40.123681],[-88.301261,40.123763],[-88.301262,40.123879],[-88.301264,40.123984],[-88.301264,40.124014],[-88.301265,40.124076],[-88.301266,40.124204],[-88.301267,40.124274],[-88.301268,40.124423],[-88.301269,40.124472],[-88.301271,40.124642],[-88.301271,40.12467],[-88.301273,40.12487],[-88.301177,40.124869],[-88.300846,40.124865],[-88.300631,40.124862],[-88.300378,40.124859]]]},"id":12},{"type":"Feature","properties":{"name":"Copper Ridge HOA","type":"HOA"},"geometry":{"type":"Polygon","coordinates":[[[-88.322025,40.084161],[-88.318257,40.084147],[-88.316935,40.084142],[-88.31648,40.08414],[-88.31544,40.084137],[-88.315215,40.084136],[-88.315216,40.084224],[-88.315216,40.084246],[-88.315216,40.08426],[-88.315219,40.084505],[-88.315222,40.08471],[-88.315178,40.08471],[-88.314986,40.084709],[-88.314698,40.084708],[-88.314281,40.084706],[-88.314131,40.084706],[-88.31415,40.086417],[-88.314152,40.086534],[-88.314303,40.086486],[-88.316489,40.08579],[-88.316511,40.085784],[-88.316533,40.085777],[-88.316556,40.085771],[-88.316579,40.085765],[-88.316602,40.08576],[-88.316626,40.085755],[-88.316649,40.08575],[-88.316672,40.085746],[-88.316696,40.085743],[-88.31672,40.085739],[-88.316744,40.085736],[-88.316767,40.085734],[-88.316791,40.085732],[-88.316815,40.08573],[-88.316839,40.085729],[-88.316864,40.085728],[-88.316888,40.085728],[-88.317999,40.085715],[-88.318088,40.085714],[-88.319161,40.085705],[-88.319851,40.0857],[-88.319872,40.085699],[-88.319892,40.085699],[-88.319913,40.085697],[-88.319933,40.085696],[-88.319954,40.085694],[-88.319974,40.085692],[-88.319995,40.08569],[-88.320015,40.085687],[-88.320035,40.085683],[-88.320055,40.08568],[-88.320075,40.085676],[-88.320096,40.085671],[-88.320117,40.085666],[-88.320137,40.085661],[-88.320158,40.085655],[-88.320178,40.085649],[-88.320198,40.085643],[-88.320218,40.085636],[-88.320237,40.085629],[-88.320257,40.085621],[-88.320714,40.085437],[-88.320734,40.08543],[-88.320755,40.085424],[-88.320775,40.085418],[-88.320796,40.085413],[-88.320817,40.085408],[-88.320839,40.085403],[-88.32086,40.085399],[-88.320882,40.085395],[-88.320903,40.085392],[-88.320925,40.085389],[-88.320947,40.085386],[-88.320969,40.085384],[-88.320991,40.085382],[-88.321013,40.085381],[-88.321035,40.08538],[-88.321057,40.085379],[-88.321079,40.085379],[-88.321101,40.085379],[-88.321123,40.08538],[-88.321145,40.085381],[-88.32193,40.085377],[-88.322042,40.085379],[-88.322034,40.084737],[-88.322025,40.084161]]]},"id":13},{"type":"Feature","properties":{"name":"South Willis Neighborhood","type":"NW"},"geometry":{"type":"Polygon","coordinates":[[[-88.260749,40.111637],[-88.260734,40.110262],[-88.260733,40.110081],[-88.260723,40.109359],[-88.260552,40.109357],[-88.260546,40.109107],[-88.260538,40.10901],[-88.259541,40.109019],[-88.259542,40.109117],[-88.259555,40.11025],[-88.259571,40.111626],[-88.259806,40.111628],[-88.259808,40.11181],[-88.259812,40.112195],[-88.259816,40.11258],[-88.259816,40.112668],[-88.26018,40.112671],[-88.260211,40.112671],[-88.260525,40.112674],[-88.260524,40.112587],[-88.26052,40.112202],[-88.260515,40.111816],[-88.260519,40.111635],[-88.260749,40.111637]]]},"id":14},{"type":"Feature","properties":{"name":"Windy Shores Lake Association","type":"LOA"},"geometry":{"type":"Polygon","coordinates":[[[-88.293176,40.077199],[-88.293169,40.077112],[-88.29317,40.077026],[-88.293177,40.07694],[-88.293213,40.076639],[-88.293264,40.076174],[-88.293302,40.075822],[-88.293316,40.075679],[-88.293317,40.075673],[-88.292951,40.075652],[-88.292812,40.075649],[-88.292673,40.075652],[-88.292534,40.075662],[-88.292396,40.075678],[-88.29226,40.0757],[-88.292112,40.075731],[-88.291962,40.075756],[-88.29181,40.075773],[-88.291657,40.075783],[-88.291504,40.075786],[-88.291351,40.075782],[-88.291198,40.075771],[-88.291046,40.075753],[-88.290799,40.075712],[-88.290693,40.075696],[-88.290585,40.075684],[-88.290477,40.075677],[-88.290368,40.075675],[-88.289772,40.075677],[-88.289773,40.075822],[-88.289777,40.07655],[-88.289773,40.076592],[-88.289766,40.076633],[-88.289687,40.077027],[-88.289809,40.077045],[-88.289929,40.07707],[-88.290047,40.077101],[-88.290162,40.077138],[-88.290273,40.077181],[-88.290381,40.077229],[-88.290496,40.077287],[-88.290589,40.077331],[-88.290685,40.07737],[-88.290795,40.077409],[-88.290908,40.077441],[-88.291024,40.077467],[-88.291142,40.077487],[-88.291261,40.077501],[-88.291381,40.077509],[-88.291502,40.07751],[-88.291622,40.077505],[-88.29173,40.077495],[-88.291838,40.07748],[-88.291943,40.07746],[-88.292056,40.077435],[-88.292166,40.077405],[-88.292274,40.077369],[-88.292419,40.077326],[-88.292566,40.077289],[-88.292716,40.077257],[-88.292868,40.077231],[-88.293021,40.077212],[-88.293176,40.077199]]]},"id":15},{"type":"Feature","properties":{"name":"Trails at Brittany HOA","type":"HOA"},"geometry":{"type":"Polygon","coordinates":[[[-88.314429,40.096223],[-88.314432,40.096498],[-88.314438,40.096955],[-88.314438,40.096963],[-88.314581,40.096961],[-88.314949,40.096958],[-88.31531,40.096955],[-88.315639,40.096952],[-88.315671,40.096951],[-88.315671,40.096853],[-88.316029,40.096852],[-88.316362,40.096866],[-88.316692,40.096906],[-88.316805,40.096929],[-88.317015,40.096972],[-88.317327,40.097062],[-88.317626,40.097175],[-88.317908,40.097312],[-88.318171,40.09747],[-88.318413,40.097648],[-88.318667,40.097854],[-88.318904,40.098047],[-88.319023,40.098234],[-88.319023,40.098459],[-88.319023,40.098572],[-88.319488,40.098572],[-88.320133,40.098573],[-88.320489,40.098573],[-88.321133,40.098588],[-88.32354,40.098591],[-88.323505,40.096305],[-88.323501,40.096072],[-88.323497,40.095735],[-88.323493,40.095415],[-88.323489,40.095095],[-88.323488,40.095076],[-88.323485,40.094775],[-88.32348,40.094447],[-88.323478,40.094282],[-88.323475,40.093867],[-88.323473,40.093546],[-88.323472,40.093347],[-88.323471,40.093203],[-88.323469,40.092863],[-88.323467,40.092509],[-88.323463,40.091997],[-88.323462,40.091829],[-88.32346,40.091446],[-88.323065,40.091445],[-88.322943,40.091445],[-88.322672,40.091445],[-88.322303,40.091444],[-88.322221,40.091444],[-88.321792,40.091443],[-88.321578,40.091442],[-88.321216,40.091442],[-88.321067,40.091441],[-88.320995,40.091441],[-88.32093,40.091441],[-88.320644,40.09144],[-88.320558,40.09144],[-88.320358,40.09144],[-88.320073,40.091439],[-88.319787,40.091438],[-88.319499,40.091438],[-88.319211,40.091437],[-88.319175,40.091437],[-88.318887,40.091437],[-88.3186,40.091436],[-88.318314,40.091435],[-88.318028,40.091435],[-88.317742,40.091434],[-88.317456,40.091433],[-88.317398,40.091433],[-88.31717,40.091433],[-88.316884,40.091432],[-88.316598,40.091432],[-88.316312,40.091431],[-88.316018,40.09143],[-88.315536,40.091429],[-88.315384,40.091429],[-88.314367,40.091427],[-88.314373,40.091889],[-88.314376,40.092163],[-88.314406,40.094441],[-88.314549,40.09444],[-88.315264,40.094432],[-88.315267,40.094633],[-88.315276,40.095179],[-88.314558,40.095186],[-88.314415,40.095188],[-88.314429,40.096223]]]},"id":16},{"type":"Feature","properties":{"name":"Ponds of Windsor","type":"HOA"},"geometry":{"type":"Polygon","coordinates":[[[-88.26322,40.081944],[-88.263197,40.081961],[-88.263176,40.081979],[-88.263154,40.081996],[-88.263133,40.082014],[-88.263112,40.082032],[-88.263092,40.08205],[-88.263072,40.082069],[-88.263052,40.082088],[-88.263033,40.082107],[-88.263014,40.082126],[-88.262996,40.082146],[-88.262979,40.082164],[-88.262962,40.082183],[-88.262946,40.082202],[-88.26293,40.082221],[-88.262914,40.08224],[-88.262897,40.082262],[-88.262881,40.082284],[-88.262866,40.082305],[-88.262851,40.082327],[-88.262836,40.082349],[-88.262822,40.082371],[-88.262809,40.082393],[-88.262796,40.082415],[-88.262783,40.082438],[-88.262771,40.08246],[-88.262759,40.082483],[-88.262748,40.082506],[-88.262737,40.082529],[-88.262727,40.082552],[-88.262717,40.082576],[-88.262708,40.082599],[-88.262699,40.082622],[-88.262691,40.082645],[-88.262683,40.082669],[-88.262676,40.082692],[-88.262669,40.082715],[-88.262663,40.082739],[-88.262657,40.082763],[-88.262652,40.082786],[-88.262647,40.08281],[-88.262643,40.082834],[-88.262639,40.082858],[-88.262636,40.082882],[-88.262633,40.082906],[-88.262631,40.08293],[-88.262629,40.082955],[-88.262628,40.08298],[-88.262627,40.083005],[-88.262627,40.08303],[-88.262627,40.083055],[-88.262624,40.083383],[-88.262677,40.083461],[-88.262685,40.083474],[-88.262686,40.083475],[-88.262805,40.083515],[-88.26376,40.08352],[-88.26392,40.083521],[-88.26517,40.083527],[-88.265848,40.083531],[-88.266906,40.083537],[-88.266942,40.083537],[-88.267227,40.083538],[-88.268077,40.083543],[-88.268072,40.082755],[-88.268072,40.082605],[-88.268071,40.082456],[-88.26807,40.082308],[-88.26807,40.082237],[-88.268069,40.082169],[-88.268069,40.082141],[-88.268068,40.082007],[-88.268067,40.081857],[-88.268317,40.081799],[-88.268451,40.081913],[-88.268608,40.082045],[-88.268811,40.082133],[-88.268955,40.082133],[-88.269094,40.082133],[-88.269305,40.082082],[-88.269423,40.081978],[-88.269465,40.081916],[-88.26954,40.081808],[-88.269547,40.081611],[-88.269526,40.08153],[-88.269515,40.081489],[-88.269451,40.0814],[-88.269431,40.081372],[-88.269412,40.081294],[-88.269398,40.081233],[-88.269398,40.081176],[-88.269398,40.081054],[-88.269397,40.080931],[-88.269396,40.080891],[-88.269396,40.080851],[-88.269395,40.080771],[-88.269394,40.080632],[-88.269393,40.080563],[-88.269391,40.080398],[-88.269457,40.080399],[-88.269566,40.080397],[-88.269659,40.080394],[-88.269711,40.080392],[-88.269762,40.08039],[-88.269813,40.080387],[-88.269864,40.080384],[-88.270032,40.080375],[-88.270248,40.080363],[-88.270251,40.080373],[-88.270257,40.080392],[-88.270659,40.080283],[-88.270662,40.08003],[-88.270295,40.080029],[-88.270224,40.080029],[-88.270009,40.080029],[-88.269829,40.080029],[-88.269654,40.080028],[-88.26955,40.080028],[-88.269334,40.080028],[-88.269205,40.080027],[-88.269174,40.080027],[-88.269014,40.080027],[-88.268859,40.080027],[-88.268685,40.080026],[-88.268529,40.080026],[-88.268514,40.080026],[-88.268365,40.080026],[-88.268207,40.080025],[-88.268168,40.080025],[-88.26805,40.080025],[-88.267858,40.080025],[-88.267674,40.080024],[-88.267629,40.080024],[-88.267409,40.080024],[-88.266989,40.080023],[-88.26697,40.080023],[-88.266859,40.080023],[-88.266856,40.079785],[-88.266853,40.079553],[-88.266405,40.079555],[-88.266074,40.079557],[-88.26567,40.079559],[-88.26537,40.079561],[-88.264828,40.079564],[-88.264826,40.079825],[-88.264824,40.080085],[-88.264822,40.08033],[-88.264821,40.080345],[-88.264819,40.080368],[-88.264817,40.08039],[-88.264814,40.080412],[-88.26481,40.080434],[-88.264806,40.080457],[-88.264802,40.080479],[-88.264796,40.080501],[-88.264791,40.080522],[-88.264784,40.080544],[-88.264778,40.080566],[-88.26477,40.080588],[-88.264762,40.080609],[-88.26472,40.080685],[-88.264681,40.080762],[-88.264673,40.080774],[-88.264664,40.080786],[-88.264652,40.080804],[-88.264638,40.080823],[-88.264624,40.080841],[-88.26461,40.080858],[-88.264595,40.080876],[-88.26458,40.080893],[-88.264564,40.08091],[-88.264548,40.080927],[-88.264531,40.080944],[-88.264514,40.08096],[-88.264497,40.080976],[-88.264479,40.080992],[-88.264461,40.081008],[-88.264442,40.081023],[-88.264429,40.081033],[-88.264041,40.081325],[-88.263447,40.081773],[-88.26322,40.081944]]]},"id":17},{"type":"Feature","properties":{"name":"Timberline Valley North","type":"HOA"},"geometry":{"type":"Polygon","coordinates":[[[-88.29582,40.127803],[-88.295824,40.128018],[-88.295836,40.12867],[-88.295839,40.128821],[-88.295845,40.129138],[-88.295851,40.129468],[-88.295854,40.129633],[-88.295859,40.129866],[-88.295862,40.130066],[-88.295866,40.130265],[-88.29587,40.130465],[-88.295873,40.130664],[-88.295877,40.130864],[-88.295881,40.131063],[-88.295886,40.13131],[-88.295891,40.131625],[-88.295892,40.131678],[-88.295901,40.132154],[-88.295905,40.132363],[-88.295909,40.132573],[-88.295913,40.132804],[-88.295916,40.132968],[-88.295921,40.133202],[-88.295925,40.133408],[-88.295929,40.133614],[-88.295937,40.134082],[-88.295942,40.134329],[-88.295952,40.134852],[-88.296084,40.134854],[-88.296737,40.134323],[-88.297133,40.134002],[-88.297267,40.133899],[-88.297634,40.133618],[-88.297894,40.133419],[-88.297934,40.133383],[-88.298188,40.133162],[-88.298427,40.132952],[-88.298581,40.132817],[-88.298736,40.132682],[-88.29889,40.132547],[-88.299044,40.132412],[-88.299197,40.132278],[-88.29935,40.132144],[-88.299502,40.13201],[-88.299655,40.131877],[-88.299808,40.131743],[-88.299961,40.131609],[-88.300114,40.131475],[-88.300266,40.131342],[-88.30042,40.131207],[-88.300573,40.131073],[-88.300726,40.130939],[-88.30088,40.130804],[-88.301387,40.13036],[-88.301423,40.130328],[-88.301429,40.130323],[-88.301484,40.130275],[-88.301538,40.130226],[-88.301591,40.130178],[-88.301643,40.130131],[-88.301695,40.130082],[-88.301747,40.130034],[-88.301798,40.129985],[-88.301849,40.129936],[-88.301899,40.129887],[-88.301937,40.129849],[-88.301976,40.129811],[-88.302022,40.129765],[-88.302068,40.129718],[-88.302113,40.129671],[-88.302158,40.129624],[-88.302203,40.129576],[-88.302248,40.129529],[-88.302287,40.129486],[-88.302326,40.129443],[-88.302359,40.129407],[-88.302398,40.129364],[-88.302436,40.129321],[-88.302474,40.129278],[-88.302511,40.129234],[-88.302558,40.12918],[-88.302604,40.129126],[-88.302649,40.129071],[-88.302694,40.129016],[-88.302739,40.128961],[-88.302783,40.128906],[-88.302826,40.12885],[-88.302869,40.128795],[-88.302912,40.128739],[-88.302954,40.128683],[-88.302996,40.128626],[-88.303038,40.12857],[-88.303078,40.128513],[-88.303119,40.128456],[-88.303159,40.128399],[-88.303198,40.128342],[-88.303237,40.128284],[-88.303275,40.128227],[-88.303313,40.128169],[-88.303351,40.128111],[-88.303364,40.127939],[-88.301994,40.12787],[-88.300688,40.127804],[-88.300458,40.127792],[-88.30028,40.127783],[-88.299969,40.12778],[-88.299934,40.12778],[-88.29963,40.127777],[-88.299379,40.127774],[-88.299129,40.127771],[-88.298897,40.127769],[-88.298593,40.127766],[-88.298378,40.127764],[-88.298073,40.127761],[-88.297815,40.127758],[-88.297557,40.127755],[-88.297298,40.127753],[-88.29704,40.12775],[-88.296782,40.127747],[-88.296523,40.127745],[-88.295903,40.127738],[-88.29582,40.127803]]]},"id":18},{"type":"Feature","properties":{"name":"Parkland Ridge South Condo Association","type":"HOA"},"geometry":{"type":"Polygon","coordinates":[[[-88.2902,40.12042],[-88.290959,40.120549],[-88.291162,40.120567],[-88.293393,40.120595],[-88.293524,40.120618],[-88.293653,40.120648],[-88.293778,40.120684],[-88.293901,40.120727],[-88.294018,40.120776],[-88.294132,40.120832],[-88.29424,40.120893],[-88.294342,40.12096],[-88.294438,40.121032],[-88.294527,40.121109],[-88.294609,40.121191],[-88.294684,40.121277],[-88.294751,40.121366],[-88.294809,40.121459],[-88.294859,40.121555],[-88.294901,40.121653],[-88.294933,40.121753],[-88.295415,40.121749],[-88.295414,40.121659],[-88.295276,40.120308],[-88.295267,40.12022],[-88.295234,40.120219],[-88.293742,40.120197],[-88.293471,40.120193],[-88.292527,40.120179],[-88.292297,40.120175],[-88.292067,40.120166],[-88.291837,40.120154],[-88.291559,40.120134],[-88.291282,40.120109],[-88.290952,40.120097],[-88.290741,40.120068],[-88.290531,40.120036],[-88.290321,40.12],[-88.290214,40.120372],[-88.2902,40.12042]]]},"id":19},{"type":"Feature","properties":{"name":"Trails Edge of Champaign HOA","type":"HOA"},"geometry":{"type":"Polygon","coordinates":[[[-88.323462,40.091829],[-88.323463,40.091997],[-88.323467,40.092509],[-88.323469,40.092863],[-88.323471,40.093203],[-88.323472,40.093347],[-88.323473,40.093546],[-88.323475,40.093867],[-88.323478,40.094282],[-88.32348,40.094447],[-88.323485,40.094775],[-88.323488,40.095076],[-88.323677,40.095077],[-88.324042,40.095079],[-88.324328,40.095081],[-88.324454,40.095082],[-88.324625,40.095083],[-88.324786,40.095083],[-88.324912,40.095084],[-88.325117,40.095085],[-88.325209,40.095086],[-88.325448,40.095087],[-88.325495,40.095087],[-88.325779,40.095088],[-88.325833,40.095089],[-88.326077,40.09509],[-88.326164,40.09509],[-88.326359,40.095091],[-88.326495,40.095092],[-88.326659,40.095092],[-88.3268,40.095093],[-88.326955,40.095094],[-88.327104,40.095094],[-88.32724,40.095095],[-88.327436,40.095096],[-88.327536,40.095096],[-88.327767,40.095097],[-88.328011,40.095098],[-88.328098,40.095098],[-88.328372,40.0951],[-88.328368,40.09474],[-88.328365,40.094404],[-88.328362,40.094176],[-88.32836,40.093956],[-88.328357,40.093729],[-88.328355,40.093509],[-88.328352,40.093281],[-88.328349,40.093009],[-88.328347,40.092844],[-88.328344,40.092573],[-88.328341,40.092353],[-88.328339,40.092125],[-88.328336,40.091905],[-88.328334,40.091686],[-88.328331,40.091463],[-88.327831,40.091461],[-88.327616,40.09146],[-88.327258,40.091459],[-88.327197,40.091459],[-88.326987,40.091458],[-88.326715,40.091457],[-88.326443,40.091456],[-88.326172,40.091455],[-88.325962,40.091455],[-88.3259,40.091454],[-88.325543,40.091453],[-88.325328,40.091452],[-88.32496,40.091451],[-88.324931,40.091451],[-88.324656,40.09145],[-88.324628,40.09145],[-88.324352,40.091449],[-88.324324,40.091449],[-88.324049,40.091448],[-88.32402,40.091448],[-88.323641,40.091447],[-88.32346,40.091446],[-88.323462,40.091829]]]},"id":20},{"type":"Feature","properties":{"name":"Devonshire South III & IV HOA","type":"HOA"},"geometry":{"type":"Polygon","coordinates":[[[-88.260581,40.077984],[-88.260574,40.078332],[-88.260743,40.078485],[-88.261008,40.078724],[-88.261336,40.078726],[-88.261695,40.078728],[-88.262055,40.07873],[-88.262416,40.078732],[-88.262868,40.078734],[-88.262974,40.078735],[-88.263374,40.078465],[-88.263668,40.078267],[-88.26348,40.07809],[-88.263501,40.078073],[-88.263834,40.077801],[-88.264009,40.077702],[-88.264324,40.077476],[-88.264359,40.077473],[-88.264681,40.077508],[-88.265006,40.07751],[-88.265366,40.077512],[-88.265442,40.077513],[-88.265723,40.077515],[-88.265906,40.077516],[-88.266086,40.077517],[-88.266373,40.077519],[-88.266826,40.077522],[-88.266825,40.077453],[-88.266819,40.076979],[-88.266819,40.076961],[-88.266811,40.076394],[-88.266069,40.07639],[-88.265711,40.076389],[-88.265357,40.076387],[-88.264999,40.076385],[-88.264643,40.076384],[-88.264241,40.076382],[-88.263717,40.076379],[-88.263562,40.076379],[-88.263346,40.076694],[-88.262986,40.077184],[-88.262948,40.077358],[-88.26271,40.077671],[-88.262804,40.077706],[-88.262736,40.077705],[-88.262429,40.077585],[-88.262053,40.077582],[-88.261694,40.07758],[-88.261035,40.077575],[-88.260581,40.077984]]]},"id":21},{"type":"Feature","properties":{"name":"Devonshire HOA","type":"HOA"},"geometry":{"type":"Polygon","coordinates":[[[-88.259731,40.089985],[-88.259764,40.089987],[-88.259796,40.089988],[-88.259829,40.089989],[-88.259861,40.089989],[-88.259894,40.089989],[-88.259916,40.089989],[-88.260043,40.089988],[-88.260311,40.089987],[-88.260579,40.089985],[-88.260847,40.089984],[-88.261115,40.089982],[-88.261454,40.08998],[-88.261669,40.089979],[-88.262084,40.089977],[-88.262335,40.089975],[-88.262368,40.089975],[-88.262402,40.089974],[-88.262436,40.089973],[-88.26247,40.089972],[-88.262503,40.089969],[-88.262537,40.089967],[-88.26257,40.089964],[-88.262604,40.089961],[-88.262637,40.089957],[-88.26267,40.089952],[-88.262704,40.089948],[-88.262737,40.089943],[-88.262946,40.089899],[-88.262978,40.089891],[-88.263009,40.089883],[-88.26304,40.089874],[-88.263071,40.089864],[-88.263102,40.089855],[-88.263132,40.089844],[-88.263163,40.089834],[-88.263193,40.089823],[-88.263223,40.089811],[-88.263243,40.089803],[-88.263264,40.089795],[-88.263284,40.089787],[-88.263304,40.089778],[-88.263324,40.089769],[-88.263339,40.089762],[-88.263366,40.08975],[-88.263392,40.089739],[-88.263419,40.089728],[-88.263446,40.089717],[-88.263474,40.089706],[-88.263501,40.089696],[-88.263529,40.089686],[-88.263557,40.089677],[-88.263585,40.089668],[-88.263613,40.089659],[-88.263642,40.089651],[-88.263671,40.089643],[-88.263912,40.08959],[-88.263943,40.089585],[-88.263975,40.08958],[-88.264007,40.089576],[-88.264039,40.089573],[-88.26407,40.089569],[-88.264102,40.089566],[-88.264134,40.089564],[-88.264166,40.089562],[-88.264199,40.08956],[-88.264231,40.089559],[-88.264263,40.089558],[-88.264281,40.089558],[-88.264303,40.089558],[-88.264325,40.089558],[-88.264584,40.089559],[-88.264869,40.089561],[-88.265154,40.089562],[-88.265439,40.089564],[-88.265724,40.089565],[-88.266009,40.089567],[-88.26633,40.089569],[-88.266544,40.089571],[-88.266973,40.089574],[-88.26697,40.089354],[-88.26697,40.089314],[-88.266968,40.089143],[-88.266967,40.089081],[-88.266966,40.088937],[-88.266965,40.088849],[-88.266963,40.088717],[-88.266962,40.088616],[-88.266961,40.088516],[-88.266961,40.088505],[-88.26696,40.088376],[-88.266959,40.088286],[-88.266957,40.088166],[-88.266956,40.088066],[-88.266955,40.087952],[-88.266954,40.087846],[-88.266953,40.087739],[-88.266951,40.087627],[-88.26695,40.087526],[-88.266948,40.087312],[-88.266948,40.087296],[-88.266945,40.08704],[-88.266943,40.086839],[-88.266942,40.086769],[-88.266938,40.086435],[-88.266906,40.086434],[-88.266875,40.086434],[-88.266843,40.086433],[-88.266811,40.086433],[-88.266779,40.086434],[-88.266748,40.086435],[-88.266716,40.086436],[-88.266684,40.086437],[-88.266653,40.086439],[-88.266621,40.086442],[-88.266589,40.086445],[-88.266557,40.086448],[-88.266525,40.086451],[-88.266493,40.086455],[-88.266461,40.08646],[-88.266429,40.086464],[-88.266398,40.086469],[-88.266366,40.086475],[-88.266335,40.086481],[-88.266304,40.086487],[-88.266272,40.086494],[-88.26624,40.086501],[-88.266208,40.086509],[-88.266177,40.086517],[-88.266145,40.086525],[-88.266114,40.086534],[-88.266083,40.086543],[-88.266053,40.086552],[-88.266022,40.086562],[-88.265992,40.086573],[-88.265831,40.086628],[-88.265634,40.086697],[-88.265274,40.086822],[-88.265258,40.086828],[-88.265224,40.086839],[-88.26519,40.08685],[-88.265157,40.086861],[-88.265122,40.086872],[-88.265088,40.086882],[-88.265054,40.086892],[-88.265019,40.086901],[-88.264984,40.08691],[-88.264949,40.086919],[-88.264914,40.086927],[-88.264879,40.086935],[-88.264875,40.086936],[-88.264668,40.086979],[-88.264304,40.087056],[-88.263875,40.087147],[-88.26366,40.087193],[-88.263662,40.087022],[-88.263664,40.086796],[-88.263667,40.086543],[-88.263669,40.086296],[-88.263672,40.086062],[-88.263674,40.085815],[-88.263677,40.085581],[-88.263679,40.085347],[-88.263682,40.085046],[-88.263196,40.085044],[-88.262614,40.085041],[-88.2624,40.08505],[-88.262398,40.085027],[-88.262397,40.085005],[-88.262396,40.084982],[-88.262396,40.084959],[-88.262396,40.084938],[-88.262398,40.084691],[-88.262401,40.08437],[-88.262402,40.084205],[-88.262403,40.083892],[-88.262341,40.083796],[-88.262222,40.083759],[-88.261993,40.083757],[-88.261635,40.083755],[-88.261278,40.083749],[-88.260921,40.08374],[-88.260921,40.083738],[-88.260564,40.083736],[-88.260206,40.083734],[-88.259849,40.083732],[-88.259492,40.08373],[-88.259251,40.083729],[-88.258905,40.083734],[-88.258905,40.083727],[-88.258315,40.083724],[-88.258315,40.083738],[-88.257852,40.083744],[-88.257729,40.083769],[-88.257664,40.083815],[-88.257638,40.083912],[-88.257639,40.08394],[-88.257644,40.084464],[-88.257647,40.084739],[-88.257647,40.084767],[-88.25765,40.085027],[-88.257652,40.085288],[-88.257655,40.085549],[-88.257657,40.085824],[-88.25766,40.086099],[-88.257662,40.086387],[-88.257664,40.086552],[-88.257666,40.08684],[-88.257668,40.087098],[-88.257671,40.087345],[-88.257673,40.087592],[-88.257674,40.087667],[-88.257675,40.087845],[-88.257678,40.088133],[-88.257682,40.088529],[-88.25795,40.088527],[-88.258664,40.088523],[-88.25895,40.088521],[-88.258984,40.088521],[-88.258985,40.088654],[-88.258987,40.088901],[-88.258989,40.089143],[-88.25899,40.08931],[-88.25854,40.089312],[-88.258493,40.089316],[-88.258394,40.089682],[-88.258431,40.089689],[-88.258468,40.089697],[-88.258505,40.089704],[-88.258542,40.089713],[-88.258579,40.089721],[-88.258616,40.08973],[-88.258652,40.08974],[-88.258689,40.089749],[-88.258725,40.089759],[-88.258761,40.08977],[-88.258787,40.089778],[-88.258814,40.089786],[-88.258904,40.089812],[-88.25913,40.089875],[-88.259196,40.089894],[-88.259225,40.089902],[-88.259254,40.08991],[-88.259284,40.089918],[-88.259313,40.089925],[-88.259343,40.089932],[-88.259373,40.089938],[-88.259403,40.089944],[-88.259433,40.08995],[-88.259439,40.089951],[-88.259444,40.089951],[-88.25945,40.089951],[-88.259731,40.089985]]]},"id":22},{"type":"Feature","properties":{"name":"Edgebrook Drive","type":"NW"},"geometry":{"type":"Polygon","coordinates":[[[-88.245084,40.131496],[-88.244892,40.131838],[-88.24502,40.131899],[-88.245171,40.132038],[-88.245292,40.132169],[-88.245441,40.132331],[-88.245633,40.13247],[-88.245657,40.132487],[-88.245681,40.132503],[-88.245705,40.132519],[-88.24573,40.132534],[-88.245755,40.13255],[-88.24578,40.132565],[-88.245806,40.13258],[-88.245832,40.132594],[-88.245835,40.132596],[-88.245839,40.132598],[-88.245844,40.132601],[-88.245847,40.132602],[-88.24585,40.132604],[-88.245878,40.132619],[-88.245906,40.132633],[-88.245934,40.132648],[-88.245963,40.132662],[-88.245992,40.132675],[-88.246021,40.132688],[-88.246046,40.132699],[-88.24607,40.13271],[-88.246095,40.13272],[-88.24612,40.13273],[-88.24615,40.132742],[-88.24618,40.132753],[-88.246211,40.132764],[-88.246241,40.132775],[-88.246272,40.132785],[-88.246303,40.132795],[-88.246334,40.132805],[-88.246365,40.132814],[-88.246397,40.132823],[-88.246428,40.132831],[-88.24646,40.13284],[-88.246492,40.132847],[-88.246524,40.132855],[-88.246556,40.132862],[-88.246589,40.132869],[-88.246621,40.132875],[-88.246654,40.132881],[-88.246687,40.132887],[-88.246721,40.132892],[-88.246754,40.132897],[-88.246788,40.132902],[-88.246822,40.132906],[-88.246856,40.13291],[-88.24689,40.132914],[-88.246924,40.132917],[-88.24694,40.132918],[-88.246956,40.132919],[-88.247212,40.132932],[-88.247453,40.132948],[-88.24769,40.132965],[-88.24782,40.132974],[-88.247889,40.132978],[-88.247923,40.132978],[-88.248192,40.132978],[-88.248194,40.132647],[-88.248172,40.13248],[-88.24817,40.132152],[-88.248168,40.131799],[-88.248168,40.131597],[-88.248169,40.131486],[-88.248166,40.131321],[-88.248165,40.130818],[-88.248122,40.130819],[-88.247907,40.130819],[-88.247691,40.13082],[-88.247476,40.130821],[-88.247453,40.130821],[-88.247263,40.130822],[-88.247226,40.130822],[-88.247047,40.130823],[-88.246996,40.130823],[-88.246832,40.130824],[-88.246765,40.130824],[-88.24664,40.130825],[-88.246616,40.130825],[-88.246526,40.130825],[-88.246403,40.130826],[-88.246299,40.130826],[-88.246187,40.130827],[-88.246065,40.130827],[-88.245972,40.130828],[-88.245834,40.130828],[-88.245756,40.130829],[-88.245581,40.130829],[-88.245541,40.13083],[-88.245346,40.13083],[-88.245307,40.130831],[-88.245115,40.130831],[-88.245116,40.131332],[-88.245084,40.131496]]]},"id":23},{"type":"Feature","properties":{"name":"Sawgrass HOA","type":"HOA"},"geometry":{"type":"Polygon","coordinates":[[[-88.309762,40.120477],[-88.3088,40.120558],[-88.30804,40.120974],[-88.307398,40.121693],[-88.30617,40.1222],[-88.305698,40.122916],[-88.305654,40.123292],[-88.305532,40.124316],[-88.305526,40.124383],[-88.305519,40.124451],[-88.305513,40.124519],[-88.305505,40.124587],[-88.305497,40.124654],[-88.305488,40.124722],[-88.305479,40.124789],[-88.30547,40.124857],[-88.305469,40.124862],[-88.305468,40.124869],[-88.305467,40.124876],[-88.305466,40.124883],[-88.305465,40.12489],[-88.305464,40.124897],[-88.305462,40.124904],[-88.305461,40.124911],[-88.30546,40.124918],[-88.305459,40.124924],[-88.305449,40.124986],[-88.305439,40.125047],[-88.305428,40.125108],[-88.305417,40.12517],[-88.305406,40.125231],[-88.305394,40.125292],[-88.305392,40.125299],[-88.305378,40.125365],[-88.305364,40.125432],[-88.305349,40.125498],[-88.305334,40.125565],[-88.305318,40.125631],[-88.305302,40.125697],[-88.305285,40.125763],[-88.305267,40.125829],[-88.305249,40.125894],[-88.305231,40.12596],[-88.305212,40.126025],[-88.305192,40.12609],[-88.305172,40.126156],[-88.305152,40.126221],[-88.305131,40.126286],[-88.305122,40.126312],[-88.305137,40.127466],[-88.305145,40.127466],[-88.30658,40.127561],[-88.306937,40.127575],[-88.308367,40.127632],[-88.311904,40.127665],[-88.314478,40.127689],[-88.314478,40.12762],[-88.314449,40.124905],[-88.314445,40.124587],[-88.314443,40.124354],[-88.314412,40.121444],[-88.314221,40.120531],[-88.311466,40.120497],[-88.310325,40.120484],[-88.309766,40.120477],[-88.309762,40.120477]]]},"id":24},{"type":"Feature","properties":{"name":"Karla Condominium Association","type":"HOA"},"geometry":{"type":"Polygon","coordinates":[[[-88.293943,40.127072],[-88.293938,40.127094],[-88.293932,40.127115],[-88.293927,40.127137],[-88.293923,40.127159],[-88.293919,40.12718],[-88.293915,40.127202],[-88.293912,40.127224],[-88.29391,40.127246],[-88.293908,40.127268],[-88.293906,40.12729],[-88.293905,40.127311],[-88.293904,40.127333],[-88.293902,40.127486],[-88.294531,40.127492],[-88.295448,40.1275],[-88.29551,40.127448],[-88.295505,40.127052],[-88.295484,40.127052],[-88.295477,40.126527],[-88.295475,40.126334],[-88.295472,40.126169],[-88.295458,40.125096],[-88.294769,40.125102],[-88.29477,40.125225],[-88.294223,40.12523],[-88.293574,40.125235],[-88.29358,40.125255],[-88.293585,40.125276],[-88.293592,40.125296],[-88.293599,40.125316],[-88.293606,40.125336],[-88.293614,40.125355],[-88.293622,40.125375],[-88.293631,40.125394],[-88.29364,40.125413],[-88.29365,40.125432],[-88.29366,40.125451],[-88.293671,40.12547],[-88.293682,40.125488],[-88.293694,40.125507],[-88.29374,40.125571],[-88.293812,40.12567],[-88.293869,40.125763],[-88.293882,40.125786],[-88.293896,40.125809],[-88.293909,40.125832],[-88.293921,40.125855],[-88.293933,40.125879],[-88.293944,40.125902],[-88.293955,40.125926],[-88.293965,40.12595],[-88.293975,40.125974],[-88.293985,40.125998],[-88.293994,40.126022],[-88.294002,40.126046],[-88.29401,40.126071],[-88.294017,40.126095],[-88.294024,40.12612],[-88.294031,40.126144],[-88.294037,40.126169],[-88.294042,40.126194],[-88.294047,40.126219],[-88.294051,40.126243],[-88.294055,40.126267],[-88.294058,40.126291],[-88.294069,40.126457],[-88.294069,40.126471],[-88.294069,40.126497],[-88.294068,40.126522],[-88.294066,40.126548],[-88.294064,40.126574],[-88.294061,40.126599],[-88.294058,40.126625],[-88.294054,40.12665],[-88.29405,40.126676],[-88.294045,40.126701],[-88.29404,40.126726],[-88.294034,40.126752],[-88.294028,40.126777],[-88.294021,40.126802],[-88.293943,40.127072]]]},"id":25},{"type":"Feature","properties":{"name":"GHMC Neighborhood","type":"NW"},"geometry":{"type":"Polygon","coordinates":[[[-88.264817,40.112177],[-88.264814,40.111679],[-88.264337,40.111674],[-88.264326,40.110659],[-88.264807,40.110664],[-88.264802,40.109777],[-88.263839,40.109766],[-88.263624,40.109764],[-88.262656,40.109754],[-88.26242,40.109768],[-88.262422,40.110098],[-88.262421,40.110279],[-88.262423,40.110608],[-88.261933,40.110603],[-88.261939,40.111319],[-88.262428,40.111324],[-88.262433,40.112146],[-88.264817,40.112177]]]},"id":26},{"type":"Feature","properties":{"name":"Wills Trace HOA","type":"HOA"},"geometry":{"type":"Polygon","coordinates":[[[-88.32829,40.087951],[-88.328294,40.088223],[-88.328296,40.08838],[-88.328296,40.088388],[-88.328296,40.088389],[-88.328296,40.088398],[-88.328299,40.088664],[-88.328299,40.088666],[-88.328301,40.088891],[-88.328304,40.089102],[-88.328306,40.089305],[-88.328309,40.089516],[-88.328311,40.089744],[-88.328314,40.089955],[-88.328316,40.090158],[-88.328319,40.090369],[-88.328321,40.090596],[-88.328324,40.090807],[-88.328326,40.09101],[-88.328326,40.091038],[-88.328329,40.091249],[-88.328331,40.091463],[-88.328708,40.091464],[-88.328759,40.091464],[-88.328972,40.091465],[-88.329026,40.091465],[-88.329275,40.091466],[-88.329508,40.091466],[-88.32974,40.091467],[-88.329972,40.091468],[-88.330205,40.091469],[-88.330437,40.09147],[-88.330669,40.09147],[-88.330901,40.091471],[-88.330937,40.091471],[-88.331171,40.091472],[-88.331404,40.091473],[-88.331637,40.091474],[-88.331853,40.091474],[-88.332127,40.091475],[-88.332683,40.091477],[-88.332739,40.091477],[-88.332857,40.091478],[-88.332848,40.090628],[-88.332845,40.090361],[-88.332845,40.090353],[-88.332842,40.090134],[-88.332842,40.090134],[-88.332839,40.089867],[-88.332839,40.08986],[-88.332818,40.087993],[-88.332818,40.08796],[-88.332817,40.087952],[-88.332699,40.087952],[-88.332541,40.087952],[-88.332008,40.08795],[-88.331958,40.08795],[-88.331677,40.087949],[-88.331412,40.087948],[-88.331136,40.087947],[-88.330861,40.087947],[-88.330585,40.087946],[-88.33031,40.087945],[-88.330035,40.087944],[-88.32976,40.087943],[-88.329495,40.087942],[-88.329231,40.087942],[-88.328966,40.087941],[-88.328927,40.087941],[-88.328616,40.08794],[-88.32829,40.087939],[-88.32829,40.087951]]]},"id":27},{"type":"Feature","properties":{"name":"Carver Park","type":"NA"},"geometry":{"type":"Polygon","coordinates":[[[-88.226316,40.12778],[-88.226317,40.127917],[-88.226319,40.128089],[-88.22632,40.128206],[-88.22632,40.128237],[-88.226322,40.128386],[-88.226323,40.128534],[-88.226325,40.128655],[-88.226325,40.128683],[-88.226326,40.128832],[-88.226328,40.12898],[-88.226708,40.12898],[-88.226887,40.128978],[-88.227136,40.128978],[-88.227329,40.128978],[-88.227525,40.128978],[-88.227727,40.128979],[-88.227923,40.128979],[-88.227926,40.129138],[-88.227929,40.129296],[-88.228358,40.129295],[-88.228555,40.129293],[-88.229048,40.129294],[-88.229047,40.129206],[-88.229044,40.128978],[-88.229042,40.128826],[-88.229042,40.128822],[-88.22904,40.128665],[-88.229039,40.12859],[-88.229038,40.128509],[-88.229037,40.128426],[-88.229036,40.128353],[-88.229035,40.128262],[-88.229034,40.128197],[-88.229033,40.128096],[-88.229032,40.12804],[-88.229031,40.127932],[-88.22903,40.127884],[-88.229029,40.127768],[-88.229028,40.127728],[-88.229027,40.127604],[-88.229026,40.127571],[-88.229025,40.127415],[-88.22852,40.127418],[-88.228341,40.127419],[-88.227953,40.127422],[-88.227794,40.127423],[-88.227583,40.127425],[-88.227371,40.127426],[-88.227159,40.127427],[-88.226948,40.127429],[-88.226736,40.12743],[-88.226524,40.127432],[-88.226313,40.127433],[-88.226313,40.127475],[-88.226316,40.12778]]]},"id":28},{"type":"Feature","properties":{"name":"Holiday Park","type":"NA"},"geometry":{"type":"Polygon","coordinates":[[[-88.287809,40.109298],[-88.287898,40.109299],[-88.289226,40.109309],[-88.290973,40.109327],[-88.291264,40.109329],[-88.292524,40.109339],[-88.2932,40.109345],[-88.294242,40.109354],[-88.295416,40.109366],[-88.295381,40.108157],[-88.295376,40.107999],[-88.29535,40.106474],[-88.295347,40.106108],[-88.295345,40.106015],[-88.295339,40.105888],[-88.295332,40.105762],[-88.295318,40.1054],[-88.295311,40.105038],[-88.295291,40.103646],[-88.29529,40.103504],[-88.295269,40.102083],[-88.295269,40.102067],[-88.295241,40.099938],[-88.295239,40.099745],[-88.295249,40.099221],[-88.295263,40.098463],[-88.293352,40.098447],[-88.292435,40.09844],[-88.292207,40.098438],[-88.289944,40.098414],[-88.287961,40.098392],[-88.287758,40.09839],[-88.285789,40.098368],[-88.285802,40.099025],[-88.28581,40.099101],[-88.285822,40.099175],[-88.285841,40.099256],[-88.285865,40.099335],[-88.285882,40.099395],[-88.285895,40.099455],[-88.285903,40.099516],[-88.285908,40.099577],[-88.285926,40.101073],[-88.285942,40.102387],[-88.285971,40.104485],[-88.285982,40.10526],[-88.285985,40.105527],[-88.285995,40.106164],[-88.286013,40.107434],[-88.286022,40.108065],[-88.286026,40.108337],[-88.28604,40.109287],[-88.286103,40.109282],[-88.286167,40.109281],[-88.287809,40.109298]]]},"id":29},{"type":"Feature","properties":{"name":"Ridgewood South","type":"NA"},"geometry":{"type":"Polygon","coordinates":[[[-88.29752,40.1096],[-88.29783,40.109538],[-88.29782,40.109524],[-88.298225,40.109401],[-88.298337,40.109367],[-88.298419,40.109342],[-88.298651,40.109345],[-88.298884,40.109347],[-88.299102,40.10935],[-88.299342,40.109353],[-88.299349,40.109353],[-88.300994,40.109374],[-88.301208,40.109391],[-88.30192,40.1094],[-88.302134,40.109405],[-88.302141,40.109111],[-88.302498,40.109116],[-88.302492,40.109396],[-88.304422,40.109423],[-88.304482,40.106566],[-88.30449,40.106214],[-88.304497,40.105869],[-88.304461,40.105869],[-88.304461,40.105851],[-88.304361,40.10585],[-88.304281,40.105849],[-88.304281,40.105849],[-88.304261,40.105876],[-88.304129,40.106061],[-88.304112,40.106085],[-88.304111,40.106085],[-88.304106,40.106083],[-88.304106,40.106083],[-88.304102,40.106082],[-88.304102,40.106082],[-88.3041,40.106081],[-88.304094,40.106079],[-88.304093,40.106079],[-88.304092,40.106078],[-88.304087,40.106077],[-88.304084,40.106076],[-88.304081,40.106075],[-88.304081,40.106075],[-88.30408,40.106075],[-88.304075,40.106074],[-88.304074,40.106074],[-88.304071,40.106073],[-88.30407,40.106073],[-88.304069,40.106072],[-88.304065,40.106072],[-88.304062,40.106071],[-88.30406,40.106071],[-88.304059,40.106071],[-88.304056,40.10607],[-88.304055,40.10607],[-88.304049,40.106069],[-88.304047,40.106069],[-88.304045,40.106069],[-88.304044,40.106069],[-88.304037,40.106068],[-88.304035,40.106068],[-88.304033,40.106068],[-88.30403,40.106068],[-88.304025,40.106068],[-88.304023,40.106068],[-88.304022,40.106068],[-88.30402,40.106068],[-88.304016,40.106068],[-88.304015,40.106068],[-88.304012,40.106068],[-88.304011,40.106069],[-88.304009,40.106069],[-88.304005,40.106069],[-88.304002,40.106069],[-88.304001,40.106069],[-88.303995,40.10607],[-88.303995,40.10607],[-88.303992,40.10607],[-88.30399,40.106071],[-88.303988,40.106071],[-88.303985,40.106071],[-88.303981,40.106072],[-88.303979,40.106073],[-88.303976,40.106073],[-88.303974,40.106074],[-88.303969,40.106075],[-88.303967,40.106075],[-88.303966,40.106076],[-88.303961,40.106077],[-88.303959,40.106078],[-88.303957,40.106078],[-88.303954,40.106079],[-88.303949,40.106081],[-88.303948,40.106081],[-88.303941,40.106084],[-88.303939,40.106085],[-88.303939,40.106085],[-88.303935,40.106086],[-88.30393,40.106089],[-88.303929,40.106089],[-88.303929,40.106089],[-88.303923,40.106092],[-88.303922,40.106093],[-88.30392,40.106094],[-88.303917,40.106095],[-88.303914,40.106098],[-88.303912,40.106099],[-88.303907,40.106102],[-88.303906,40.106103],[-88.303905,40.106103],[-88.303903,40.106105],[-88.303899,40.106108],[-88.303898,40.106108],[-88.303894,40.106112],[-88.303892,40.106113],[-88.303892,40.106113],[-88.30389,40.106115],[-88.303886,40.106119],[-88.303885,40.106119],[-88.303885,40.106119],[-88.303884,40.106119],[-88.303877,40.106119],[-88.303838,40.106119],[-88.303839,40.106091],[-88.303849,40.10587],[-88.30385,40.105843],[-88.30358,40.105839],[-88.303311,40.105836],[-88.303042,40.105832],[-88.302772,40.105828],[-88.302503,40.105825],[-88.302232,40.105821],[-88.302216,40.105821],[-88.302001,40.105818],[-88.30172,40.105814],[-88.301438,40.10581],[-88.301164,40.105806],[-88.300889,40.105803],[-88.300622,40.105799],[-88.300355,40.105795],[-88.300088,40.105792],[-88.29982,40.105788],[-88.299557,40.105784],[-88.299289,40.105781],[-88.299022,40.105777],[-88.298741,40.105773],[-88.298526,40.10577],[-88.298259,40.105767],[-88.298013,40.105763],[-88.297774,40.10576],[-88.297536,40.105757],[-88.297335,40.105754],[-88.29704,40.10575],[-88.296746,40.105746],[-88.296524,40.105743],[-88.296292,40.10574],[-88.296054,40.105737],[-88.295815,40.105733],[-88.295494,40.105729],[-88.295476,40.105729],[-88.29545,40.105728],[-88.29533,40.105727],[-88.295332,40.105762],[-88.295339,40.105888],[-88.295345,40.106015],[-88.295347,40.106108],[-88.29535,40.106474],[-88.295376,40.107999],[-88.295381,40.108157],[-88.295413,40.109289],[-88.29562,40.109289],[-88.295627,40.109289],[-88.295634,40.10929],[-88.296773,40.109287],[-88.297122,40.109286],[-88.297142,40.109286],[-88.297162,40.109285],[-88.297181,40.109284],[-88.297201,40.109283],[-88.297221,40.109281],[-88.29724,40.109279],[-88.297259,40.109276],[-88.297279,40.109273],[-88.297298,40.109269],[-88.297317,40.109265],[-88.297336,40.109261],[-88.297355,40.109256],[-88.297373,40.109251],[-88.297518,40.1096],[-88.29752,40.1096]]]},"id":30},{"type":"Feature","properties":{"name":"Devonshire Meadows Condominium Association","type":"HOA"},"geometry":{"type":"Polygon","coordinates":[[[-88.262611,40.084876],[-88.263172,40.084879],[-88.263899,40.084882],[-88.263924,40.084882],[-88.263926,40.084745],[-88.263867,40.0846],[-88.263846,40.084605],[-88.263793,40.084474],[-88.263964,40.084433],[-88.26403,40.084378],[-88.264055,40.084356],[-88.264052,40.084351],[-88.264049,40.084346],[-88.264046,40.084341],[-88.264042,40.084336],[-88.264039,40.084331],[-88.264035,40.084326],[-88.264031,40.084321],[-88.264027,40.084316],[-88.264023,40.084312],[-88.264019,40.084307],[-88.264014,40.084302],[-88.26401,40.084298],[-88.264005,40.084293],[-88.264001,40.084289],[-88.263996,40.084284],[-88.263991,40.08428],[-88.263986,40.084276],[-88.263981,40.084272],[-88.263976,40.084268],[-88.26397,40.084264],[-88.263965,40.08426],[-88.26396,40.084256],[-88.263954,40.084252],[-88.263948,40.084249],[-88.263943,40.084245],[-88.263937,40.084242],[-88.263931,40.084238],[-88.263925,40.084235],[-88.263919,40.084232],[-88.263912,40.084229],[-88.263906,40.084226],[-88.2639,40.084223],[-88.263895,40.084211],[-88.26382,40.084025],[-88.263881,40.08401],[-88.263783,40.083767],[-88.263778,40.083753],[-88.262618,40.083747],[-88.262618,40.083853],[-88.262611,40.084876]]]},"id":31},{"type":"Feature","properties":{"name":"Park Place Condos","type":"HOA"},"geometry":{"type":"Polygon","coordinates":[[[-88.251006,40.116944],[-88.251182,40.116943],[-88.251181,40.116805],[-88.251181,40.116783],[-88.251181,40.11676],[-88.25118,40.116665],[-88.250944,40.116665],[-88.250711,40.116665],[-88.250233,40.116664],[-88.250181,40.116664],[-88.250189,40.117196],[-88.250192,40.117206],[-88.250196,40.117215],[-88.250202,40.117223],[-88.25021,40.117231],[-88.250218,40.117237],[-88.250227,40.117241],[-88.250237,40.117244],[-88.250247,40.117246],[-88.250257,40.117246],[-88.251004,40.11725],[-88.251004,40.117169],[-88.251006,40.116944]]]},"id":32},{"type":"Feature","properties":{"name":"Devonshire South II HOA","type":"HOA"},"geometry":{"type":"Polygon","coordinates":[[[-88.260664,40.079887],[-88.260669,40.078989],[-88.259898,40.078418],[-88.259957,40.078359],[-88.260131,40.078176],[-88.260147,40.078164],[-88.26035,40.077961],[-88.260564,40.077748],[-88.260753,40.077558],[-88.260758,40.077557],[-88.260995,40.077493],[-88.260784,40.077122],[-88.260755,40.07707],[-88.26067,40.076919],[-88.260642,40.076871],[-88.260355,40.076364],[-88.260283,40.076363],[-88.259919,40.076361],[-88.259893,40.076361],[-88.25968,40.07636],[-88.259562,40.07636],[-88.259165,40.076358],[-88.259138,40.076358],[-88.258774,40.076356],[-88.258639,40.076355],[-88.258383,40.076354],[-88.257795,40.076351],[-88.257565,40.07635],[-88.257577,40.076818],[-88.25758,40.077161],[-88.257583,40.077436],[-88.257586,40.07771],[-88.257589,40.078013],[-88.25759,40.078178],[-88.257593,40.078479],[-88.257596,40.078748],[-88.257599,40.079017],[-88.257602,40.079319],[-88.257603,40.079455],[-88.257607,40.079822],[-88.25759,40.079882],[-88.25803,40.079878],[-88.260664,40.079887]]]},"id":33},{"type":"Feature","properties":{"name":"Trails at Chestnut Grove","type":"HOA"},"geometry":{"type":"Polygon","coordinates":[[[-88.332942,40.098625],[-88.33291,40.095118],[-88.332905,40.095118],[-88.332816,40.095117],[-88.332341,40.095115],[-88.331715,40.095113],[-88.331267,40.095111],[-88.330854,40.09511],[-88.330478,40.095108],[-88.330168,40.095107],[-88.329738,40.095105],[-88.329523,40.095104],[-88.329092,40.095102],[-88.328761,40.095101],[-88.32843,40.0951],[-88.328372,40.0951],[-88.328098,40.095098],[-88.328011,40.095098],[-88.327767,40.095097],[-88.327536,40.095096],[-88.327436,40.095096],[-88.32724,40.095095],[-88.327104,40.095094],[-88.326955,40.095094],[-88.3268,40.095093],[-88.326659,40.095092],[-88.326495,40.095092],[-88.326359,40.095091],[-88.326164,40.09509],[-88.326077,40.09509],[-88.325833,40.095089],[-88.325779,40.095088],[-88.325495,40.095087],[-88.325448,40.095087],[-88.325209,40.095086],[-88.325117,40.095085],[-88.324912,40.095084],[-88.324786,40.095083],[-88.324625,40.095083],[-88.324454,40.095082],[-88.324328,40.095081],[-88.324042,40.095079],[-88.323677,40.095077],[-88.323683,40.095683],[-88.323686,40.095986],[-88.323689,40.096288],[-88.323692,40.096591],[-88.323692,40.096646],[-88.323695,40.096949],[-88.323699,40.097367],[-88.323703,40.097741],[-88.32403,40.097742],[-88.324637,40.097745],[-88.324642,40.098222],[-88.324645,40.098513],[-88.324646,40.098595],[-88.324648,40.098595],[-88.327756,40.09861],[-88.327971,40.098611],[-88.328364,40.098613],[-88.331633,40.098628],[-88.332766,40.098633],[-88.332942,40.098625]]]},"id":34},{"type":"Feature","properties":{"name":"Clark Park Friends","type":"NA"},"geometry":{"type":"Polygon","coordinates":[[[-88.261852,40.106427],[-88.257864,40.106391],[-88.257893,40.108945],[-88.257922,40.111609],[-88.257932,40.112426],[-88.257981,40.112529],[-88.258086,40.112563],[-88.258105,40.112567],[-88.258403,40.112566],[-88.260052,40.112583],[-88.262669,40.11261],[-88.267169,40.112642],[-88.267285,40.112642],[-88.267193,40.106473],[-88.267078,40.106474],[-88.261852,40.106427]]]},"id":35},{"type":"Feature","properties":{"name":"Garwood Neighborhood","type":"NA"},"geometry":{"type":"Polygon","coordinates":[[[-88.236422,40.127264],[-88.233462,40.134442],[-88.233276,40.134745],[-88.24365,40.134697],[-88.243631,40.130829],[-88.243623,40.129837],[-88.243622,40.129732],[-88.243622,40.129732],[-88.24362,40.129404],[-88.243618,40.129219],[-88.243612,40.128461],[-88.243605,40.128461],[-88.243605,40.128459],[-88.243593,40.127536],[-88.243586,40.127215],[-88.243552,40.127217],[-88.243506,40.127218],[-88.24346,40.12722],[-88.243414,40.127222],[-88.243368,40.127224],[-88.243322,40.127226],[-88.243276,40.127227],[-88.24323,40.127229],[-88.243141,40.12723],[-88.243051,40.12723],[-88.242961,40.127229],[-88.242871,40.127228],[-88.242763,40.127227],[-88.242656,40.127225],[-88.242548,40.127223],[-88.24244,40.12722],[-88.242426,40.127219],[-88.242413,40.127218],[-88.242399,40.127218],[-88.242386,40.127218],[-88.242372,40.127217],[-88.242359,40.127217],[-88.242346,40.127216],[-88.242342,40.127216],[-88.242332,40.127216],[-88.242221,40.127214],[-88.24211,40.127213],[-88.241999,40.127214],[-88.241889,40.127214],[-88.241833,40.127214],[-88.241778,40.127214],[-88.241723,40.127214],[-88.241668,40.127215],[-88.241612,40.127215],[-88.241557,40.127215],[-88.241502,40.127215],[-88.241447,40.127215],[-88.241386,40.127215],[-88.241106,40.127216],[-88.240976,40.127217],[-88.240956,40.127217],[-88.240908,40.127218],[-88.240825,40.127218],[-88.240742,40.127219],[-88.240659,40.127219],[-88.240576,40.127219],[-88.240499,40.12722],[-88.240421,40.12722],[-88.240344,40.12722],[-88.240267,40.127222],[-88.240229,40.127224],[-88.24019,40.127225],[-88.240151,40.127228],[-88.240112,40.12723],[-88.240074,40.127232],[-88.240035,40.127234],[-88.239996,40.127236],[-88.239957,40.127237],[-88.239922,40.127237],[-88.239887,40.127237],[-88.239852,40.127236],[-88.239818,40.127236],[-88.239783,40.127235],[-88.239748,40.127235],[-88.239713,40.127234],[-88.239677,40.127234],[-88.239638,40.127235],[-88.239599,40.127236],[-88.239559,40.127237],[-88.23952,40.127239],[-88.239481,40.12724],[-88.239441,40.127241],[-88.239402,40.127242],[-88.239362,40.127243],[-88.239289,40.127245],[-88.239215,40.127246],[-88.23882,40.127226],[-88.236422,40.127264]]]},"id":36},{"type":"Feature","properties":{"name":"Liberty on the Lake","type":"HOA"},"geometry":{"type":"Polygon","coordinates":[[[-88.272365,40.069024],[-88.272407,40.069026],[-88.272838,40.069047],[-88.275824,40.069064],[-88.275822,40.068744],[-88.275893,40.068058],[-88.275886,40.06696],[-88.275849,40.066685],[-88.275848,40.066583],[-88.275889,40.066391],[-88.275889,40.066386],[-88.275889,40.066369],[-88.275887,40.066051],[-88.275884,40.06517],[-88.275925,40.064389],[-88.275934,40.06421],[-88.275925,40.063266],[-88.27592,40.06275],[-88.275918,40.062338],[-88.275916,40.061915],[-88.275878,40.061915],[-88.275818,40.061915],[-88.275746,40.061915],[-88.275488,40.061913],[-88.275226,40.061912],[-88.274939,40.061911],[-88.274661,40.061909],[-88.274382,40.061908],[-88.274104,40.061907],[-88.27389,40.061906],[-88.273567,40.061904],[-88.273309,40.061903],[-88.273183,40.061903],[-88.27304,40.061902],[-88.273032,40.061902],[-88.272335,40.061899],[-88.272335,40.061899],[-88.27165,40.061895],[-88.271502,40.061895],[-88.271363,40.061894],[-88.271392,40.065605],[-88.271396,40.066054],[-88.271396,40.066218],[-88.271397,40.066301],[-88.271399,40.066582],[-88.271401,40.066815],[-88.271403,40.067048],[-88.271404,40.067281],[-88.271406,40.067514],[-88.271408,40.067748],[-88.27141,40.067981],[-88.271412,40.068214],[-88.271414,40.068447],[-88.271416,40.06868],[-88.271418,40.068913],[-88.271419,40.069037],[-88.271464,40.069037],[-88.271464,40.069037],[-88.271465,40.069037],[-88.272042,40.06904],[-88.272364,40.069024],[-88.272365,40.069024]]]},"id":37},{"type":"Feature","properties":{"name":"Devonshire South I HOA","type":"HOA"},"geometry":{"type":"Polygon","coordinates":[[[-88.25759,40.079882],[-88.257597,40.080622],[-88.257599,40.080787],[-88.257617,40.082197],[-88.257626,40.082362],[-88.257664,40.082731],[-88.25767,40.083354],[-88.257851,40.083493],[-88.258654,40.083496],[-88.259031,40.083508],[-88.259274,40.083514],[-88.260686,40.083515],[-88.261336,40.083503],[-88.261341,40.082918],[-88.261348,40.082221],[-88.261356,40.081313],[-88.261357,40.0811],[-88.260674,40.081095],[-88.260664,40.079887],[-88.25803,40.079878],[-88.25759,40.079882]]]},"id":38},{"type":"Feature","properties":{"name":"Cobblefield Point HOA","type":"HOA"},"geometry":{"type":"Polygon","coordinates":[[[-88.311607,40.108639],[-88.311617,40.108639],[-88.311641,40.108641],[-88.311666,40.108647],[-88.311689,40.108654],[-88.31171,40.108664],[-88.311729,40.108677],[-88.311778,40.108677],[-88.311783,40.108678],[-88.311782,40.108576],[-88.311776,40.108126],[-88.311965,40.108128],[-88.311968,40.107265],[-88.311885,40.107264],[-88.311749,40.107263],[-88.311613,40.107262],[-88.311477,40.10726],[-88.311342,40.107259],[-88.311206,40.107258],[-88.311144,40.107257],[-88.31107,40.107256],[-88.311011,40.107256],[-88.310934,40.107255],[-88.310798,40.107254],[-88.310662,40.107252],[-88.310526,40.107251],[-88.310391,40.10725],[-88.310255,40.107248],[-88.310119,40.107247],[-88.309983,40.107246],[-88.309811,40.107244],[-88.309756,40.107244],[-88.309643,40.107243],[-88.309542,40.107242],[-88.309542,40.107205],[-88.309544,40.107147],[-88.309544,40.107085],[-88.309539,40.107023],[-88.309528,40.106962],[-88.309507,40.106965],[-88.309503,40.10695],[-88.309459,40.10678],[-88.309106,40.10683],[-88.309096,40.106831],[-88.308994,40.106846],[-88.30898,40.106848],[-88.308977,40.106848],[-88.308917,40.106848],[-88.3089,40.106849],[-88.308841,40.106849],[-88.308824,40.106849],[-88.308765,40.10685],[-88.308751,40.10685],[-88.308689,40.106851],[-88.30868,40.106851],[-88.30851,40.106853],[-88.307963,40.106858],[-88.307416,40.106864],[-88.307293,40.106865],[-88.307218,40.106866],[-88.307143,40.106867],[-88.307067,40.106868],[-88.306992,40.106868],[-88.30687,40.10687],[-88.306769,40.106871],[-88.306694,40.106871],[-88.306619,40.106872],[-88.306544,40.106873],[-88.306469,40.106874],[-88.306393,40.106875],[-88.306294,40.106876],[-88.306258,40.106876],[-88.306253,40.106574],[-88.306144,40.106575],[-88.306037,40.106575],[-88.305983,40.106576],[-88.305631,40.106579],[-88.305577,40.10658],[-88.305572,40.10658],[-88.305327,40.106583],[-88.305336,40.107354],[-88.30534,40.107744],[-88.305343,40.108037],[-88.305378,40.108037],[-88.307348,40.108068],[-88.308089,40.10808],[-88.309735,40.108106],[-88.309735,40.108121],[-88.309712,40.108137],[-88.309692,40.108155],[-88.309677,40.108176],[-88.309667,40.108198],[-88.309663,40.108222],[-88.309663,40.108246],[-88.309669,40.108269],[-88.30968,40.108291],[-88.309696,40.108312],[-88.309716,40.10833],[-88.30974,40.108345],[-88.309767,40.108356],[-88.309796,40.108364],[-88.309827,40.108368],[-88.309858,40.108368],[-88.309888,40.108364],[-88.3099,40.108404],[-88.309904,40.108417],[-88.309943,40.108546],[-88.309963,40.108612],[-88.310967,40.108622],[-88.311002,40.108622],[-88.311038,40.108622],[-88.311144,40.108623],[-88.311179,40.108624],[-88.311424,40.108626],[-88.311435,40.108635],[-88.311484,40.108675],[-88.311505,40.108662],[-88.311528,40.108652],[-88.311554,40.108645],[-88.31158,40.10864],[-88.311607,40.108639]]]},"id":39}]}