{"type":"FeatureCollection","features":[{"type":"Feature","properties":{"name":"Planning Area 1"},"geometry":{"type":"Polygon","coordinates":[[[-88.238037,40.121595],[-88.237989,40.12171],[-88.235723,40.127176],[-88.23437,40.130425],[-88.233356,40.131648],[-88.231559,40.134462],[-88.231394,40.134573],[-88.233357,40.13455],[-88.233462,40.134442],[-88.238558,40.134389],[-88.239028,40.134384],[-88.239461,40.134378],[-88.23972,40.134375],[-88.23998,40.134372],[-88.240634,40.134365],[-88.240783,40.134363],[-88.241073,40.13436],[-88.241297,40.134317],[-88.241548,40.134223],[-88.241773,40.13409],[-88.242427,40.133338],[-88.243007,40.132665],[-88.243463,40.132135],[-88.243506,40.131342],[-88.243839,40.131354],[-88.244528,40.131447],[-88.244488,40.131646],[-88.244892,40.131838],[-88.24502,40.131899],[-88.245171,40.132038],[-88.245292,40.132169],[-88.245441,40.132331],[-88.245633,40.13247],[-88.245836,40.132597],[-88.246021,40.132688],[-88.24612,40.13273],[-88.246365,40.132814],[-88.24665,40.13288],[-88.246928,40.132917],[-88.247212,40.132932],[-88.247213,40.132862],[-88.247453,40.132881],[-88.24769,40.132897],[-88.24769,40.132916],[-88.247923,40.132932],[-88.248193,40.132932],[-88.248192,40.132978],[-88.248425,40.132978],[-88.248964,40.132985],[-88.248961,40.132666],[-88.249104,40.132666],[-88.249157,40.132664],[-88.249188,40.132658],[-88.249217,40.132651],[-88.24924,40.132642],[-88.249265,40.13263],[-88.249283,40.13262],[-88.249292,40.132614],[-88.249302,40.132606],[-88.24931,40.1326],[-88.249317,40.132594],[-88.249334,40.132576],[-88.249344,40.132565],[-88.249352,40.132553],[-88.249358,40.132543],[-88.249362,40.132534],[-88.249366,40.132527],[-88.24937,40.132516],[-88.249374,40.132505],[-88.249376,40.132496],[-88.249378,40.132488],[-88.249379,40.132476],[-88.24938,40.13246],[-88.249379,40.132343],[-88.249942,40.132342],[-88.249942,40.132123],[-88.249942,40.131903],[-88.249942,40.131492],[-88.250344,40.131066],[-88.250348,40.131065],[-88.250364,40.131057],[-88.250381,40.131046],[-88.250393,40.131035],[-88.250401,40.131028],[-88.25041,40.131018],[-88.25042,40.131002],[-88.250428,40.130986],[-88.250433,40.130969],[-88.250435,40.130946],[-88.250434,40.13081],[-88.25087,40.130804],[-88.251104,40.130804],[-88.251317,40.130805],[-88.251531,40.130806],[-88.251745,40.130806],[-88.251959,40.130807],[-88.252173,40.130808],[-88.252705,40.130809],[-88.252707,40.129886],[-88.253202,40.130085],[-88.253177,40.127188],[-88.255823,40.127182],[-88.253174,40.126214],[-88.253173,40.126168],[-88.250419,40.12518],[-88.250442,40.125143],[-88.249083,40.124651],[-88.249063,40.124689],[-88.24839,40.124444],[-88.24783,40.124273],[-88.247712,40.124236],[-88.247471,40.124168],[-88.247229,40.124101],[-88.246984,40.124033],[-88.243553,40.123119],[-88.243553,40.123075],[-88.243434,40.123044],[-88.242691,40.122852],[-88.242625,40.122854],[-88.242625,40.122838],[-88.242388,40.122807],[-88.241908,40.122673],[-88.241835,40.122653],[-88.241455,40.122547],[-88.241357,40.122546],[-88.241357,40.122519],[-88.240873,40.122385],[-88.238037,40.121595]]]},"id":0},{"type":"Feature","properties":{"name":"Planning Area 2"},"geometry":{"type":"Polygon","coordinates":[[[-88.228772,40.116338],[-88.228787,40.117374],[-88.228801,40.118366],[-88.228827,40.120232],[-88.228944,40.120231],[-88.229006,40.124607],[-88.227981,40.124609],[-88.227986,40.125868],[-88.229064,40.125868],[-88.229083,40.127332],[-88.225504,40.127356],[-88.225503,40.127557],[-88.225324,40.127559],[-88.22532,40.128654],[-88.226325,40.128655],[-88.226328,40.12898],[-88.227923,40.128979],[-88.227929,40.129296],[-88.229048,40.129294],[-88.229059,40.130173],[-88.229069,40.130982],[-88.229072,40.131288],[-88.229079,40.131854],[-88.22908,40.131932],[-88.232013,40.131942],[-88.232011,40.131641],[-88.233356,40.131648],[-88.23437,40.130425],[-88.235723,40.127176],[-88.237989,40.12171],[-88.238037,40.121595],[-88.2404,40.11636],[-88.228886,40.116337],[-88.228772,40.116338]]]},"id":1},{"type":"Feature","properties":{"name":"Planning Area 3"},"geometry":{"type":"Polygon","coordinates":[[[-88.240951,40.115027],[-88.241289,40.114078],[-88.24157,40.11318],[-88.241738,40.112619],[-88.244126,40.098078],[-88.244649,40.094481],[-88.232676,40.094516],[-88.232198,40.094567],[-88.231876,40.094585],[-88.23167,40.094581],[-88.231481,40.094558],[-88.230985,40.094491],[-88.228616,40.094486],[-88.228578,40.098239],[-88.2332,40.09822],[-88.233235,40.100435],[-88.228625,40.100474],[-88.228729,40.105413],[-88.228883,40.112703],[-88.228838,40.112703],[-88.228886,40.116337],[-88.2404,40.11636],[-88.240951,40.115027]]]},"id":2},{"type":"Feature","properties":{"name":"Planning Area 4"},"geometry":{"type":"Polygon","coordinates":[[[-88.243537,40.121197],[-88.243553,40.123075],[-88.243553,40.123119],[-88.246984,40.124033],[-88.247229,40.124101],[-88.247471,40.124168],[-88.247712,40.124236],[-88.24783,40.124273],[-88.24839,40.124444],[-88.249063,40.124689],[-88.249083,40.124651],[-88.250442,40.125143],[-88.250419,40.12518],[-88.253173,40.126168],[-88.253174,40.126214],[-88.255823,40.127182],[-88.257975,40.127179],[-88.257812,40.112649],[-88.2468,40.112616],[-88.246849,40.121184],[-88.243537,40.121197]]]},"id":3},{"type":"Feature","properties":{"name":"Planning Area 5"},"geometry":{"type":"Polygon","coordinates":[[[-88.257645,40.098159],[-88.244126,40.098078],[-88.241738,40.112619],[-88.2468,40.112616],[-88.257812,40.112649],[-88.257645,40.098159]]]},"id":4},{"type":"Feature","properties":{"name":"Planning Area 6"},"geometry":{"type":"Polygon","coordinates":[[[-88.257494,40.083614],[-88.246236,40.083561],[-88.24573,40.087462],[-88.245564,40.088838],[-88.244649,40.094481],[-88.244126,40.098078],[-88.257645,40.098159],[-88.257494,40.083614]]]},"id":5},{"type":"Feature","properties":{"name":"Planning Area 100"},"geometry":{"type":"Polygon","coordinates":[[[-88.243553,40.123075],[-88.243537,40.121197],[-88.246849,40.121184],[-88.2468,40.112616],[-88.241738,40.112619],[-88.24157,40.11318],[-88.241289,40.114078],[-88.240951,40.115027],[-88.2404,40.11636],[-88.238037,40.121595],[-88.240873,40.122385],[-88.241357,40.122519],[-88.241357,40.122546],[-88.241455,40.122547],[-88.241835,40.122653],[-88.241908,40.122673],[-88.242388,40.122807],[-88.242625,40.122838],[-88.242625,40.122854],[-88.242691,40.122852],[-88.243434,40.123044],[-88.243553,40.123075]]]},"id":6},{"type":"Feature","properties":{"name":"Planning Area 10"},"geometry":{"type":"Polygon","coordinates":[[[-88.257812,40.112649],[-88.276779,40.112857],[-88.276739,40.111032],[-88.276501,40.098257],[-88.257645,40.098159],[-88.257812,40.112649]]]},"id":7},{"type":"Feature","properties":{"name":"Planning Area 7"},"geometry":{"type":"Polygon","coordinates":[[[-88.260247,40.136062],[-88.260032,40.135984],[-88.258361,40.136222],[-88.257991,40.136275],[-88.257902,40.140762],[-88.257965,40.145607],[-88.257999,40.14653],[-88.261991,40.146499],[-88.262069,40.149045],[-88.263521,40.149055],[-88.264747,40.148994],[-88.26562,40.1489],[-88.266739,40.148826],[-88.267487,40.148788],[-88.276973,40.1487],[-88.276996,40.146132],[-88.277071,40.145553],[-88.277198,40.144848],[-88.277316,40.143985],[-88.277371,40.143299],[-88.277279,40.140916],[-88.276182,40.140269],[-88.2735,40.138959],[-88.2715,40.138144],[-88.268578,40.137137],[-88.264814,40.136183],[-88.263275,40.135832],[-88.261254,40.136002],[-88.260247,40.136062]]]},"id":8},{"type":"Feature","properties":{"name":"Planning Area 8"},"geometry":{"type":"Polygon","coordinates":[[[-88.264814,40.136183],[-88.268578,40.137137],[-88.2715,40.138144],[-88.2735,40.138959],[-88.276182,40.140269],[-88.277279,40.140916],[-88.277215,40.139256],[-88.277209,40.138233],[-88.277138,40.13452],[-88.277061,40.131739],[-88.27697,40.127438],[-88.272812,40.127382],[-88.266993,40.127304],[-88.260345,40.127211],[-88.257975,40.127179],[-88.257987,40.130944],[-88.257985,40.134174],[-88.257991,40.136275],[-88.258361,40.136222],[-88.260032,40.135984],[-88.260247,40.136062],[-88.261254,40.136002],[-88.263275,40.135832],[-88.264814,40.136183]]]},"id":9},{"type":"Feature","properties":{"name":"Planning Area 9"},"geometry":{"type":"Polygon","coordinates":[[[-88.27697,40.127438],[-88.276887,40.118434],[-88.276779,40.112857],[-88.257812,40.112649],[-88.257975,40.127179],[-88.260345,40.127211],[-88.266993,40.127304],[-88.272812,40.127382],[-88.27697,40.127438]]]},"id":10},{"type":"Feature","properties":{"name":"Planning Area 11"},"geometry":{"type":"Polygon","coordinates":[[[-88.276501,40.098257],[-88.276333,40.083715],[-88.257494,40.083614],[-88.257645,40.098159],[-88.276501,40.098257]]]},"id":11},{"type":"Feature","properties":{"name":"Planning Area 15"},"geometry":{"type":"Polygon","coordinates":[[[-88.276501,40.098257],[-88.295277,40.098459],[-88.295181,40.083948],[-88.276333,40.083715],[-88.276501,40.098257]]]},"id":12},{"type":"Feature","properties":{"name":"Planning Area 16"},"geometry":{"type":"Polygon","coordinates":[[[-88.304522,40.084043],[-88.304028,40.0789],[-88.303966,40.076713],[-88.295132,40.076676],[-88.286936,40.076576],[-88.280969,40.076491],[-88.276246,40.076452],[-88.276333,40.083715],[-88.295181,40.083948],[-88.304522,40.084043]]]},"id":13},{"type":"Feature","properties":{"name":"Planning Area 12"},"geometry":{"type":"Polygon","coordinates":[[[-88.276333,40.083715],[-88.276246,40.076452],[-88.276095,40.065783],[-88.2761,40.065556],[-88.27606,40.061916],[-88.27136,40.061894],[-88.271513,40.076406],[-88.266811,40.07639],[-88.262108,40.076372],[-88.261402,40.076369],[-88.258639,40.076355],[-88.257554,40.07635],[-88.257423,40.07635],[-88.257494,40.083614],[-88.276333,40.083715]]]},"id":14},{"type":"Feature","properties":{"name":"Planning Area 18"},"geometry":{"type":"Polygon","coordinates":[[[-88.244649,40.094481],[-88.245564,40.088838],[-88.24573,40.087462],[-88.246236,40.083561],[-88.242424,40.083472],[-88.238378,40.083353],[-88.228087,40.083533],[-88.228106,40.090895],[-88.228602,40.090903],[-88.228616,40.094486],[-88.230985,40.094491],[-88.231481,40.094558],[-88.23167,40.094581],[-88.231876,40.094585],[-88.232198,40.094567],[-88.232676,40.094516],[-88.244649,40.094481]]]},"id":15},{"type":"Feature","properties":{"name":"Planning Area 14"},"geometry":{"type":"Polygon","coordinates":[[[-88.276739,40.111032],[-88.281373,40.11107],[-88.281351,40.109243],[-88.282812,40.109253],[-88.282893,40.112914],[-88.295465,40.113009],[-88.295461,40.11273],[-88.295595,40.112733],[-88.304445,40.112849],[-88.304821,40.112856],[-88.30492,40.108039],[-88.304907,40.105746],[-88.29545,40.105728],[-88.295323,40.105731],[-88.295277,40.098459],[-88.276501,40.098257],[-88.276739,40.111032]]]},"id":16},{"type":"Feature","properties":{"name":"Planning Area 17"},"geometry":{"type":"Polygon","coordinates":[[[-88.295277,40.098459],[-88.295323,40.105731],[-88.29545,40.105728],[-88.304907,40.105746],[-88.30492,40.108039],[-88.314429,40.108152],[-88.314301,40.098697],[-88.295277,40.098459]]]},"id":17},{"type":"Feature","properties":{"name":"Planning Area 107"},"geometry":{"type":"Polygon","coordinates":[[[-88.276887,40.118434],[-88.281751,40.118482],[-88.283201,40.118491],[-88.283531,40.118507],[-88.284098,40.11854],[-88.284593,40.118581],[-88.285804,40.118738],[-88.28614,40.118799],[-88.290873,40.11969],[-88.292002,40.119796],[-88.292894,40.11988],[-88.295547,40.119881],[-88.295465,40.113009],[-88.282899,40.112914],[-88.282812,40.109253],[-88.281351,40.109243],[-88.281373,40.11107],[-88.276739,40.111032],[-88.276779,40.112857],[-88.276887,40.118434]]]},"id":18},{"type":"Feature","properties":{"name":"Planning Area 106"},"geometry":{"type":"Polygon","coordinates":[[[-88.286134,40.118882],[-88.28614,40.118799],[-88.285804,40.118738],[-88.284593,40.118581],[-88.284098,40.11854],[-88.283531,40.118507],[-88.283201,40.118491],[-88.281751,40.118482],[-88.276887,40.118434],[-88.27697,40.127438],[-88.277061,40.131739],[-88.280043,40.131702],[-88.280735,40.130635],[-88.280662,40.127473],[-88.281659,40.127487],[-88.281669,40.127332],[-88.285191,40.122751],[-88.285546,40.121],[-88.286134,40.118882]]]},"id":19},{"type":"Feature","properties":{"name":"Planning Area 105"},"geometry":{"type":"Polygon","coordinates":[[[-88.281659,40.127487],[-88.280662,40.127473],[-88.280735,40.130635],[-88.280043,40.131702],[-88.277061,40.131739],[-88.277138,40.13452],[-88.277747,40.13474],[-88.285304,40.137458],[-88.286411,40.137853],[-88.290744,40.139408],[-88.291317,40.139614],[-88.295805,40.135693],[-88.295653,40.127606],[-88.281659,40.127487]]]},"id":20},{"type":"Feature","properties":{"name":"Planning Area 13"},"geometry":{"type":"Polygon","coordinates":[[[-88.286134,40.118882],[-88.285546,40.121],[-88.285191,40.122751],[-88.281669,40.127332],[-88.281659,40.127487],[-88.295653,40.127606],[-88.295805,40.135693],[-88.302095,40.130197],[-88.302829,40.129421],[-88.303341,40.128804],[-88.30379,40.128121],[-88.304374,40.127018],[-88.304994,40.125029],[-88.305108,40.124041],[-88.305095,40.123139],[-88.30506,40.120134],[-88.295547,40.119881],[-88.292894,40.11988],[-88.292002,40.119796],[-88.290873,40.11969],[-88.28614,40.118799],[-88.286134,40.118882]]]},"id":21},{"type":"Feature","properties":{"name":"Planning Area 108"},"geometry":{"type":"Polygon","coordinates":[[[-88.295547,40.119881],[-88.30506,40.120134],[-88.314612,40.120143],[-88.323969,40.120572],[-88.323979,40.120293],[-88.323901,40.112798],[-88.32381,40.106015],[-88.319103,40.106],[-88.319152,40.10964],[-88.314452,40.109625],[-88.314429,40.108152],[-88.30492,40.108039],[-88.304821,40.112856],[-88.304445,40.112849],[-88.295595,40.112733],[-88.295461,40.11273],[-88.295465,40.113009],[-88.295547,40.119881]]]},"id":22},{"type":"Feature","properties":{"name":"Planning Area 101"},"geometry":{"type":"Polygon","coordinates":[[[-88.257975,40.127179],[-88.255823,40.127182],[-88.253177,40.127188],[-88.253202,40.130085],[-88.252707,40.129886],[-88.252705,40.130809],[-88.252173,40.130808],[-88.251959,40.130807],[-88.251745,40.130806],[-88.251531,40.130806],[-88.251317,40.130805],[-88.251104,40.130804],[-88.25087,40.130804],[-88.250434,40.13081],[-88.250435,40.130946],[-88.250433,40.130969],[-88.250428,40.130986],[-88.25042,40.131002],[-88.25041,40.131018],[-88.250401,40.131028],[-88.250393,40.131035],[-88.250381,40.131046],[-88.250364,40.131057],[-88.250348,40.131065],[-88.250344,40.131066],[-88.249942,40.131492],[-88.249942,40.131903],[-88.249942,40.132123],[-88.249942,40.132342],[-88.249379,40.132343],[-88.24938,40.13246],[-88.249379,40.132476],[-88.249378,40.132488],[-88.249376,40.132496],[-88.249374,40.132505],[-88.24937,40.132516],[-88.249366,40.132527],[-88.249362,40.132534],[-88.249358,40.132543],[-88.249352,40.132553],[-88.249344,40.132565],[-88.249334,40.132576],[-88.249317,40.132594],[-88.24931,40.1326],[-88.249302,40.132606],[-88.249292,40.132614],[-88.249283,40.13262],[-88.249265,40.13263],[-88.24924,40.132642],[-88.249217,40.132651],[-88.249188,40.132658],[-88.249157,40.132664],[-88.249104,40.132666],[-88.248961,40.132666],[-88.248964,40.132985],[-88.248425,40.132978],[-88.248192,40.132978],[-88.248193,40.132932],[-88.247923,40.132932],[-88.24769,40.132916],[-88.24769,40.132897],[-88.247453,40.132881],[-88.247213,40.132862],[-88.247212,40.132932],[-88.246928,40.132917],[-88.24665,40.13288],[-88.246365,40.132814],[-88.24612,40.13273],[-88.246021,40.132688],[-88.245836,40.132597],[-88.245633,40.13247],[-88.245441,40.132331],[-88.245292,40.132169],[-88.245171,40.132038],[-88.24502,40.131899],[-88.244892,40.131838],[-88.244488,40.131646],[-88.244528,40.131447],[-88.243839,40.131354],[-88.243506,40.131342],[-88.243463,40.132135],[-88.243007,40.132665],[-88.242427,40.133338],[-88.241773,40.13409],[-88.241548,40.134223],[-88.241297,40.134317],[-88.241073,40.13436],[-88.240783,40.134363],[-88.240634,40.134365],[-88.23998,40.134372],[-88.23972,40.134375],[-88.239461,40.134378],[-88.239028,40.134384],[-88.238558,40.134389],[-88.236163,40.134406],[-88.233462,40.134442],[-88.233357,40.13455],[-88.233013,40.13538],[-88.236341,40.135346],[-88.236361,40.137423],[-88.236365,40.13783],[-88.236382,40.139629],[-88.236507,40.139628],[-88.236511,40.139793],[-88.236528,40.14106],[-88.236529,40.141174],[-88.236404,40.141173],[-88.236407,40.141639],[-88.236407,40.141661],[-88.236407,40.141772],[-88.239002,40.141779],[-88.239031,40.143604],[-88.239032,40.143699],[-88.239043,40.14428],[-88.239046,40.144484],[-88.243591,40.144513],[-88.244136,40.144516],[-88.244532,40.144522],[-88.245382,40.144535],[-88.246166,40.144547],[-88.246556,40.144553],[-88.247336,40.144566],[-88.248288,40.144582],[-88.248341,40.144583],[-88.248463,40.144584],[-88.248474,40.143613],[-88.248663,40.14361],[-88.249239,40.14362],[-88.251426,40.143654],[-88.251434,40.145526],[-88.251437,40.146008],[-88.251728,40.146008],[-88.253672,40.146011],[-88.253672,40.145551],[-88.256412,40.145579],[-88.257786,40.145603],[-88.257965,40.145607],[-88.257902,40.140762],[-88.257991,40.136275],[-88.257985,40.134174],[-88.257987,40.130944],[-88.257975,40.127179]]]},"id":23},{"type":"Feature","properties":{"name":"Planning Area 102"},"geometry":{"type":"Polygon","coordinates":[[[-88.267487,40.148788],[-88.267489,40.148875],[-88.267498,40.149297],[-88.267501,40.150074],[-88.267503,40.150802],[-88.267505,40.151468],[-88.267507,40.152154],[-88.26751,40.153449],[-88.266527,40.153442],[-88.26653,40.155561],[-88.267516,40.155562],[-88.267519,40.156615],[-88.267499,40.159986],[-88.267505,40.160272],[-88.27224,40.160292],[-88.272248,40.159635],[-88.272262,40.159522],[-88.272517,40.159596],[-88.272849,40.159632],[-88.275416,40.159653],[-88.275728,40.1596],[-88.275938,40.159505],[-88.276496,40.159061],[-88.276811,40.158948],[-88.277116,40.158938],[-88.277106,40.15772],[-88.275766,40.157715],[-88.275177,40.157709],[-88.272753,40.157298],[-88.272838,40.156974],[-88.273114,40.156091],[-88.27329,40.155764],[-88.27352,40.155519],[-88.274657,40.154229],[-88.277035,40.152162],[-88.276973,40.1487],[-88.267487,40.148788]]]},"id":24},{"type":"Feature","properties":{"name":"Planning Area 20"},"geometry":{"type":"Polygon","coordinates":[[[-88.277106,40.15772],[-88.277116,40.158938],[-88.277142,40.161176],[-88.27718,40.171189],[-88.296128,40.171307],[-88.296062,40.16479],[-88.296011,40.158608],[-88.295988,40.15651],[-88.287633,40.149389],[-88.287124,40.149133],[-88.286665,40.148803],[-88.28626,40.148479],[-88.285829,40.148282],[-88.285573,40.148217],[-88.285107,40.148205],[-88.284375,40.148296],[-88.283999,40.148341],[-88.283801,40.148341],[-88.283338,40.148276],[-88.282849,40.148209],[-88.282473,40.148214],[-88.28224,40.148251],[-88.281936,40.14835],[-88.281573,40.148562],[-88.280193,40.149367],[-88.277035,40.152162],[-88.274657,40.154229],[-88.27352,40.155519],[-88.27329,40.155764],[-88.273114,40.156091],[-88.2729,40.15675],[-88.272838,40.156974],[-88.272753,40.157298],[-88.273416,40.157429],[-88.275177,40.157709],[-88.275766,40.157715],[-88.277106,40.15772]]]},"id":25},{"type":"Feature","properties":{"name":"Planning Area 103"},"geometry":{"type":"Polygon","coordinates":[[[-88.296041,40.156551],[-88.298054,40.158258],[-88.298437,40.157809],[-88.298638,40.157551],[-88.298813,40.157278],[-88.29896,40.156862],[-88.298994,40.156656],[-88.298989,40.156402],[-88.298966,40.15621],[-88.298876,40.155917],[-88.298769,40.155694],[-88.298656,40.15552],[-88.298512,40.155353],[-88.298664,40.155247],[-88.300898,40.153734],[-88.301064,40.153607],[-88.295907,40.151197],[-88.292476,40.149412],[-88.29206,40.149123],[-88.291622,40.14876],[-88.290628,40.14751],[-88.289854,40.146613],[-88.289837,40.148052],[-88.287879,40.147029],[-88.286695,40.14641],[-88.286735,40.14604],[-88.286436,40.145219],[-88.286572,40.144434],[-88.287543,40.143481],[-88.287605,40.143116],[-88.287308,40.142917],[-88.286863,40.142951],[-88.285789,40.143725],[-88.284813,40.143871],[-88.283709,40.143713],[-88.283336,40.143726],[-88.282441,40.143759],[-88.282452,40.142155],[-88.279082,40.142146],[-88.281039,40.1441],[-88.281238,40.14441],[-88.281376,40.144734],[-88.281419,40.145069],[-88.281399,40.145354],[-88.281361,40.145559],[-88.2813,40.145802],[-88.28124,40.146101],[-88.281227,40.146292],[-88.281244,40.146428],[-88.281338,40.14663],[-88.281528,40.147191],[-88.281552,40.14742],[-88.281513,40.147687],[-88.281373,40.14796],[-88.281207,40.14821],[-88.280193,40.149367],[-88.281573,40.148562],[-88.281936,40.14835],[-88.28224,40.148251],[-88.282473,40.148214],[-88.282849,40.148209],[-88.283338,40.148276],[-88.283801,40.148341],[-88.283999,40.148341],[-88.284375,40.148296],[-88.285107,40.148205],[-88.285573,40.148217],[-88.285829,40.148282],[-88.28626,40.148479],[-88.286665,40.148803],[-88.287124,40.149133],[-88.287633,40.149389],[-88.295988,40.15651],[-88.296041,40.156551]]]},"id":26},{"type":"Feature","properties":{"name":"Planning Area 23"},"geometry":{"type":"Polygon","coordinates":[[[-88.323901,40.112798],[-88.330844,40.11282],[-88.330844,40.11286],[-88.333222,40.112867],[-88.333125,40.098759],[-88.314301,40.098697],[-88.314429,40.108152],[-88.314452,40.109625],[-88.319152,40.10964],[-88.319103,40.106],[-88.32381,40.106015],[-88.323901,40.112798]]]},"id":27},{"type":"Feature","properties":{"name":"Planning Area 24"},"geometry":{"type":"Polygon","coordinates":[[[-88.333125,40.098759],[-88.332963,40.084199],[-88.314128,40.084133],[-88.314301,40.098697],[-88.333125,40.098759]]]},"id":28},{"type":"Feature","properties":{"name":"Planning Area 0"},"geometry":{"type":"Polygon","coordinates":[[[-88.314301,40.098697],[-88.314128,40.084133],[-88.304522,40.084043],[-88.295181,40.083948],[-88.295277,40.098459],[-88.314301,40.098697]]]},"id":29},{"type":"Feature","properties":{"name":"Planning Area 25"},"geometry":{"type":"Polygon","coordinates":[[[-88.304522,40.084043],[-88.314128,40.084133],[-88.332963,40.084199],[-88.33284,40.069683],[-88.303866,40.069536],[-88.303966,40.076713],[-88.304028,40.0789],[-88.304522,40.084043]]]},"id":30},{"type":"Feature","properties":{"name":"Planning Area 21"},"geometry":{"type":"Polygon","coordinates":[[[-88.303966,40.076713],[-88.303866,40.069536],[-88.303834,40.065808],[-88.303796,40.062187],[-88.29499,40.062118],[-88.285534,40.062026],[-88.283172,40.061998],[-88.27606,40.061916],[-88.2761,40.065556],[-88.276095,40.065783],[-88.276246,40.076452],[-88.280969,40.076491],[-88.286936,40.076576],[-88.295132,40.076676],[-88.303966,40.076713]]]},"id":31},{"type":"Feature","properties":{"name":"Planning Area 22"},"geometry":{"type":"Polygon","coordinates":[[[-88.291317,40.139614],[-88.295914,40.141263],[-88.298467,40.142182],[-88.305305,40.142126],[-88.314832,40.142106],[-88.314712,40.131501],[-88.31466,40.127803],[-88.314612,40.120143],[-88.30506,40.120134],[-88.305095,40.123139],[-88.305108,40.124041],[-88.304994,40.125029],[-88.304374,40.127018],[-88.30379,40.128121],[-88.303341,40.128804],[-88.302829,40.129421],[-88.302095,40.130197],[-88.295805,40.135693],[-88.291317,40.139614]]]},"id":32},{"type":"Feature","properties":{"name":"Planning Area 0"},"geometry":{"type":"Polygon","coordinates":[[[-88.301064,40.153607],[-88.305404,40.155665],[-88.305406,40.155547],[-88.305399,40.154615],[-88.305373,40.15121],[-88.305332,40.14575],[-88.305305,40.142126],[-88.298467,40.142182],[-88.295914,40.141263],[-88.291317,40.139614],[-88.290744,40.139408],[-88.286411,40.137853],[-88.285304,40.137458],[-88.277747,40.13474],[-88.277138,40.13452],[-88.277209,40.138233],[-88.277215,40.139256],[-88.277279,40.140916],[-88.277371,40.143299],[-88.277316,40.143985],[-88.277198,40.144848],[-88.277071,40.145553],[-88.276996,40.146132],[-88.276968,40.147539],[-88.276973,40.1487],[-88.277035,40.152162],[-88.280193,40.149367],[-88.281207,40.14821],[-88.281373,40.14796],[-88.281513,40.147687],[-88.281552,40.14742],[-88.281528,40.147191],[-88.281338,40.14663],[-88.281244,40.146428],[-88.281227,40.146292],[-88.28124,40.146101],[-88.2813,40.145802],[-88.281361,40.145559],[-88.281399,40.145354],[-88.281419,40.145069],[-88.281376,40.144734],[-88.281238,40.14441],[-88.281039,40.1441],[-88.279082,40.142146],[-88.282452,40.142155],[-88.282441,40.143759],[-88.283336,40.143726],[-88.283709,40.143713],[-88.284813,40.143871],[-88.285789,40.143725],[-88.286863,40.142951],[-88.287308,40.142917],[-88.287605,40.143116],[-88.287543,40.143481],[-88.286572,40.144434],[-88.286436,40.145219],[-88.286735,40.14604],[-88.286695,40.14641],[-88.287879,40.147029],[-88.289837,40.148052],[-88.289854,40.146613],[-88.290628,40.14751],[-88.291622,40.14876],[-88.29206,40.149123],[-88.292476,40.149412],[-88.295907,40.151197],[-88.301064,40.153607]]]},"id":33},{"type":"Feature","properties":{"name":"Planning Area 104"},"geometry":{"type":"Polygon","coordinates":[[[-88.232176,40.143924],[-88.232196,40.144958],[-88.232237,40.147125],[-88.232239,40.147257],[-88.23224,40.147262],[-88.231524,40.147265],[-88.230814,40.147267],[-88.229544,40.147272],[-88.228093,40.147278],[-88.227336,40.149129],[-88.227188,40.149493],[-88.225868,40.152648],[-88.225821,40.152648],[-88.224304,40.156427],[-88.22283,40.160003],[-88.222473,40.16083],[-88.221225,40.163721],[-88.22971,40.163626],[-88.229667,40.159987],[-88.239202,40.160009],[-88.239256,40.160009],[-88.239345,40.160009],[-88.239312,40.158288],[-88.239308,40.158068],[-88.239299,40.156757],[-88.239276,40.156322],[-88.239208,40.153031],[-88.239127,40.149108],[-88.239063,40.145463],[-88.239046,40.144484],[-88.239043,40.14428],[-88.239032,40.143699],[-88.239031,40.143604],[-88.232172,40.143616],[-88.232172,40.14371],[-88.232176,40.143924]]]},"id":34},{"type":"Feature","properties":{"name":"Planning Area 19"},"geometry":{"type":"Polygon","coordinates":[[[-88.267519,40.156615],[-88.267516,40.155562],[-88.26653,40.155561],[-88.266527,40.153442],[-88.26751,40.153449],[-88.267507,40.152154],[-88.267505,40.151468],[-88.267503,40.150802],[-88.267501,40.150074],[-88.267498,40.149297],[-88.267489,40.148875],[-88.267487,40.148788],[-88.266739,40.148826],[-88.26562,40.1489],[-88.264747,40.148994],[-88.263521,40.149055],[-88.262069,40.149045],[-88.261991,40.146499],[-88.257999,40.14653],[-88.257965,40.145607],[-88.257786,40.145603],[-88.256412,40.145579],[-88.253672,40.145551],[-88.253672,40.146011],[-88.251437,40.146008],[-88.251434,40.145526],[-88.251426,40.143654],[-88.249239,40.14362],[-88.248663,40.14361],[-88.248474,40.143613],[-88.248463,40.144584],[-88.248341,40.144583],[-88.248288,40.144582],[-88.247336,40.144566],[-88.246556,40.144553],[-88.246166,40.144547],[-88.245382,40.144535],[-88.244532,40.144522],[-88.244136,40.144516],[-88.243591,40.144513],[-88.239046,40.144484],[-88.239063,40.145463],[-88.239127,40.149108],[-88.239208,40.153031],[-88.239276,40.156322],[-88.239299,40.156757],[-88.239867,40.156758],[-88.248803,40.156792],[-88.253513,40.156849],[-88.257678,40.156825],[-88.259101,40.156799],[-88.262142,40.156774],[-88.263161,40.156734],[-88.265446,40.156654],[-88.267519,40.156615]]]},"id":35}]}