{"type":"FeatureCollection","features":[{"type":"Feature","properties":{"name":"Uptown on Columbia","case":"PL05-0011","address":"517 N Hickory","status":"Under Construction","link":"https://cityofchampaign.sharepoint.com/:b:/g/EbeW1VaY-j5BnZRjKsVuUSYBCG08lb8rHq1qOktuDlO0OA?e=qENRUT"},"geometry":{"type":"Polygon","coordinates":[[[-88.242997,40.121007],[-88.242996,40.120913],[-88.242995,40.12082],[-88.242995,40.120814],[-88.242909,40.120814],[-88.242884,40.120814],[-88.242855,40.120814],[-88.242611,40.120813],[-88.242612,40.121006],[-88.242886,40.121007],[-88.242997,40.121007]]]},"id":0},{"type":"Feature","properties":{"name":"Victoria Point","case":"1538-97-07-PD","address":"2302 W John","status":"Conforming","link":"https://cityofchampaign.sharepoint.com/:b:/g/EeGFL6LTVh9GsqNrU5Ss3bUBKqdwd1ezWX77xo-wJuRWWA?e=yhkwks"},"geometry":{"type":"Polygon","coordinates":[[[-88.284246,40.109359],[-88.284151,40.109358],[-88.283686,40.109355],[-88.283694,40.109949],[-88.283698,40.110251],[-88.2837,40.110399],[-88.285943,40.110415],[-88.28594,40.110202],[-88.285936,40.109919],[-88.285929,40.10937],[-88.285199,40.109365],[-88.284666,40.109362],[-88.284246,40.109359]]]},"id":1},{"type":"Feature","properties":{"name":"Barrington Place","case":"1638-00-06-PDA","address":"2601 W Springfield","status":"Non-conforming","link":"https://cityofchampaign.sharepoint.com/:b:/g/ETwvpLjc2hhPuA3W7MlzxLcBUBL4cNHUb3ZVEbTtgOG60Q?e=Xfcu08"},"geometry":{"type":"Polygon","coordinates":[[[-88.289164,40.111248],[-88.289175,40.111883],[-88.289175,40.111897],[-88.289191,40.112733],[-88.289192,40.112793],[-88.289195,40.112793],[-88.28936,40.112794],[-88.289379,40.112794],[-88.289398,40.112794],[-88.290358,40.112798],[-88.290483,40.112798],[-88.291061,40.111958],[-88.291367,40.111513],[-88.291437,40.11141],[-88.291508,40.111307],[-88.291526,40.111281],[-88.291519,40.11128],[-88.291514,40.11128],[-88.291508,40.111279],[-88.291502,40.111278],[-88.291501,40.111278],[-88.291496,40.111278],[-88.291489,40.111277],[-88.291485,40.111277],[-88.291483,40.111276],[-88.291478,40.111276],[-88.291471,40.111275],[-88.291466,40.111275],[-88.291466,40.111275],[-88.29146,40.111274],[-88.291454,40.111273],[-88.291454,40.111273],[-88.291448,40.111273],[-88.291441,40.111272],[-88.291436,40.111272],[-88.291435,40.111272],[-88.29143,40.111271],[-88.291423,40.111271],[-88.291418,40.11127],[-88.291417,40.11127],[-88.291412,40.11127],[-88.291406,40.111269],[-88.291405,40.111269],[-88.2914,40.111268],[-88.291394,40.111268],[-88.291388,40.111267],[-88.291388,40.111267],[-88.291383,40.111267],[-88.291382,40.111267],[-88.291377,40.111267],[-88.291377,40.111267],[-88.291376,40.111266],[-88.291371,40.111266],[-88.29137,40.111266],[-88.291365,40.111266],[-88.291358,40.111265],[-88.291353,40.111265],[-88.291352,40.111265],[-88.291347,40.111264],[-88.29134,40.111264],[-88.291335,40.111263],[-88.291334,40.111263],[-88.291329,40.111263],[-88.291323,40.111263],[-88.291322,40.111262],[-88.291317,40.111262],[-88.29131,40.111262],[-88.291305,40.111261],[-88.291304,40.111261],[-88.291299,40.111261],[-88.291288,40.11126],[-88.291287,40.11126],[-88.291284,40.11126],[-88.291274,40.11126],[-88.291269,40.111259],[-88.291268,40.111259],[-88.291263,40.111259],[-88.291262,40.111259],[-88.291257,40.111259],[-88.291256,40.111259],[-88.291252,40.111258],[-88.291249,40.111258],[-88.291244,40.111258],[-88.291239,40.111258],[-88.291238,40.111258],[-88.291233,40.111257],[-88.291227,40.111257],[-88.291226,40.111257],[-88.291221,40.111257],[-88.29122,40.111257],[-88.291215,40.111257],[-88.291207,40.111256],[-88.291203,40.111256],[-88.291202,40.111256],[-88.291197,40.111256],[-88.291196,40.111256],[-88.291191,40.111256],[-88.29119,40.111256],[-88.291185,40.111255],[-88.291178,40.111255],[-88.291173,40.111255],[-88.291172,40.111255],[-88.291167,40.111255],[-88.291161,40.111255],[-88.291154,40.111254],[-88.291154,40.111254],[-88.291148,40.111254],[-88.291142,40.111254],[-88.291136,40.111254],[-88.291136,40.111254],[-88.29113,40.111254],[-88.29113,40.111254],[-88.291124,40.111254],[-88.291124,40.111254],[-88.291118,40.111254],[-88.291112,40.111253],[-88.291106,40.111253],[-88.291105,40.111253],[-88.2911,40.111253],[-88.291094,40.111253],[-88.291088,40.111253],[-88.291088,40.111253],[-88.291082,40.111253],[-88.291076,40.111253],[-88.291076,40.111253],[-88.29107,40.111253],[-88.29107,40.111253],[-88.291064,40.111253],[-88.291057,40.111253],[-88.291052,40.111253],[-88.291052,40.111253],[-88.291046,40.111253],[-88.290975,40.111252],[-88.290751,40.111252],[-88.289164,40.111245],[-88.289164,40.111248]]]},"id":2},{"type":"Feature","properties":{"name":"Hessel on the Park","case":"411","address":"1862 Valley Rd","link":"https://cityofchampaign.sharepoint.com/:b:/g/ETAU0jj4wlRBonChIQhdm8oBKq-HVxiStoutVT8ZAFKH-Q?e=YReiCf"},"geometry":{"type":"Polygon","coordinates":[[[-88.24934,40.098015],[-88.249635,40.098017],[-88.250481,40.098022],[-88.25048,40.0977],[-88.25048,40.097508],[-88.250479,40.097316],[-88.250479,40.09722],[-88.250479,40.097124],[-88.250478,40.096933],[-88.250478,40.096741],[-88.250477,40.096552],[-88.250477,40.096549],[-88.250478,40.096357],[-88.250478,40.096322],[-88.250478,40.096165],[-88.250494,40.096165],[-88.2505,40.096165],[-88.251005,40.096166],[-88.251004,40.096002],[-88.251004,40.095756],[-88.251004,40.095574],[-88.251004,40.095402],[-88.251004,40.095393],[-88.251005,40.095215],[-88.251005,40.095031],[-88.251005,40.094854],[-88.251005,40.094673],[-88.251005,40.094491],[-88.250995,40.094491],[-88.250995,40.094483],[-88.250061,40.094491],[-88.249473,40.09449],[-88.249474,40.094495],[-88.249188,40.094498],[-88.249188,40.09449],[-88.248543,40.09449],[-88.248395,40.094489],[-88.24819,40.094489],[-88.248069,40.094489],[-88.248069,40.094517],[-88.248071,40.094747],[-88.248071,40.094802],[-88.248075,40.095398],[-88.248076,40.095574],[-88.248081,40.09632],[-88.248085,40.09684],[-88.248088,40.097219],[-88.248089,40.097444],[-88.24809,40.097503],[-88.248187,40.097503],[-88.248658,40.097503],[-88.248877,40.097504],[-88.248876,40.098012],[-88.24934,40.098015]]]},"id":3},{"type":"Feature","properties":{"name":"Colony West","case":"703","address":"Prospect & Windsor","link":"https://cityofchampaign.sharepoint.com/:b:/g/EZ8f0nHN32xMjJx19f3HnG8BaB20E62rQgbCzfQj3NMgBg?e=t3qsn2"},"geometry":{"type":"Polygon","coordinates":[[[-88.257406,40.089612],[-88.257404,40.089325],[-88.257399,40.088859],[-88.257397,40.088657],[-88.257395,40.08842],[-88.257393,40.088255],[-88.257391,40.088022],[-88.257389,40.08783],[-88.257388,40.087638],[-88.257384,40.087267],[-88.257383,40.087186],[-88.257383,40.087163],[-88.257381,40.08698],[-88.257379,40.086733],[-88.257377,40.086553],[-88.257376,40.086388],[-88.257373,40.086161],[-88.257372,40.085967],[-88.25737,40.085783],[-88.257367,40.085487],[-88.257365,40.085318],[-88.257363,40.085063],[-88.257361,40.084868],[-88.25736,40.084768],[-88.257351,40.083841],[-88.257336,40.083797],[-88.257315,40.08377],[-88.257293,40.083751],[-88.257205,40.083726],[-88.257126,40.083717],[-88.257082,40.083717],[-88.256403,40.083713],[-88.256009,40.08371],[-88.255714,40.083708],[-88.255488,40.083707],[-88.255202,40.083705],[-88.254919,40.083703],[-88.254704,40.083702],[-88.254419,40.0837],[-88.254045,40.083698],[-88.253639,40.083695],[-88.253638,40.08376],[-88.253637,40.083942],[-88.253632,40.084458],[-88.253625,40.085235],[-88.253624,40.085342],[-88.252873,40.085341],[-88.252408,40.08534],[-88.251656,40.085339],[-88.251655,40.085771],[-88.251654,40.086531],[-88.253908,40.086531],[-88.253908,40.087545],[-88.253908,40.087712],[-88.253908,40.087789],[-88.253894,40.08819],[-88.253893,40.088218],[-88.253877,40.088711],[-88.253867,40.089001],[-88.254033,40.089044],[-88.254458,40.089154],[-88.254828,40.089249],[-88.255189,40.089262],[-88.255189,40.089273],[-88.25519,40.089512],[-88.255404,40.089527],[-88.255926,40.089564],[-88.256126,40.089578],[-88.256225,40.089582],[-88.256428,40.089587],[-88.257294,40.089609],[-88.257391,40.089612],[-88.257406,40.089612]]]},"id":4},{"type":"Feature","properties":{"name":"UIUC Research Park","case":"1629-00-02","address":"S First, S Oak","status":"Conforming","link":"https://cityofchampaign.sharepoint.com/:b:/g/EdTINhEM8dFBr_jKtQFH-O4BBZgDuzxfJaAgGp67OS-GVQ?e=cUO8eg"},"geometry":{"type":"Polygon","coordinates":[[[-88.238541,40.093307],[-88.23859,40.093449],[-88.238629,40.093589],[-88.23866,40.093729],[-88.238683,40.093871],[-88.238698,40.094013],[-88.238705,40.094156],[-88.238706,40.0942],[-88.238706,40.094288],[-88.238707,40.094376],[-88.238708,40.094377],[-88.238721,40.094385],[-88.238735,40.094392],[-88.238751,40.094397],[-88.238767,40.0944],[-88.238784,40.094401],[-88.239862,40.094398],[-88.239916,40.094398],[-88.241232,40.094395],[-88.241252,40.094373],[-88.241596,40.094374],[-88.241614,40.094394],[-88.242065,40.094393],[-88.243199,40.09439],[-88.243197,40.090828],[-88.243197,40.090491],[-88.243194,40.087175],[-88.242854,40.087166],[-88.242036,40.087145],[-88.24185,40.087145],[-88.24185,40.087168],[-88.241851,40.088244],[-88.241116,40.088244],[-88.240944,40.088244],[-88.240944,40.088022],[-88.238516,40.088017],[-88.238517,40.088245],[-88.238354,40.088245],[-88.23836,40.089235],[-88.238363,40.08962],[-88.238364,40.089833],[-88.238369,40.090676],[-88.23837,40.090812],[-88.238371,40.090847],[-88.238371,40.090938],[-88.238375,40.091518],[-88.238376,40.091707],[-88.238378,40.091934],[-88.238381,40.092469],[-88.238386,40.09261],[-88.2384,40.092751],[-88.238413,40.09284],[-88.23843,40.092929],[-88.238451,40.093021],[-88.238476,40.093112],[-88.238541,40.093307],[-88.238541,40.093307]]]},"id":5},{"type":"Feature","properties":{"name":"Douglass Square/Burch Village","case":"PL04-0114","address":"4th St and Bradley Ave","status":"Conforming","link":"https://cityofchampaign.sharepoint.com/:b:/g/EaaZ9N0yO3RDu5fscnWolMEBfjAX9zSSjIHUkPQ93r032w?e=YJoYQh"},"geometry":{"type":"Polygon","coordinates":[[[-88.231014,40.127591],[-88.231013,40.127759],[-88.231012,40.127922],[-88.231011,40.128088],[-88.23101,40.128251],[-88.23101,40.128341],[-88.23101,40.128345],[-88.231264,40.128345],[-88.231425,40.128345],[-88.231434,40.128345],[-88.231627,40.128345],[-88.23165,40.128345],[-88.231658,40.128345],[-88.231658,40.12834],[-88.232179,40.12834],[-88.232393,40.128339],[-88.232404,40.128339],[-88.233258,40.128338],[-88.233715,40.128338],[-88.233795,40.128338],[-88.233793,40.12737],[-88.233713,40.127372],[-88.233713,40.127371],[-88.233122,40.127373],[-88.23305,40.127374],[-88.232408,40.127376],[-88.232408,40.127377],[-88.232172,40.12738],[-88.232148,40.127381],[-88.232003,40.127385],[-88.231646,40.127396],[-88.231623,40.127397],[-88.231558,40.127399],[-88.23143,40.1274],[-88.231113,40.127402],[-88.231014,40.127403],[-88.231014,40.127591]]]},"id":6},{"type":"Feature","properties":{"name":"Burnham Redevelopment","case":"PL05-0104","address":"300 E Stoughton","status":"Conforming","link":"https://cityofchampaign.sharepoint.com/:b:/g/EViByjGuWp9OsXZ3mmA7PyoBAn06cdmHob0H4dYN5kA_4A?e=o7OaPJ"},"geometry":{"type":"Polygon","coordinates":[[[-88.235465,40.113917],[-88.235533,40.113917],[-88.235537,40.114325],[-88.236298,40.114325],[-88.236296,40.11355],[-88.236239,40.11355],[-88.23624,40.113002],[-88.23529,40.113008],[-88.235288,40.112762],[-88.234041,40.112771],[-88.233736,40.112773],[-88.233705,40.1128],[-88.233704,40.112816],[-88.233703,40.112832],[-88.233702,40.112848],[-88.2337,40.112864],[-88.233697,40.11288],[-88.233694,40.112896],[-88.233691,40.112912],[-88.233687,40.112928],[-88.233682,40.112944],[-88.233677,40.112959],[-88.23367,40.112982],[-88.233664,40.113004],[-88.233658,40.113027],[-88.233653,40.11305],[-88.233648,40.113072],[-88.233643,40.113095],[-88.23364,40.113118],[-88.233637,40.113141],[-88.233634,40.113164],[-88.233632,40.113187],[-88.23363,40.11321],[-88.23363,40.113228],[-88.233629,40.113246],[-88.233629,40.113246],[-88.233629,40.113265],[-88.23363,40.113379],[-88.233631,40.11356],[-88.233633,40.113926],[-88.234251,40.113923],[-88.234452,40.113922],[-88.234518,40.113922],[-88.234584,40.113921],[-88.234581,40.113557],[-88.234819,40.113556],[-88.235057,40.113555],[-88.235294,40.113554],[-88.235297,40.113882],[-88.235297,40.113918],[-88.235465,40.113917]]]},"id":7},{"type":"Feature","properties":{"name":"Champaign Public Library","case":"PL05-0063","address":"505 S Randolph","status":"Under Construction","link":"https://cityofchampaign.sharepoint.com/:b:/g/ERODtB632exMmKPPwhlkYBoBrIt8NN__49l3ws-yzNOKQQ?e=YRxIpD"},"geometry":{"type":"Polygon","coordinates":[[[-88.246676,40.111577],[-88.246661,40.110257],[-88.24528,40.110266],[-88.245241,40.110296],[-88.245255,40.111569],[-88.246676,40.111577]]]},"id":8},{"type":"Feature","properties":{"name":"Hays-Bash","case":"1587-97-01-PD","address":"512 W Springfield","status":"Conforming","link":"https://cityofchampaign.sharepoint.com/:b:/g/EemuL0TQ7RxCjfcpIxSX2IkBcTj8z44NupEZzFSxGrabRg?e=yh8aRc"},"geometry":{"type":"Polygon","coordinates":[[[-88.231975,40.112973],[-88.231974,40.112788],[-88.230557,40.11279],[-88.230559,40.11314],[-88.230802,40.11314],[-88.230801,40.113025],[-88.231267,40.113023],[-88.231268,40.113396],[-88.231504,40.113394],[-88.231503,40.113022],[-88.231975,40.113019],[-88.231975,40.112973]]]},"id":9},{"type":"Feature","properties":{"name":"Foxridge","case":"976","address":"Bradley & Pomona","link":"https://cityofchampaign.sharepoint.com/:b:/g/EeAvKcTZzjRGp5-NFRAV2OUB0P9_4kPLnwlChw5UfdCdjA?e=Xs5GkK"},"geometry":{"type":"Polygon","coordinates":[[[-88.293687,40.127484],[-88.293696,40.127233],[-88.293721,40.127086],[-88.293785,40.126857],[-88.293824,40.12672],[-88.293851,40.126554],[-88.293852,40.126386],[-88.293828,40.12621],[-88.293778,40.126041],[-88.293714,40.125901],[-88.293621,40.125746],[-88.293554,40.125653],[-88.292767,40.125763],[-88.290947,40.125747],[-88.29097,40.127459],[-88.293687,40.127484]]]},"id":10},{"type":"Feature","properties":{"name":"ABC Sanitary","case":"PL06-0070","address":"313 & 403 W Eureka & 312 W Tremont","status":"New Case","link":"https://cityofchampaign.sharepoint.com/:b:/g/EXmBKC5DN3VBusnZssw90T8BTumOwovGW_obTtJGP-SzaA?e=Nl1MtC"},"geometry":{"type":"Polygon","coordinates":[[[-88.248746,40.125371],[-88.248743,40.125169],[-88.249063,40.124689],[-88.24839,40.124444],[-88.248391,40.124676],[-88.24818,40.124676],[-88.248181,40.125008],[-88.248393,40.125009],[-88.248393,40.125042],[-88.248279,40.125042],[-88.248281,40.125404],[-88.248395,40.125404],[-88.248395,40.125371],[-88.248746,40.125371]]]},"id":11},{"type":"Feature","properties":{"name":"522 E. Green (Dooley's/Hennessey's/Legends)","case":"1557-97-02-PDA","address":"522 E Green","status":"Conforming","link":"https://cityofchampaign.sharepoint.com/:b:/g/EUydCXH71ZlCuLiMRapmvDoBqpTruI_qIOn9ujaq399dIg?e=fZpVuZ"},"geometry":{"type":"Polygon","coordinates":[[[-88.231351,40.110862],[-88.231339,40.110388],[-88.231103,40.110391],[-88.231115,40.110865],[-88.231351,40.110862]]]},"id":12},{"type":"Feature","properties":{"name":"Arrowhead Lanes","case":"PL07-0089","address":"1401 N. McKinley Ave","link":"https://cityofchampaign.sharepoint.com/:b:/g/EZJN2gLifbpLpBLJorMWt2wBb1zOHnItKtOvbkaDErl3FA?e=4Jhv7x"},"geometry":{"type":"Polygon","coordinates":[[[-88.26287,40.130843],[-88.262871,40.130942],[-88.262978,40.13098],[-88.263001,40.130988],[-88.263573,40.131194],[-88.263587,40.131199],[-88.263622,40.131212],[-88.26375,40.131258],[-88.263803,40.131277],[-88.263885,40.131185],[-88.263987,40.131022],[-88.26414,40.130778],[-88.264196,40.130689],[-88.2642,40.130683],[-88.264223,40.130646],[-88.264261,40.130586],[-88.264277,40.130561],[-88.264377,40.130597],[-88.264406,40.130607],[-88.264471,40.130631],[-88.2646,40.130426],[-88.264637,40.130366],[-88.264653,40.130341],[-88.26452,40.130293],[-88.263981,40.1301],[-88.263846,40.130052],[-88.263625,40.129972],[-88.262859,40.129697],[-88.262859,40.129727],[-88.26287,40.130843]]]},"id":13},{"type":"Feature","properties":{"name":"Family Dollar","case":"PL07-0046","address":"1204 N. Market St.","link":"https://cityofchampaign.sharepoint.com/:b:/g/Ea0Dj2Kd61JPvicJoCKI0y0BUlsbZ5CdFrFzbLemXFZc6A?e=wvSW8p"},"geometry":{"type":"Polygon","coordinates":[[[-88.237954,40.127419],[-88.237956,40.127765],[-88.23871,40.127764],[-88.238708,40.127627],[-88.238707,40.127486],[-88.238632,40.127419],[-88.238328,40.127419],[-88.237954,40.127419]]]},"id":14},{"type":"Feature","properties":{"name":"309-313 E. Green St. PD","case":"PL10-0017","address":"309-313 E. Green St.","status":"Complete","link":"https://cityofchampaign.sharepoint.com/:b:/g/Ea-YhhSztQpPih5PLuS0Wl8BveGk1wEai5b5dacvD1b3-w?e=gdEZce"},"geometry":{"type":"Polygon","coordinates":[[[-88.234318,40.109808],[-88.234081,40.10981],[-88.233877,40.109812],[-88.233683,40.109814],[-88.233689,40.110176],[-88.233882,40.110174],[-88.234086,40.110172],[-88.234322,40.11017],[-88.234559,40.110168],[-88.234555,40.109806],[-88.234318,40.109808]]]},"id":15},{"type":"Feature","properties":{"name":"M2","case":"PL07-0006","address":"301 N NEIL","status":"Under Construction","link":"https://cityofchampaign.sharepoint.com/:b:/g/Eeb7-lWpe7VPhUDOqFxYQ6UBYxMd2Qwx_tRErKGieNYLnw?e=obEyO6"},"geometry":{"type":"Polygon","coordinates":[[[-88.243646,40.118777],[-88.243646,40.118838],[-88.243646,40.1189],[-88.243646,40.118962],[-88.243646,40.119023],[-88.243646,40.119147],[-88.243965,40.119145],[-88.244042,40.119145],[-88.24412,40.119144],[-88.2442,40.119144],[-88.244201,40.118775],[-88.24412,40.118775],[-88.244042,40.118775],[-88.244042,40.118729],[-88.24412,40.118729],[-88.244119,40.11836],[-88.244004,40.11836],[-88.243947,40.11836],[-88.24367,40.11836],[-88.243646,40.11836],[-88.243646,40.11873],[-88.243646,40.118777]]]},"id":16},{"type":"Feature","properties":{"name":"Southwood Village PUD\r\nSouth Village PUD","case":"713","address":"Ivy Ct, Barberry Cir, and Blackhorn Cir"},"geometry":{"type":"Polygon","coordinates":[[[-88.276529,40.088336],[-88.276531,40.088439],[-88.276531,40.08844],[-88.276533,40.088645],[-88.276533,40.088645],[-88.276533,40.088645],[-88.276534,40.088748],[-88.276536,40.088851],[-88.276536,40.088851],[-88.276537,40.088954],[-88.276538,40.089056],[-88.276538,40.089057],[-88.276539,40.089119],[-88.276539,40.089159],[-88.27654,40.089262],[-88.27654,40.089262],[-88.276544,40.089573],[-88.276546,40.089711],[-88.276549,40.089958],[-88.276549,40.09002],[-88.27655,40.090048],[-88.276551,40.090153],[-88.276561,40.090995],[-88.277746,40.091008],[-88.277782,40.091009],[-88.278072,40.091012],[-88.278419,40.091016],[-88.278606,40.091018],[-88.278617,40.091018],[-88.278633,40.091018],[-88.27876,40.09102],[-88.279053,40.091023],[-88.279196,40.091025],[-88.279194,40.090784],[-88.279193,40.090658],[-88.279165,40.090604],[-88.279161,40.090596],[-88.279064,40.090408],[-88.279053,40.090387],[-88.27898,40.090246],[-88.278981,40.090219],[-88.278981,40.090205],[-88.278982,40.090195],[-88.278982,40.090191],[-88.278982,40.090187],[-88.278986,40.089999],[-88.279025,40.08997],[-88.279073,40.089935],[-88.279363,40.089771],[-88.279364,40.089737],[-88.279367,40.08957],[-88.279367,40.089552],[-88.279367,40.089524],[-88.279368,40.089518],[-88.279368,40.089518],[-88.279368,40.089508],[-88.279369,40.089417],[-88.279368,40.089325],[-88.279368,40.089235],[-88.279367,40.089145],[-88.279367,40.089129],[-88.279366,40.089106],[-88.279366,40.089077],[-88.279365,40.088975],[-88.279365,40.088956],[-88.279365,40.088955],[-88.279365,40.088946],[-88.27936,40.088563],[-88.279357,40.088331],[-88.279108,40.088335],[-88.278982,40.088337],[-88.278979,40.088105],[-88.278979,40.088048],[-88.278977,40.087899],[-88.278977,40.087893],[-88.278977,40.087892],[-88.278975,40.087692],[-88.278973,40.087542],[-88.278973,40.087503],[-88.278973,40.087486],[-88.27897,40.087279],[-88.278968,40.087097],[-88.278967,40.087042],[-88.278967,40.087034],[-88.278354,40.087027],[-88.278143,40.087025],[-88.278,40.087023],[-88.277768,40.087021],[-88.277537,40.087018],[-88.277305,40.087016],[-88.277292,40.087016],[-88.277246,40.087015],[-88.277073,40.087013],[-88.276842,40.087011],[-88.276514,40.087007],[-88.276517,40.087277],[-88.276517,40.087296],[-88.276517,40.087313],[-88.276522,40.087694],[-88.276523,40.087774],[-88.276523,40.087775],[-88.276524,40.087912],[-88.276524,40.087912],[-88.276524,40.087913],[-88.276527,40.088114],[-88.276528,40.088233],[-88.276528,40.088234],[-88.276529,40.088336]]]},"id":17},{"type":"Feature","properties":{"name":"Town Center Apartments","case":"1570-97-02-PDA","address":"2413 N Neil","status":"Conforming","link":"https://cityofchampaign.sharepoint.com/:b:/g/EQW2fWS2mu1Cr5hrkyUU25IBby0Yh-hvFi_7iPAskffeNA?e=zLjcil"},"geometry":{"type":"Polygon","coordinates":[[[-88.251434,40.145505],[-88.251426,40.143684],[-88.251426,40.143654],[-88.251219,40.143651],[-88.251205,40.143651],[-88.249239,40.14362],[-88.248663,40.14361],[-88.248649,40.14361],[-88.248649,40.143638],[-88.248649,40.143661],[-88.248649,40.143688],[-88.248652,40.143882],[-88.248653,40.143908],[-88.248655,40.144032],[-88.248655,40.144046],[-88.248663,40.144566],[-88.248731,40.145077],[-88.248733,40.145087],[-88.248743,40.145167],[-88.248771,40.145377],[-88.248772,40.145378],[-88.248772,40.145454],[-88.248772,40.145481],[-88.248772,40.145485],[-88.24924,40.145489],[-88.249261,40.145489],[-88.251345,40.145504],[-88.251434,40.145505]]]},"id":18},{"type":"Feature","properties":{"name":"Westchester","case":"602 & 603","address":"1600 W Bradley","link":"https://cityofchampaign.sharepoint.com/:b:/g/EUPus7Flpl5Jsq0dgYbJBKEBGv7DXw-rYvV0ESdt1VXc7g?e=LZnf6f"},"geometry":{"type":"Polygon","coordinates":[[[-88.27218,40.127681],[-88.272181,40.12786],[-88.272183,40.128038],[-88.272184,40.128171],[-88.272184,40.128217],[-88.272186,40.128395],[-88.272188,40.128574],[-88.272189,40.128752],[-88.27219,40.128873],[-88.272191,40.128931],[-88.272192,40.129109],[-88.272194,40.129288],[-88.272195,40.129462],[-88.272196,40.129577],[-88.272197,40.129644],[-88.272273,40.129645],[-88.272635,40.12965],[-88.272781,40.129652],[-88.273144,40.129657],[-88.273143,40.129489],[-88.273141,40.129321],[-88.27314,40.129174],[-88.27314,40.129152],[-88.273139,40.129046],[-88.273138,40.128942],[-88.273137,40.12878],[-88.273137,40.128774],[-88.273168,40.128773],[-88.273202,40.128773],[-88.273358,40.128771],[-88.273878,40.128765],[-88.273918,40.128764],[-88.273937,40.128764],[-88.276288,40.128734],[-88.276269,40.128068],[-88.2756,40.128059],[-88.274717,40.128047],[-88.274714,40.127677],[-88.274713,40.127545],[-88.274712,40.127534],[-88.274712,40.127518],[-88.273399,40.1275],[-88.27333,40.127499],[-88.273022,40.127495],[-88.272178,40.127484],[-88.27218,40.127681]]]},"id":19},{"type":"Feature","properties":{"name":"Oakwood Trace","case":"1642-01-03-PDA","address":"301 E Bradley","status":"Conforming","link":"https://cityofchampaign.sharepoint.com/:b:/g/EYXds61z5o1FnJSPZqensgIBiqdo7FA_Jjw45S7XdOYFIA?e=Y5V7wa"},"geometry":{"type":"Polygon","coordinates":[[[-88.234448,40.126688],[-88.234452,40.126958],[-88.234455,40.127183],[-88.234473,40.127182],[-88.235082,40.127179],[-88.235117,40.127179],[-88.235569,40.127176],[-88.235723,40.127176],[-88.236312,40.125756],[-88.235188,40.12576],[-88.235189,40.126206],[-88.235154,40.126206],[-88.235094,40.126206],[-88.235058,40.126206],[-88.234891,40.126207],[-88.23446,40.126208],[-88.234442,40.126208],[-88.234444,40.126386],[-88.234447,40.126567],[-88.234448,40.126688]]]},"id":20},{"type":"Feature","properties":{"name":"702-706 N Prospect","case":"1693-02-01-PD","address":"702-706 N Prospect","status":"Conforming","link":"https://cityofchampaign.sharepoint.com/:b:/g/ESvJ3dQd2AZClAFoR5IBJlcBe41dZWcSo6kXNwu5-iI2Pg?e=Cfau4I"},"geometry":{"type":"Polygon","coordinates":[[[-88.25745,40.122342],[-88.257451,40.122449],[-88.257452,40.122554],[-88.257809,40.122554],[-88.257808,40.122449],[-88.257807,40.122343],[-88.257806,40.122238],[-88.257755,40.122238],[-88.257449,40.122236],[-88.25745,40.122342]]]},"id":21},{"type":"Feature","properties":{"name":"Cheshire Estates","case":"848 & 906","address":"Park & Prospect","link":"https://cityofchampaign.sharepoint.com/:b:/g/EXWjnGhENrNIu6D3Bi5OgzcBQ5QFICrcdeZEphYMkSLJnw?e=Tkijka"},"geometry":{"type":"Polygon","coordinates":[[[-88.259626,40.116872],[-88.259789,40.116873],[-88.25979,40.116906],[-88.259861,40.116907],[-88.259864,40.117216],[-88.259897,40.117217],[-88.260099,40.117218],[-88.260098,40.11718],[-88.260096,40.116821],[-88.260095,40.116728],[-88.260093,40.116465],[-88.260093,40.116425],[-88.259961,40.116424],[-88.259857,40.116423],[-88.259622,40.116421],[-88.259386,40.116419],[-88.259265,40.116418],[-88.259152,40.116417],[-88.259151,40.116417],[-88.25894,40.116415],[-88.258916,40.116415],[-88.258445,40.116409],[-88.258373,40.116409],[-88.258065,40.116408],[-88.257977,40.116408],[-88.257982,40.116806],[-88.257987,40.117205],[-88.258101,40.117205],[-88.258425,40.117207],[-88.258923,40.117209],[-88.258973,40.117209],[-88.259031,40.117209],[-88.259158,40.11721],[-88.259393,40.117212],[-88.25939,40.116871],[-88.259626,40.116872]]]},"id":22},{"type":"Feature","properties":{"name":"Cedar & State (Paragon)","case":"PL03-0015","address":"Cedar & State","status":"Non-conforming","link":"https://cityofchampaign.sharepoint.com/:b:/g/ETdW3CWATidEgnfGcBbqro8BKDwOJuIt-rpzjfMdN0mIIg?e=YQJEfU"},"geometry":{"type":"Polygon","coordinates":[[[-88.247917,40.099087],[-88.247727,40.099087],[-88.247538,40.099087],[-88.247349,40.099087],[-88.247159,40.099087],[-88.24697,40.099087],[-88.246781,40.099087],[-88.246783,40.099462],[-88.246785,40.099837],[-88.246975,40.099838],[-88.247165,40.099839],[-88.247162,40.099461],[-88.247352,40.09946],[-88.247542,40.099459],[-88.247731,40.099459],[-88.247921,40.099458],[-88.248111,40.099457],[-88.248108,40.099269],[-88.248106,40.099087],[-88.247917,40.099087]]]},"id":23},{"type":"Feature","properties":{"name":"Patricia Court","case":"PL05-0003","address":"1702-1716 Patricia Court","status":"Conforming","link":"https://cityofchampaign.sharepoint.com/:b:/g/EYC8FzK5kDVMlziLYg5YxTgBSdgSEH8rZJeJBlWtMLPuDg?e=tzRNFQ"},"geometry":{"type":"Polygon","coordinates":[[[-88.274445,40.110784],[-88.274445,40.110795],[-88.274445,40.110836],[-88.274446,40.110973],[-88.274446,40.111001],[-88.274666,40.111003],[-88.274781,40.111004],[-88.274911,40.111005],[-88.274923,40.111005],[-88.274929,40.111005],[-88.275038,40.111006],[-88.27518,40.111008],[-88.275206,40.111008],[-88.275295,40.111009],[-88.275437,40.11101],[-88.275477,40.11101],[-88.275483,40.11101],[-88.275495,40.111011],[-88.275499,40.111011],[-88.275501,40.111011],[-88.275513,40.111011],[-88.275577,40.111011],[-88.275577,40.110984],[-88.275576,40.110917],[-88.275576,40.110846],[-88.275575,40.110738],[-88.275513,40.110738],[-88.275497,40.110738],[-88.275384,40.110737],[-88.275374,40.110737],[-88.275149,40.110735],[-88.275141,40.110735],[-88.274914,40.110733],[-88.274909,40.110733],[-88.274679,40.110731],[-88.274677,40.110731],[-88.274444,40.110729],[-88.274445,40.110784]]]},"id":24},{"type":"Feature","properties":{"name":"615 W Kirby","case":"1700-02-01-PD","address":"615 W Kirby","status":"Conforming","link":"https://cityofchampaign.sharepoint.com/:b:/g/EQvXnP5GBAlBpCDNWP8OTVgBVoO0H_QPAQ3vyYZRdPbCHA?e=Z3XSRa"},"geometry":{"type":"Polygon","coordinates":[[[-88.252861,40.098029],[-88.25293,40.098029],[-88.253391,40.09803],[-88.253388,40.097679],[-88.25293,40.097677],[-88.252861,40.097677],[-88.252861,40.098029]]]},"id":25},{"type":"Feature","properties":{"name":"Village at the Crossing (Robeson Meadows)","case":"PL02-0014","address":"Duncan & Windsor","status":"Under Construction","link":"https://cityofchampaign.sharepoint.com/:b:/g/EUM1UufsSixPq-ZLPytdHqIBpIOEbPzC6EZD5mjZRK-0sQ?e=ZmwhCx"},"geometry":{"type":"Polygon","coordinates":[[[-88.295323,40.080672],[-88.295325,40.080946],[-88.295325,40.081029],[-88.295328,40.081488],[-88.295335,40.082318],[-88.295335,40.082428],[-88.295336,40.082538],[-88.295339,40.082855],[-88.295352,40.083034],[-88.295358,40.083123],[-88.295362,40.083672],[-88.295545,40.083816],[-88.296217,40.083823],[-88.29662,40.08384],[-88.296879,40.083843],[-88.29705,40.083845],[-88.297794,40.083852],[-88.297795,40.083321],[-88.297778,40.083057],[-88.297744,40.082513],[-88.297743,40.082507],[-88.297725,40.082315],[-88.297705,40.082111],[-88.29765,40.081537],[-88.29765,40.081491],[-88.29765,40.081223],[-88.297651,40.080674],[-88.297651,40.08052],[-88.297549,40.08044],[-88.29712,40.08044],[-88.296645,40.08044],[-88.296038,40.080439],[-88.295321,40.080439],[-88.295323,40.080672]]]},"id":26},{"type":"Feature","properties":{"name":"Heartland Bank Planned Development","case":"PL03-0103","address":"2101 W Springfield","link":"https://cityofchampaign.sharepoint.com/:b:/g/EQrXakUFMzFLnVLAK8NwOskB4SezJcDZ4l_yuTwtWrc0rw?e=bisQwu"},"geometry":{"type":"Polygon","coordinates":[[[-88.282984,40.112236],[-88.28299,40.112718],[-88.28299,40.112732],[-88.283101,40.112773],[-88.283731,40.11278],[-88.283725,40.112334],[-88.283725,40.112325],[-88.283725,40.11227],[-88.283724,40.11223],[-88.282984,40.112236]]]},"id":27},{"type":"Feature","properties":{"name":"Chancellor Hotel","case":"PL05-0068","address":"1407 S Neil","status":"Under Construction","link":"https://cityofchampaign.sharepoint.com/:b:/g/EeyukcjCtFxIvowIDDC7toABO5nvCaBD1FR5jAxJlKSOew?e=VGYYei"},"geometry":{"type":"Polygon","coordinates":[[[-88.245619,40.098211],[-88.245435,40.098211],[-88.24525,40.098211],[-88.245057,40.098211],[-88.244965,40.098211],[-88.244744,40.098357],[-88.244721,40.098372],[-88.2447,40.098504],[-88.244678,40.09865],[-88.244655,40.098797],[-88.244632,40.098945],[-88.244618,40.099029],[-88.244609,40.099088],[-88.244609,40.099088],[-88.244594,40.099088],[-88.24457,40.099248],[-88.244547,40.099399],[-88.244554,40.099399],[-88.244926,40.0994],[-88.244926,40.099467],[-88.244926,40.099543],[-88.244926,40.099827],[-88.245107,40.099828],[-88.245287,40.099829],[-88.245467,40.09983],[-88.245647,40.099831],[-88.245828,40.099832],[-88.246008,40.099833],[-88.246188,40.099834],[-88.246369,40.099835],[-88.246549,40.099836],[-88.246549,40.099794],[-88.246548,40.099602],[-88.246547,40.099462],[-88.246545,40.099087],[-88.246544,40.099016],[-88.246544,40.098944],[-88.246542,40.098561],[-88.24654,40.098313],[-88.24642,40.098216],[-88.246172,40.098214],[-88.245732,40.098211],[-88.24572,40.09821],[-88.245619,40.098211]]]},"id":28},{"type":"Feature","properties":{"name":"Judah Christian","case":"1615-98-01-PD","address":"908 N Prospect","status":"Conforming","link":"https://cityofchampaign.sharepoint.com/:b:/g/EfbQoslsGndBuJGzl22sqMsB0LFwZcwwM4FqwONoU07xxg?e=8rB6gf"},"geometry":{"type":"Polygon","coordinates":[[[-88.257278,40.124502],[-88.257073,40.124502],[-88.256895,40.124502],[-88.25672,40.124502],[-88.25658,40.124502],[-88.256579,40.125467],[-88.256383,40.125467],[-88.256383,40.125481],[-88.256383,40.12581],[-88.256579,40.125809],[-88.256775,40.125808],[-88.256954,40.125806],[-88.256971,40.125806],[-88.256989,40.125806],[-88.25715,40.125805],[-88.257167,40.125805],[-88.257185,40.125805],[-88.257363,40.125804],[-88.257559,40.125803],[-88.257841,40.125801],[-88.257838,40.125479],[-88.257838,40.125465],[-88.257828,40.124502],[-88.257278,40.124502]]]},"id":29},{"type":"Feature","properties":{"name":"Seasons at Champaign (parent-Jay Javers PD)","case":"PL05-0019","address":"2001-2002 Moreland Blvd","status":"Conforming","link":"https://cityofchampaign.sharepoint.com/:b:/g/EZN07EX_DdZPs_uojSDwuzUBFFjaeKLN01Q2-9cvyQmkNA?e=lCbhN4"},"geometry":{"type":"Polygon","coordinates":[[[-88.250995,40.140829],[-88.250995,40.140924],[-88.250991,40.141019],[-88.252749,40.141024],[-88.252767,40.141024],[-88.252768,40.141205],[-88.252782,40.141205],[-88.253651,40.141207],[-88.253741,40.141207],[-88.253758,40.141208],[-88.253758,40.141198],[-88.253759,40.141044],[-88.253759,40.140458],[-88.253791,40.140458],[-88.253833,40.140458],[-88.253973,40.140459],[-88.254028,40.140459],[-88.254034,40.140459],[-88.254034,40.14045],[-88.254038,40.140295],[-88.254044,40.140067],[-88.253865,40.140066],[-88.253835,40.140064],[-88.253806,40.140059],[-88.253778,40.14005],[-88.253753,40.140037],[-88.253731,40.140021],[-88.253713,40.140003],[-88.253699,40.139983],[-88.253689,40.139961],[-88.253685,40.139938],[-88.253685,40.139915],[-88.253691,40.139893],[-88.253701,40.139871],[-88.253716,40.139851],[-88.253735,40.139833],[-88.253757,40.139818],[-88.253783,40.139806],[-88.253811,40.139798],[-88.253812,40.139722],[-88.253813,40.139637],[-88.253821,40.138911],[-88.253822,40.138872],[-88.253787,40.138872],[-88.253707,40.138872],[-88.253658,40.138872],[-88.253531,40.138871],[-88.253122,40.138871],[-88.253095,40.138871],[-88.252555,40.138871],[-88.252534,40.138871],[-88.252498,40.138871],[-88.252504,40.139324],[-88.250967,40.139323],[-88.250995,40.140829]]]},"id":30},{"type":"Feature","properties":{"name":"Town Center Commercial (parent-Jay Javers PD)","case":"PL05-0114","address":"60000 Farm Parcel","status":"Conforming","link":"https://cityofchampaign.sharepoint.com/:b:/g/EQjj5fSuudxCmVWZ-CsZad0BSlOY2FN2KMhAWvdgvlrobw?e=MWVbnU"},"geometry":{"type":"Polygon","coordinates":[[[-88.250976,40.141283],[-88.250957,40.14141],[-88.250931,40.141536],[-88.250898,40.14166],[-88.250864,40.141812],[-88.250868,40.141941],[-88.250902,40.141991],[-88.252281,40.142305],[-88.252554,40.142367],[-88.252605,40.142378],[-88.252617,40.141916],[-88.252621,40.141229],[-88.252533,40.141161],[-88.252515,40.141161],[-88.25099,40.141156],[-88.250987,40.141156],[-88.250976,40.141283]]]},"id":31},{"type":"Feature","properties":{"name":"Drury Inn","case":"1551-97-04-PDA","address":"905 W Bradley","status":"Conforming","link":"https://cityofchampaign.sharepoint.com/:b:/g/Ef9frogg88ZPqZtY73zTv6kBTe5R-F0Ll2OtV8cshzrS6Q?e=NuuA06"},"geometry":{"type":"Polygon","coordinates":[[[-88.258361,40.136222],[-88.258314,40.136697],[-88.258313,40.136707],[-88.258268,40.137158],[-88.258357,40.137136],[-88.25862,40.137174],[-88.258977,40.137195],[-88.258978,40.137072],[-88.258983,40.136989],[-88.258998,40.136906],[-88.259021,40.136824],[-88.259053,40.136744],[-88.259094,40.136666],[-88.259144,40.136592],[-88.259201,40.136521],[-88.259215,40.136504],[-88.25928,40.13644],[-88.259351,40.13638],[-88.259428,40.136325],[-88.25951,40.136274],[-88.259598,40.136229],[-88.25969,40.13619],[-88.259786,40.136156],[-88.259885,40.136129],[-88.259987,40.136107],[-88.260247,40.136062],[-88.260195,40.136043],[-88.260088,40.136004],[-88.260032,40.135984],[-88.258361,40.136222]]]},"id":32},{"type":"Feature","properties":{"name":"Seasons at Champaign (parent-Jay Javers PD)","case":"PL05-0019","address":"2001-2002 Moreland Blvd","status":"Conforming","link":"https://cityofchampaign.sharepoint.com/:b:/g/EZN07EX_DdZPs_uojSDwuzUBFFjaeKLN01Q2-9cvyQmkNA?e=qiSs8Y"},"geometry":{"type":"Polygon","coordinates":[[[-88.248755,40.13969],[-88.248529,40.13969],[-88.248557,40.14115],[-88.248716,40.141151],[-88.249096,40.141152],[-88.249811,40.141154],[-88.249811,40.141073],[-88.249811,40.141016],[-88.249811,40.140578],[-88.250754,40.140576],[-88.250737,40.139692],[-88.248755,40.13969]]]},"id":33},{"type":"Feature","properties":{"name":"I-Fab 3 Building","case":"PL11-0025","address":"210 Hazelwood Dr.","status":"Conforming","link":"https://cityofchampaign.sharepoint.com/:b:/g/EctCwbVBdjtHr1hh7C2xDSIBsQNAasZgueojHF44ly66zw?e=nOtH1l"},"geometry":{"type":"Polygon","coordinates":[[[-88.235451,40.090927],[-88.235457,40.091792],[-88.236528,40.091785],[-88.236522,40.09092],[-88.235451,40.090927]]]},"id":34},{"type":"Feature","properties":{"name":"Bradley Apartments","case":"PL11-0035","address":"1910 West Bradley","status":"Conforming","link":"https://cityofchampaign.sharepoint.com/:b:/g/EcfEdhaAoWBNvxEcy6ANLXgBjW_Y_RehZ-g4KP-DmyvNJQ?e=c0YG50"},"geometry":{"type":"Polygon","coordinates":[[[-88.281929,40.128507],[-88.281928,40.127636],[-88.281722,40.127634],[-88.281113,40.127628],[-88.281059,40.127628],[-88.281061,40.127601],[-88.281061,40.1276],[-88.281061,40.127587],[-88.280664,40.127583],[-88.280665,40.127597],[-88.280664,40.127597],[-88.280664,40.127597],[-88.28061,40.127596],[-88.280009,40.127591],[-88.280029,40.128414],[-88.280684,40.12842],[-88.280735,40.130635],[-88.280967,40.130688],[-88.280987,40.130667],[-88.281137,40.130502],[-88.281236,40.130188],[-88.281265,40.129831],[-88.281321,40.129651],[-88.281345,40.129585],[-88.281377,40.129521],[-88.281417,40.129459],[-88.281463,40.1294],[-88.281688,40.129142],[-88.281741,40.129077],[-88.281787,40.129009],[-88.281828,40.128939],[-88.281862,40.128867],[-88.281889,40.128794],[-88.28191,40.128719],[-88.281924,40.128643],[-88.281981,40.128628],[-88.28203,40.128614],[-88.282034,40.128479],[-88.28197,40.128496],[-88.281929,40.128507]]]},"id":35},{"type":"Feature","properties":{"name":"The Cove","case":"PL11-0057","address":"The Cove Subdivision","status":"Conforming","link":"https://cityofchampaign.sharepoint.com/:b:/g/EcLOotIRl19Iu49Uv3cSfuEB3DrSUCgNc1IRo-PDXioQxQ?e=V7lGeg"},"geometry":{"type":"Polygon","coordinates":[[[-88.307747,40.128759],[-88.308039,40.128462],[-88.307426,40.128077],[-88.306567,40.128086],[-88.306305,40.128211],[-88.30602,40.12843],[-88.306026,40.128778],[-88.306346,40.128774],[-88.306451,40.128508],[-88.30656,40.128565],[-88.306479,40.128773],[-88.306468,40.128999],[-88.306527,40.129331],[-88.306541,40.12937],[-88.306641,40.129633],[-88.307097,40.129638],[-88.307655,40.129643],[-88.308033,40.12964],[-88.308184,40.129629],[-88.308336,40.129599],[-88.308368,40.129482],[-88.308223,40.129271],[-88.308131,40.129093],[-88.307747,40.128759]]]},"id":36},{"type":"Feature","properties":{"name":"HERE @ University of Illinois","case":"PL13-0035","address":"308 E. Green St","status":"Non-Conforming (Pending)","link":"https://cityofchampaign.sharepoint.com/:b:/g/Ec5d3J0PG5JBjZfLyeiYvmQBenmwYn4z0iXZamxxGfWBKw?e=qHnJaP"},"geometry":{"type":"Polygon","coordinates":[[[-88.233698,40.110762],[-88.233961,40.11076],[-88.234145,40.110758],[-88.234334,40.110757],[-88.234335,40.110351],[-88.234146,40.110353],[-88.233955,40.110355],[-88.233692,40.110357],[-88.233698,40.110762]]]},"id":37},{"type":"Feature","properties":{"name":"Suites at Third","case":"PL15-0029","address":"707 S Third St","status":"Under Construction","link":"https://cityofchampaign.sharepoint.com/:b:/g/Eb4SMo13BCNCnCiMD8EtMpwByBObANC5_Zof-PstqpjclA?e=23zN07"},"geometry":{"type":"Polygon","coordinates":[[[-88.235499,40.10962],[-88.235737,40.109618],[-88.235974,40.109616],[-88.236212,40.109614],[-88.236449,40.109612],[-88.236445,40.109128],[-88.236208,40.109129],[-88.23597,40.109131],[-88.23579,40.109132],[-88.23579,40.109345],[-88.235735,40.109345],[-88.235497,40.109346],[-88.235498,40.109491],[-88.235499,40.10962]]]},"id":38},{"type":"Feature","properties":{"name":"Carle Sports Medicine Facility","case":"PL15-0023","address":"2300 South First Street","status":"Under Construction","link":"https://cityofchampaign.sharepoint.com/:b:/g/EW_qjpiNHPBLnNj22aX9DLgBubj5iA_cIQOtzHTbu3fnKQ?e=kvHa65"},"geometry":{"type":"Polygon","coordinates":[[[-88.237992,40.085119],[-88.237982,40.083564],[-88.237982,40.083556],[-88.237956,40.083555],[-88.237892,40.083555],[-88.237893,40.083512],[-88.237527,40.083517],[-88.237161,40.083527],[-88.236795,40.083544],[-88.23643,40.083566],[-88.23643,40.083566],[-88.236334,40.083578],[-88.235897,40.083631],[-88.235733,40.083637],[-88.234402,40.083682],[-88.2344,40.083682],[-88.2344,40.083682],[-88.2344,40.083754],[-88.234467,40.083782],[-88.23453,40.083815],[-88.234589,40.083852],[-88.234643,40.083894],[-88.234691,40.08394],[-88.234733,40.083989],[-88.235657,40.085196],[-88.235734,40.085195],[-88.235799,40.085195],[-88.2358,40.085178],[-88.235806,40.085156],[-88.235818,40.085133],[-88.235834,40.085113],[-88.235854,40.085095],[-88.235879,40.08508],[-88.235906,40.085069],[-88.235935,40.085061],[-88.235966,40.085057],[-88.235997,40.085058],[-88.236028,40.085063],[-88.236057,40.085071],[-88.236083,40.085084],[-88.236107,40.085099],[-88.23612,40.085111],[-88.236217,40.085111],[-88.237992,40.085119]]]},"id":39},{"type":"Feature","properties":{"name":"Campus Center (Parking Lot J)","case":"PL13-0071","address":"524-526 E. Green St; 601 S. Sixth St","status":"Conforming","link":"https://cityofchampaign.sharepoint.com/:b:/g/EdCaXie2bC9Oru0SgApmyDIB4xEvGrrkUBhjnWMcL7LsEQ?e=HzPeK8"},"geometry":{"type":"Polygon","coordinates":[[[-88.231101,40.110391],[-88.23101,40.110393],[-88.230985,40.110393],[-88.230903,40.110394],[-88.230749,40.110396],[-88.230756,40.110656],[-88.230761,40.110869],[-88.230523,40.110872],[-88.230523,40.1109],[-88.230524,40.110928],[-88.230524,40.110937],[-88.230534,40.11142],[-88.23077,40.111418],[-88.230927,40.111416],[-88.231005,40.111415],[-88.231084,40.111415],[-88.231241,40.111413],[-88.231237,40.110919],[-88.231237,40.110891],[-88.231236,40.110864],[-88.23122,40.110864],[-88.231209,40.110864],[-88.231115,40.110865],[-88.231104,40.110422],[-88.231101,40.110391]]]},"id":40},{"type":"Feature","properties":{"name":"Z4 Building in the South Research Park","case":"PL13-0043","address":"210 Hazelwood Drive","status":"Conforming","link":"https://cityofchampaign.sharepoint.com/:b:/g/Eei_YrXlTFtIvW52MCY-cLcBWT_tEaN3okjRBovQdmCLSw?e=vvkS8W"},"geometry":{"type":"Polygon","coordinates":[[[-88.236424,40.092212],[-88.236805,40.092213],[-88.238058,40.092214],[-88.238057,40.092186],[-88.238057,40.092131],[-88.238057,40.092105],[-88.23805,40.091093],[-88.23786,40.090927],[-88.237588,40.090929],[-88.237395,40.090914],[-88.236522,40.09092],[-88.236528,40.091785],[-88.235457,40.091792],[-88.235458,40.092028],[-88.235458,40.092057],[-88.235458,40.092067],[-88.236423,40.092061],[-88.236424,40.092185],[-88.236424,40.092212]]]},"id":41},{"type":"Feature","properties":{"name":"Midtown Plaza","case":"PL16-0016","address":"202 and 210 S. First St","status":"Conforming","link":"https://cityofchampaign.sharepoint.com/:b:/g/EVw-e2C8ScJBknyKJyMrub0BU0FUvHQYR2isjG_N6hjiFQ?e=UamMtx"},"geometry":{"type":"Polygon","coordinates":[[[-88.23815,40.113362],[-88.23815,40.113362],[-88.238132,40.113362],[-88.238132,40.113362],[-88.238078,40.113362],[-88.238079,40.113453],[-88.238079,40.113479],[-88.238079,40.113499],[-88.238079,40.113543],[-88.238133,40.113543],[-88.238133,40.113623],[-88.238135,40.113933],[-88.238136,40.114323],[-88.238614,40.114323],[-88.238611,40.113932],[-88.238609,40.113541],[-88.238608,40.11336],[-88.238606,40.113122],[-88.238605,40.112965],[-88.238603,40.112738],[-88.238132,40.112741],[-88.238133,40.112968],[-88.23815,40.112968],[-88.23815,40.113281],[-88.23815,40.113362]]]},"id":42},{"type":"Feature","properties":{"name":"Latitude","case":"PL14-0014","address":"604 E. University","status":"Conforming","link":"https://cityofchampaign.sharepoint.com/:b:/g/EUZzbKCjGnxHqrGnOxhQFysBPKdadIonDw7qLpdJM07mmw?e=mUnOd5"},"geometry":{"type":"Polygon","coordinates":[[[-88.231043,40.116478],[-88.230573,40.116479],[-88.23033,40.11648],[-88.22997,40.116481],[-88.229131,40.116484],[-88.22911,40.116484],[-88.229084,40.116505],[-88.229067,40.116531],[-88.228988,40.1168],[-88.228953,40.116915],[-88.228909,40.117028],[-88.228899,40.117052],[-88.2289,40.117072],[-88.228902,40.117261],[-88.229142,40.117261],[-88.229836,40.117258],[-88.230338,40.117256],[-88.230575,40.117249],[-88.230575,40.117485],[-88.230576,40.117711],[-88.230576,40.117845],[-88.230576,40.11789],[-88.230577,40.118251],[-88.231305,40.118248],[-88.231304,40.117887],[-88.230811,40.117889],[-88.230812,40.117844],[-88.230811,40.117483],[-88.23081,40.117249],[-88.231516,40.117247],[-88.231752,40.117246],[-88.231987,40.117246],[-88.231987,40.117246],[-88.231978,40.116883],[-88.231986,40.116832],[-88.231985,40.116476],[-88.231043,40.116478]]]},"id":43},{"type":"Feature","properties":{"name":"South Research Park No. 13 Preliminary PD","case":"PL16-0053","address":"Fourth St (St. Mary's Rd & Hazelwood Dr)"},"geometry":{"type":"MultiPolygon","coordinates":[[[[-88.238088,40.092835],[-88.238087,40.092826],[-88.238086,40.092817],[-88.238084,40.092808],[-88.238083,40.092799],[-88.238082,40.09279],[-88.238081,40.09278],[-88.238079,40.09277],[-88.238078,40.092759],[-88.238077,40.092748],[-88.238075,40.092738],[-88.238074,40.092727],[-88.238073,40.092716],[-88.238072,40.092706],[-88.238071,40.092695],[-88.23807,40.092684],[-88.238069,40.092674],[-88.238068,40.092663],[-88.238067,40.092652],[-88.238066,40.092641],[-88.238066,40.092631],[-88.238065,40.09262],[-88.238064,40.092609],[-88.238063,40.092599],[-88.238063,40.092588],[-88.238062,40.092577],[-88.238062,40.092566],[-88.238061,40.092556],[-88.238061,40.092545],[-88.238061,40.092534],[-88.23806,40.092524],[-88.23806,40.092513],[-88.23806,40.092502],[-88.23806,40.092491],[-88.238059,40.092481],[-88.238059,40.09247],[-88.238058,40.092214],[-88.236805,40.092213],[-88.236424,40.092212],[-88.236424,40.092185],[-88.236423,40.092061],[-88.235458,40.092067],[-88.235458,40.092057],[-88.235458,40.092028],[-88.235457,40.091792],[-88.235456,40.091676],[-88.235451,40.090927],[-88.234447,40.090934],[-88.234448,40.090969],[-88.23434,40.091008],[-88.234344,40.091653],[-88.234344,40.091661],[-88.234344,40.091669],[-88.234344,40.091677],[-88.234344,40.091684],[-88.234343,40.091692],[-88.234343,40.0917],[-88.234343,40.091708],[-88.234343,40.091716],[-88.234342,40.091723],[-88.234342,40.091731],[-88.234342,40.091739],[-88.234341,40.091747],[-88.23434,40.091755],[-88.23434,40.091762],[-88.234339,40.09177],[-88.234339,40.091778],[-88.234338,40.091786],[-88.234337,40.091794],[-88.234336,40.091801],[-88.234335,40.091809],[-88.234335,40.091817],[-88.234334,40.091825],[-88.234333,40.091832],[-88.234332,40.09184],[-88.23433,40.091848],[-88.234329,40.091856],[-88.234328,40.091864],[-88.234327,40.091871],[-88.234326,40.091879],[-88.234324,40.091887],[-88.234323,40.091895],[-88.234321,40.091902],[-88.23432,40.09191],[-88.234319,40.091918],[-88.234317,40.091925],[-88.234315,40.091933],[-88.234314,40.091941],[-88.234312,40.091948],[-88.23431,40.091956],[-88.234309,40.091964],[-88.234307,40.091972],[-88.234305,40.091979],[-88.234303,40.091987],[-88.234301,40.091995],[-88.234299,40.092002],[-88.234297,40.09201],[-88.234295,40.092017],[-88.234293,40.092025],[-88.23429,40.092033],[-88.234288,40.09204],[-88.234286,40.092048],[-88.234284,40.092056],[-88.234281,40.092063],[-88.234279,40.092071],[-88.234276,40.092078],[-88.234274,40.092086],[-88.234271,40.092093],[-88.234269,40.092101],[-88.234266,40.092108],[-88.234263,40.092116],[-88.23426,40.092124],[-88.234258,40.092131],[-88.234255,40.092139],[-88.234252,40.092146],[-88.234249,40.092154],[-88.234246,40.092161],[-88.234243,40.092168],[-88.23424,40.092176],[-88.234237,40.092183],[-88.234234,40.092191],[-88.234231,40.092198],[-88.234227,40.092206],[-88.234224,40.092213],[-88.234221,40.09222],[-88.234217,40.092228],[-88.234214,40.092235],[-88.234211,40.092242],[-88.234207,40.09225],[-88.234204,40.092257],[-88.2342,40.092264],[-88.234196,40.092272],[-88.234193,40.092279],[-88.234189,40.092286],[-88.234185,40.092293],[-88.234181,40.092301],[-88.234178,40.092308],[-88.234174,40.092315],[-88.23417,40.092322],[-88.234166,40.092329],[-88.234162,40.092337],[-88.234158,40.092344],[-88.234154,40.092351],[-88.23415,40.092358],[-88.234145,40.092365],[-88.234141,40.092372],[-88.234137,40.092379],[-88.234133,40.092386],[-88.234128,40.092394],[-88.234124,40.092401],[-88.234119,40.092408],[-88.234115,40.092415],[-88.23411,40.092422],[-88.234106,40.092429],[-88.234101,40.092436],[-88.234097,40.092442],[-88.234092,40.092449],[-88.234087,40.092456],[-88.234082,40.092463],[-88.234078,40.09247],[-88.234073,40.092477],[-88.234068,40.092484],[-88.234063,40.092491],[-88.234058,40.092497],[-88.234053,40.092504],[-88.234048,40.092511],[-88.234043,40.092518],[-88.234038,40.092524],[-88.234032,40.092531],[-88.234027,40.092538],[-88.234022,40.092545],[-88.234017,40.092551],[-88.234011,40.092558],[-88.234006,40.092564],[-88.234001,40.092571],[-88.233995,40.092578],[-88.23399,40.092584],[-88.233984,40.092591],[-88.233978,40.092597],[-88.233973,40.092604],[-88.233967,40.09261],[-88.233962,40.092617],[-88.233956,40.092623],[-88.23395,40.09263],[-88.233944,40.092636],[-88.233938,40.092642],[-88.233932,40.092649],[-88.233927,40.092655],[-88.233921,40.092662],[-88.233915,40.092668],[-88.233909,40.092674],[-88.233903,40.09268],[-88.233896,40.092687],[-88.23389,40.092693],[-88.233884,40.092699],[-88.233878,40.092705],[-88.233872,40.092711],[-88.233865,40.092717],[-88.233859,40.092724],[-88.233853,40.09273],[-88.233846,40.092736],[-88.233841,40.092741],[-88.233835,40.092746],[-88.23383,40.092751],[-88.233824,40.092757],[-88.233819,40.092762],[-88.233814,40.092767],[-88.233808,40.092773],[-88.233803,40.092778],[-88.233798,40.092784],[-88.233792,40.092789],[-88.233765,40.092818],[-88.23376,40.092824],[-88.233754,40.09283],[-88.233749,40.092836],[-88.233744,40.092842],[-88.233738,40.092848],[-88.233733,40.092854],[-88.233728,40.09286],[-88.233723,40.092866],[-88.233718,40.092872],[-88.233713,40.092878],[-88.233708,40.092884],[-88.233703,40.092891],[-88.233698,40.092897],[-88.233693,40.092903],[-88.233688,40.092909],[-88.233683,40.092915],[-88.233679,40.092922],[-88.233674,40.092928],[-88.233669,40.092934],[-88.233665,40.092941],[-88.23366,40.092947],[-88.233655,40.092953],[-88.233651,40.09296],[-88.233646,40.092966],[-88.233642,40.092972],[-88.233638,40.092979],[-88.233633,40.092985],[-88.233629,40.092992],[-88.233625,40.092998],[-88.23362,40.093004],[-88.233616,40.093011],[-88.233612,40.093017],[-88.233608,40.093024],[-88.233604,40.09303],[-88.2336,40.093037],[-88.233596,40.093044],[-88.233592,40.09305],[-88.233588,40.093057],[-88.233584,40.093063],[-88.23358,40.09307],[-88.233577,40.093077],[-88.233573,40.093083],[-88.233569,40.09309],[-88.233566,40.093097],[-88.233562,40.093103],[-88.233558,40.09311],[-88.233555,40.093117],[-88.233552,40.093123],[-88.233548,40.09313],[-88.233545,40.093137],[-88.233541,40.093144],[-88.233538,40.093151],[-88.233535,40.093157],[-88.233532,40.093164],[-88.233529,40.093171],[-88.233525,40.093178],[-88.233522,40.093185],[-88.233519,40.093191],[-88.233516,40.093198],[-88.233513,40.093205],[-88.233511,40.093212],[-88.233508,40.093219],[-88.233505,40.093226],[-88.233502,40.093233],[-88.233499,40.09324],[-88.233497,40.093247],[-88.233494,40.093254],[-88.233492,40.093261],[-88.233489,40.093268],[-88.233487,40.093275],[-88.233484,40.093282],[-88.233482,40.093289],[-88.233479,40.093296],[-88.233477,40.093303],[-88.233475,40.09331],[-88.233473,40.093317],[-88.23347,40.093324],[-88.233468,40.093331],[-88.233466,40.093338],[-88.233464,40.093345],[-88.233462,40.093352],[-88.23346,40.093359],[-88.233458,40.093366],[-88.233457,40.093373],[-88.233455,40.09338],[-88.233453,40.093388],[-88.233451,40.093395],[-88.23345,40.093402],[-88.233448,40.093409],[-88.233446,40.093416],[-88.233445,40.093423],[-88.233443,40.09343],[-88.233442,40.093437],[-88.233441,40.093445],[-88.233439,40.093452],[-88.233438,40.093459],[-88.233437,40.093466],[-88.233436,40.093473],[-88.233434,40.093481],[-88.233433,40.093488],[-88.233432,40.093495],[-88.233431,40.093502],[-88.23343,40.093509],[-88.233429,40.093516],[-88.233429,40.093524],[-88.233428,40.093531],[-88.233427,40.093538],[-88.233426,40.093545],[-88.233426,40.093553],[-88.233425,40.09356],[-88.233424,40.093567],[-88.233424,40.093574],[-88.233423,40.093581],[-88.233423,40.093589],[-88.233422,40.093596],[-88.233422,40.093603],[-88.233422,40.09361],[-88.233421,40.093618],[-88.233421,40.093625],[-88.233421,40.093632],[-88.233421,40.093639],[-88.233421,40.093647],[-88.233421,40.093654],[-88.233421,40.093661],[-88.233421,40.093759],[-88.233422,40.093918],[-88.233424,40.094174],[-88.23346,40.094289],[-88.233536,40.094414],[-88.23368,40.094413],[-88.233681,40.094413],[-88.235839,40.094408],[-88.23584,40.094408],[-88.23584,40.094408],[-88.235841,40.094408],[-88.23584,40.094406],[-88.235568,40.093628],[-88.235567,40.093625],[-88.235568,40.093625],[-88.235635,40.093611],[-88.235636,40.093611],[-88.236741,40.093385],[-88.23655,40.092834],[-88.238088,40.092835]]],[[[-88.23809,40.092845],[-88.238092,40.092856],[-88.238093,40.092866],[-88.238095,40.092876],[-88.238097,40.092886],[-88.238099,40.092896],[-88.2381,40.092907],[-88.238102,40.092917],[-88.238088,40.092835],[-88.23809,40.092845]]]]},"id":44},{"type":"Feature","properties":{"name":"Bristol Place Preliminary PD","case":"PL17-0023","address":"N Market St.","status":"Conforming"},"geometry":{"type":"Polygon","coordinates":[[[-88.235111,40.130431],[-88.235569,40.130428],[-88.235636,40.130428],[-88.235955,40.130425],[-88.236143,40.130424],[-88.236143,40.13044],[-88.236149,40.130934],[-88.236338,40.130933],[-88.236528,40.130932],[-88.236717,40.130931],[-88.236907,40.13093],[-88.237096,40.130929],[-88.237286,40.130928],[-88.237475,40.130927],[-88.237665,40.130926],[-88.237843,40.130925],[-88.238021,40.130924],[-88.238199,40.130923],[-88.238746,40.13092],[-88.238746,40.130913],[-88.238746,40.130893],[-88.238744,40.130696],[-88.238743,40.130688],[-88.238742,40.130542],[-88.23874,40.130405],[-88.238738,40.130268],[-88.238737,40.13013],[-88.238735,40.129992],[-88.238733,40.129854],[-88.238732,40.129716],[-88.23873,40.129578],[-88.238728,40.129448],[-88.238726,40.129268],[-88.238724,40.129088],[-88.238723,40.128998],[-88.238722,40.128908],[-88.238719,40.128728],[-88.238717,40.128548],[-88.238715,40.128361],[-88.238713,40.128223],[-88.238711,40.128085],[-88.23871,40.127944],[-88.238707,40.127763],[-88.237954,40.127763],[-88.237953,40.127622],[-88.237952,40.12742],[-88.237952,40.127417],[-88.237952,40.127414],[-88.237951,40.127359],[-88.237771,40.127365],[-88.23759,40.127371],[-88.237406,40.127378],[-88.237229,40.127349],[-88.237054,40.127349],[-88.236879,40.127349],[-88.236704,40.127349],[-88.23651,40.127349],[-88.236376,40.127361],[-88.236111,40.128005],[-88.235139,40.130363],[-88.235111,40.130431]]]},"id":45},{"type":"Feature","properties":{},"geometry":{"type":"Polygon","coordinates":[[[-88.235567,40.093625],[-88.235777,40.093582],[-88.235777,40.093407],[-88.236421,40.093408],[-88.236422,40.092779],[-88.236422,40.092708],[-88.235349,40.092707],[-88.23517,40.092707],[-88.235134,40.092707],[-88.235133,40.093407],[-88.235169,40.093407],[-88.235491,40.093407],[-88.235567,40.093625]]]},"id":46},{"type":"Feature","properties":{},"geometry":{"type":"Polygon","coordinates":[[[-88.236424,40.092212],[-88.236422,40.092212],[-88.236422,40.092708],[-88.236422,40.092779],[-88.238081,40.09278],[-88.238069,40.092677],[-88.238062,40.092574],[-88.238059,40.09247],[-88.238058,40.092214],[-88.236805,40.092213],[-88.236424,40.092212]]]},"id":47},{"type":"Feature","properties":{"name":"Newman Foundation","case":"PL04-0135 & others","address":"604 E Armory","status":"Under Construction","link":"https://cityofchampaign.sharepoint.com/:b:/g/EcWaedTS03xIopaaoxEd8uMBJs1dZKmidyNUOR-MQgz8lQ?e=5jk79Z"},"geometry":{"type":"Polygon","coordinates":[[[-88.230175,40.105515],[-88.22991,40.105515],[-88.229602,40.105516],[-88.229603,40.105698],[-88.229604,40.105881],[-88.229588,40.105881],[-88.229589,40.105992],[-88.229591,40.106103],[-88.229591,40.106127],[-88.229591,40.106138],[-88.229592,40.106239],[-88.229593,40.10634],[-88.229595,40.106519],[-88.229595,40.106546],[-88.229597,40.106756],[-88.229806,40.106755],[-88.229934,40.106755],[-88.2302,40.106753],[-88.230196,40.106546],[-88.230196,40.106518],[-88.230192,40.106339],[-88.230189,40.106191],[-88.230187,40.106122],[-88.230183,40.105919],[-88.230182,40.105881],[-88.230178,40.105698],[-88.230175,40.105515]]]},"id":48},{"type":"Feature","properties":{},"geometry":{"type":"Polygon","coordinates":[[[-88.265574,40.117262],[-88.265567,40.116857],[-88.265344,40.116856],[-88.265337,40.116451],[-88.265115,40.11645],[-88.264942,40.11645],[-88.264707,40.116448],[-88.264484,40.116447],[-88.264262,40.116446],[-88.26404,40.116445],[-88.263818,40.116443],[-88.263596,40.116442],[-88.263374,40.11644],[-88.263382,40.116787],[-88.263384,40.116787],[-88.263383,40.116836],[-88.263384,40.116857],[-88.263617,40.116859],[-88.263781,40.116861],[-88.263781,40.116859],[-88.263839,40.116859],[-88.263838,40.116861],[-88.26405,40.116863],[-88.264051,40.116886],[-88.26406,40.117248],[-88.264282,40.11725],[-88.264282,40.11725],[-88.264505,40.117252],[-88.264727,40.117254],[-88.264957,40.117256],[-88.265129,40.117256],[-88.265129,40.117258],[-88.265352,40.11726],[-88.265352,40.11726],[-88.265574,40.117262]]]},"id":49},{"type":"Feature","properties":{},"geometry":{"type":"Polygon","coordinates":[[[-88.254113,40.108936],[-88.255743,40.108942],[-88.255699,40.105413],[-88.255201,40.105413],[-88.254889,40.105413],[-88.254582,40.105412],[-88.254084,40.105412],[-88.254113,40.108936]]]},"id":50},{"type":"Feature","properties":{},"geometry":{"type":"Polygon","coordinates":[[[-88.252626,40.118347],[-88.252762,40.118166],[-88.253004,40.118165],[-88.253002,40.117777],[-88.253038,40.117777],[-88.253116,40.117776],[-88.253334,40.117776],[-88.253548,40.117776],[-88.253762,40.117776],[-88.253762,40.117846],[-88.253762,40.117927],[-88.253762,40.118165],[-88.253975,40.118165],[-88.254188,40.118165],[-88.254188,40.118164],[-88.254184,40.117777],[-88.254183,40.117638],[-88.254181,40.117389],[-88.254179,40.117163],[-88.254175,40.116788],[-88.254175,40.116782],[-88.254172,40.116513],[-88.254172,40.116466],[-88.254171,40.116401],[-88.253956,40.1164],[-88.253741,40.1164],[-88.253526,40.116399],[-88.253311,40.116399],[-88.253096,40.116398],[-88.251888,40.116395],[-88.251893,40.117167],[-88.251894,40.117393],[-88.251895,40.117575],[-88.251895,40.117651],[-88.251896,40.117756],[-88.251897,40.117846],[-88.251898,40.118166],[-88.251899,40.118347],[-88.251899,40.118347],[-88.251663,40.118348],[-88.250698,40.11835],[-88.250247,40.118352],[-88.250252,40.119118],[-88.251668,40.119117],[-88.251904,40.119116],[-88.252192,40.119116],[-88.252387,40.119116],[-88.252429,40.119116],[-88.25264,40.119116],[-88.252638,40.118759],[-88.252638,40.118731],[-88.252637,40.118709],[-88.252627,40.118709],[-88.252626,40.118347]]]},"id":51},{"type":"Feature","properties":{},"geometry":{"type":"Polygon","coordinates":[[[-88.281426,40.104694],[-88.281491,40.108974],[-88.281491,40.108974],[-88.282278,40.108967],[-88.282255,40.107449],[-88.284457,40.107439],[-88.284442,40.105627],[-88.284437,40.105006],[-88.284435,40.104721],[-88.281427,40.104694],[-88.281426,40.104694]]]},"id":52},{"type":"Feature","properties":{},"geometry":{"type":"Polygon","coordinates":[[[-88.246932,40.114101],[-88.247194,40.114101],[-88.247194,40.114135],[-88.247398,40.114135],[-88.247602,40.114135],[-88.247658,40.114135],[-88.247658,40.113992],[-88.247875,40.113992],[-88.248108,40.113992],[-88.248295,40.113992],[-88.24834,40.113992],[-88.248339,40.113849],[-88.248339,40.113707],[-88.248338,40.113565],[-88.248337,40.113422],[-88.248336,40.11328],[-88.248335,40.113137],[-88.248284,40.113138],[-88.247657,40.113139],[-88.247601,40.113139],[-88.247601,40.11308],[-88.246926,40.113078],[-88.246927,40.113277],[-88.246927,40.113278],[-88.246928,40.11342],[-88.246929,40.113563],[-88.246929,40.113706],[-88.24693,40.11385],[-88.246931,40.113993],[-88.246932,40.114101]]]},"id":53}]}