{"type":"FeatureCollection","features":[{"type":"Feature","properties":{"address":"1001 W. Bradley Ave","type":"Auto repair facility in Single-Family Residential (SF-1) Zoning District","case":"PL07-0033","status":"Conforming","effective":"2007-05-15","link":"https://cityofchampaign.sharepoint.com/_layouts/15/guestaccess.aspx?guestaccesstoken=fQzus88rHe7Bm60CgsEkvLgLQFdyY46Z4bAXWyffw2Q%3d&docid=0aa24f899a17b4b0cbe82702687497724&rev=1"},"geometry":{"type":"Polygon","coordinates":[[[-88.260631,40.127129],[-88.260628,40.126759],[-88.260441,40.126757],[-88.260443,40.127127],[-88.260631,40.127129]]]},"id":0},{"type":"Feature","properties":{"address":"90 E. Bradley Ave","type":"Auto repair facility in Neighborhood Commercial (CN) Zoning District","case":"1694-02-01-SU","status":"Expired","effective":"2002-04-16","link":"https://cityofchampaign.sharepoint.com/_layouts/15/guestaccess.aspx?guestaccesstoken=slvrD1dyP%2f9LKZGEpeD5g283Pb8HcxHQCOXO51oq6hM%3d&docid=0bb6f1b6b6c1045f9a8be25eacc1da96f&rev=1"},"geometry":{"type":"Polygon","coordinates":[[[-88.239369,40.127496],[-88.239368,40.127314],[-88.23894,40.127316],[-88.238943,40.127498],[-88.239369,40.127496]]]},"id":1},{"type":"Feature","properties":{"address":"1509 W. John St","type":"Accessory parking lot which is not immediately adjacent to the use which it serves","case":"1580-97-01-SU","status":"Conforming","effective":"1997-09-16","link":"https://cityofchampaign.sharepoint.com/_layouts/15/guestaccess.aspx?guestaccesstoken=aG6TMkooiuC4vMgmyUhUp1mEd%2fTiJvY2jZXz7XUWUTo%3d&docid=060eabb13ef7b41acab825fb3d62c8a9e&rev=1"},"geometry":{"type":"Polygon","coordinates":[[[-88.271938,40.109094],[-88.271362,40.109089],[-88.27138,40.109612],[-88.271952,40.109617],[-88.271938,40.109094]]]},"id":2},{"type":"Feature","properties":{"address":"1002 S. Staley Rd","type":"Operation of 42-unit elderly persons assisted living facility in Com. Office (CO) Zoning District","case":"PL10-0044","status":"Conforming","link":"https://cityofchampaign.sharepoint.com/_layouts/15/guestaccess.aspx?guestaccesstoken=dkSwI028C5T2oCtfMgoB9QQ65lKM%2bb4LpQrIvHsfszs%3d&docid=000b723e2dd24450c83904a323aa87afe&rev=1"},"geometry":{"type":"Polygon","coordinates":[[[-88.312537,40.105688],[-88.312542,40.105792],[-88.312542,40.105796],[-88.312543,40.105824],[-88.313207,40.105816],[-88.313207,40.105814],[-88.313212,40.105782],[-88.313226,40.105752],[-88.313249,40.105726],[-88.313279,40.105704],[-88.313315,40.105688],[-88.313321,40.105686],[-88.313402,40.105677],[-88.313466,40.105691],[-88.313519,40.105722],[-88.314232,40.105717],[-88.314225,40.105155],[-88.313311,40.105161],[-88.312486,40.105167],[-88.312479,40.105167],[-88.31248,40.105171],[-88.312488,40.105272],[-88.312497,40.105376],[-88.312497,40.10538],[-88.312514,40.10548],[-88.312531,40.105584],[-88.312531,40.105588],[-88.312537,40.105688]]]},"id":3},{"type":"Feature","properties":{"address":"1313 N. Clock St","type":"Community building located in Single-Family Residential (SF-1) Zoning District","case":"PL03-0048","status":"Expired","effective":"2003-06-17","link":"https://cityofchampaign.sharepoint.com/:b:/g/Eexe7q1aYmlKvkICG4Fd-nEBTmv-L1VM2QFDpjhnck3CeA?e=wPUTzV"},"geometry":{"type":"Polygon","coordinates":[[[-88.237261,40.12935],[-88.23726,40.12924],[-88.236903,40.129243],[-88.236904,40.129353],[-88.237261,40.12935]]]},"id":4},{"type":"Feature","properties":{"address":"32 E. Green St","type":"Rooming house located in Commercial General (CG) Zoning District","case":"PL04-0001","status":"Expired","effective":"2003-02-18","link":"https://cityofchampaign.sharepoint.com/_layouts/15/guestaccess.aspx?guestaccesstoken=qDbScjaWs6%2bbORJzJwwQqQIqTfz4cbJdCDTfo%2fKoXTk%3d&docid=0bd7a795bbb9f47138909d028d1868963&rev=1"},"geometry":{"type":"Polygon","coordinates":[[[-88.241056,40.110708],[-88.241087,40.110296],[-88.240933,40.110297],[-88.240903,40.110708],[-88.241056,40.110708]]]},"id":5},{"type":"Feature","properties":{"address":"102 S. Mattis Ave","type":"Service station located within Neighborhood Commercial (CO) Zoning District","case":"PL08-0028","status":"Conforming","effective":"2003-04-15","link":"https://cityofchampaign.sharepoint.com/_layouts/15/guestaccess.aspx?guestaccesstoken=PgG0YHoA26ORgUdKg4IgXwtzv86jYuqeoCR02JcQHoY%3d&docid=078835c55166048afad380c000d67c6a8&rev=1"},"geometry":{"type":"Polygon","coordinates":[[[-88.276657,40.11597],[-88.276032,40.115964],[-88.276038,40.116327],[-88.276662,40.116334],[-88.276657,40.11597]]]},"id":6},{"type":"Feature","properties":{"address":"301 Birch St","type":"Limited Retail use in building for Office in a Neighborhood Commercial (CN) Zoning District","case":"PL03-0014","status":"Conforming","effective":"2003-03-19","link":"https://cityofchampaign.sharepoint.com/_layouts/15/guestaccess.aspx?guestaccesstoken=%2bCujdhEI1jSit3j5flTDC2wZH4Seclf4FGlEeK6jqrc%3d&docid=0ac3227127aae4926883bd24dd73e58ab&rev=1"},"geometry":{"type":"Polygon","coordinates":[[[-88.248111,40.099457],[-88.248106,40.099087],[-88.246781,40.099087],[-88.246785,40.099837],[-88.247165,40.099839],[-88.247162,40.099461],[-88.248111,40.099457]]]},"id":7},{"type":"Feature","properties":{"address":"509 S. 4th & 314 E. Healey","type":"Orthodox Jewish Student Center and Attendant Rabbinical Residence in MF-3","case":"PL05-0054","status":"Conforming","link":"https://cityofchampaign.sharepoint.com/_layouts/15/guestaccess.aspx?guestaccesstoken=JXBOayLKJxwCs%2bRCo3GrVGjEN7BqoFZefLPNxFZ77oY%3d&docid=041cc2ee0c61b45e19b4cef5d7f2e0907&rev=1"},"geometry":{"type":"Polygon","coordinates":[[[-88.234188,40.111755],[-88.234184,40.111568],[-88.233711,40.11157],[-88.233714,40.111755],[-88.234188,40.111755]]]},"id":8},{"type":"Feature","properties":{"address":"1511 W. Springfield Ave","type":"Drive-thru window in a proposed restaurant in Neighborhood Commercial (CN) Zoning District","case":"1687-02-01-SU","status":"Conforming","effective":"2002-04-02"},"geometry":{"type":"Polygon","coordinates":[[[-88.271849,40.112705],[-88.271846,40.11232],[-88.271411,40.112316],[-88.271413,40.112701],[-88.271849,40.112705]]]},"id":9},{"type":"Feature","properties":{"address":"1410 N. Neil","type":"Taxi-cab company located in Multi-Family High Density Residential (MF-3) Zoning District","case":"PL04-0091","status":"Expired","link":"https://cityofchampaign.sharepoint.com/:b:/g/EWz3ty4FnMZGh_Ahqohq8VgB48Rr1FMYbUYxJxwAG7GpEg?e=ufbBRF"},"geometry":{"type":"Polygon","coordinates":[[[-88.243513,40.130829],[-88.243509,40.130325],[-88.243036,40.130328],[-88.243042,40.130833],[-88.243513,40.130829]]]},"id":10},{"type":"Feature","properties":{"address":"504 S. Neil St.","type":"Allowing a radio-tower with leased locations on the tower in Commercial General (CG) Zoning District","case":"1585-97-01-SU","status":"Conforming","link":"https://cityofchampaign.sharepoint.com/_layouts/15/guestaccess.aspx?guestaccesstoken=ADpFv11DGXlkjqNfVFAO4ZOFeUuvZxloPr5lB5Ar6qs%3d&docid=0954e435c3f1940f0a9aa4ab8541c13c0&rev=1"},"geometry":{"type":"Polygon","coordinates":[[[-88.243362,40.111275],[-88.243357,40.110915],[-88.242933,40.110915],[-88.242933,40.111276],[-88.243362,40.111275]]]},"id":11},{"type":"Feature","properties":{"address":"604 N. Walnut","type":"Ground-floor residential in Commercial Industrial (CI) Zoning District","case":"PL06-0103","status":"Conforming","link":"https://cityofchampaign.sharepoint.com/_layouts/15/guestaccess.aspx?guestaccesstoken=lV77yyCBTVWBPiR0eGN60D%2fGApt%2fi6qnbVjh4rEbTtw%3d&docid=0684b7dc2a2714f26bbd962a60d66c0e1&rev=1"},"geometry":{"type":"Polygon","coordinates":[[[-88.241113,40.121536],[-88.241112,40.121366],[-88.240641,40.121366],[-88.240641,40.121535],[-88.241113,40.121536]]]},"id":12},{"type":"Feature","properties":{"address":"403 W. Kirby Ave","type":"Pick-up window facility in Neighborhood Commercial (CN) Zoning District","case":"PL07-0042","status":"Expired","effective":"2007-06-05","link":"https://cityofchampaign.sharepoint.com/:b:/g/EVz2Gjd7W7ZEg54DS8sFdoQBPQ4yhLk37AYg6P2YWI2rlA?e=gTznee"},"geometry":{"type":"Polygon","coordinates":[[[-88.248661,40.09801],[-88.248876,40.098012],[-88.248877,40.097504],[-88.248658,40.097503],[-88.248659,40.097667],[-88.248661,40.09801]]]},"id":13},{"type":"Feature","properties":{"address":"503 S. Locust St.","type":"Duplex in Commercial General (CG) Zoning District","case":"PL07-0018","status":"Conforming","effective":"2007-06-05","link":"https://cityofchampaign.sharepoint.com/_layouts/15/guestaccess.aspx?guestaccesstoken=e9RiNJpYlAMaMyTJx0LXJ5d46anLJcMrKndBEmnwt10%3d&docid=0c6e51262c9454809826b2b817caa27ad&rev=1"},"geometry":{"type":"Polygon","coordinates":[[[-88.240295,40.112057],[-88.240289,40.112155],[-88.240284,40.112221],[-88.240477,40.112221],[-88.24049,40.112057],[-88.240295,40.112057]]]},"id":14},{"type":"Feature","properties":{"address":"Legends of Champaign","type":"Clubhouse in SF2, Part of Annexation Agreement; CB 2007-219","case":"PL06-0100","status":"Conforming","link":"https://cityofchampaign.sharepoint.com/_layouts/15/guestaccess.aspx?guestaccesstoken=qveprUIQU1dsTAxVaIoq%2fySrxdGVsiTdXQ6yMITQ73A%3d&docid=0ad4d77781bea411e9d5021a1a4089ef7&rev=1"},"geometry":{"type":"Polygon","coordinates":[[[-88.321236,40.075482],[-88.321236,40.075084],[-88.320772,40.075084],[-88.320771,40.075482],[-88.321236,40.075482]]]},"id":15},{"type":"Feature","properties":{"address":"PASS Program 505 W University SUP","type":"Operation of the Pass Medical Board Exam Prep Facility in In-Town Mixed Use (IT-MX) Zoning District","case":"PL07-0109","status":"Expired","link":"https://cityofchampaign.sharepoint.com/:b:/g/EVVJqqQloD5NvPIRjzJn32ABUIb4sgBZquvOCIsmKTbRUw?e=aBHIue"},"geometry":{"type":"MultiPolygon","coordinates":[[[[-88.25094,40.11581],[-88.250761,40.11581],[-88.25076,40.116172],[-88.25094,40.116171],[-88.251177,40.11617],[-88.251178,40.115809],[-88.25094,40.11581]]],[[[-88.250697,40.115404],[-88.250698,40.115699],[-88.250698,40.115765],[-88.250933,40.115765],[-88.250934,40.115403],[-88.250697,40.115404]]]]},"id":16},{"type":"Feature","properties":{"address":"1508 N Ridgeway Bundles of Joy Day Care","type":"Bundles of Joy SUP - Expansion of an existing building to operate a day care center","case":"PL08-0024","status":"Conforming","link":"https://cityofchampaign.sharepoint.com/_layouts/15/guestaccess.aspx?guestaccesstoken=PY7b4OMvhbPmkY8FhSayYr2SIawYtotuxOPMj8KJWME%3d&docid=0f85e588b5a28441d995157ca342b5c92&rev=1"},"geometry":{"type":"Polygon","coordinates":[[[-88.261036,40.131526],[-88.261036,40.131536],[-88.261037,40.131552],[-88.261037,40.131563],[-88.261037,40.131565],[-88.261038,40.131715],[-88.261038,40.131727],[-88.261038,40.131733],[-88.261038,40.131739],[-88.26104,40.131914],[-88.261058,40.131914],[-88.261428,40.131919],[-88.261476,40.13192],[-88.261478,40.131853],[-88.261486,40.131786],[-88.261499,40.13172],[-88.261501,40.131714],[-88.261518,40.131655],[-88.261524,40.131636],[-88.261525,40.131632],[-88.261527,40.131628],[-88.26154,40.131586],[-88.261551,40.131543],[-88.261553,40.131533],[-88.261563,40.131465],[-88.261567,40.131395],[-88.261567,40.131391],[-88.261567,40.131386],[-88.261567,40.131381],[-88.261567,40.131377],[-88.261567,40.131363],[-88.261556,40.131363],[-88.261293,40.131359],[-88.261036,40.131356],[-88.261019,40.131356],[-88.261036,40.131526]]]},"id":17},{"type":"Feature","properties":{"address":"909 W. Kirby Ave","type":"Drive-thru facility for a bank in Neighborhood Commercial (CN) Zoning District","case":"PL04-0082","status":"Conforming","effective":"2004-10-19","link":"https://cityofchampaign.sharepoint.com/_layouts/15/guestaccess.aspx?guestaccesstoken=YwAjoT41kU%2bP1rjv1%2bY0nNAJ0098EaiOU4n%2ftaxTNSc%3d&docid=0d3ee2a928b7747b2bef910d02fd4220a&rev=1"},"geometry":{"type":"Polygon","coordinates":[[[-88.257761,40.097552],[-88.258244,40.097555],[-88.258262,40.097556],[-88.258264,40.097824],[-88.258267,40.098055],[-88.258285,40.098055],[-88.258624,40.098058],[-88.258637,40.098058],[-88.259626,40.098064],[-88.259628,40.097974],[-88.259682,40.097923],[-88.259684,40.097791],[-88.259457,40.097617],[-88.259446,40.097608],[-88.259063,40.097313],[-88.258904,40.097312],[-88.258637,40.09731],[-88.258635,40.09731],[-88.258277,40.097307],[-88.258241,40.097307],[-88.257775,40.097304],[-88.257759,40.097303],[-88.257761,40.097552]]]},"id":18},{"type":"Feature","properties":{"address":"1601 S. Prospect Ave","type":"Gas station, deli and a convenience store in Neighborhood Commercial (CN) Zoning District","case":"1634-00-02-SU","status":"Expired","effective":"2000-08-01","link":"https://cityofchampaign.sharepoint.com/:b:/g/EQS7bSdtjT1JghyNDAIAUk8BPtn7-g03Eu_pXpZHc6FVHw?e=dZs77o"},"geometry":{"type":"Polygon","coordinates":[[[-88.257763,40.097695],[-88.257764,40.097863],[-88.257768,40.097896],[-88.25778,40.097928],[-88.257798,40.097958],[-88.257823,40.097985],[-88.257854,40.098008],[-88.257889,40.098027],[-88.257928,40.098041],[-88.257969,40.09805],[-88.258012,40.098053],[-88.258267,40.098055],[-88.258264,40.097824],[-88.258262,40.097556],[-88.258244,40.097555],[-88.257761,40.097552],[-88.257763,40.097695]]]},"id":19},{"type":"Feature","properties":{"address":"1206 N. Mattis Ave","type":"Restaurant with a drive-thru service window in Neighborhood Commercial (CN) Zoning District","case":"1643-99-01-SU","status":"Expired","effective":"2000-02-01","link":"https://cityofchampaign.sharepoint.com/:b:/g/EY3WYrsRlpJAumQugvsj7pIBVijUUu5vixQC9ZxFr4W5UA?e=ZoEclo"},"geometry":{"type":"Polygon","coordinates":[[[-88.276288,40.128734],[-88.276764,40.128728],[-88.276857,40.128727],[-88.276851,40.128076],[-88.276851,40.128076],[-88.276833,40.128075],[-88.276441,40.12807],[-88.276269,40.128068],[-88.276288,40.128734]]]},"id":20},{"type":"Feature","properties":{"address":"3808 W. Springfield Ave","type":"Contractors facility in Agricultural (AG-1) Zoning District","case":"1611-00-03-SU","status":"Conforming"},"geometry":{"type":"Polygon","coordinates":[[[-88.308701,40.113843],[-88.309745,40.113862],[-88.309739,40.113326],[-88.309735,40.113326],[-88.308701,40.113313],[-88.308701,40.113843]]]},"id":21},{"type":"Feature","properties":{"address":"404 Ginger Bend","type":"Office in Multi-Family Low Density (MF-1) Zoning District","case":"PL05-0021","status":"Conforming","effective":"2005-04-19","link":"https://cityofchampaign.sharepoint.com/_layouts/15/guestaccess.aspx?guestaccesstoken=OwnA%2bmkBH%2bykAbNfjRA4ACJCmdS%2fzXLFk1p5J18XM0M%3d&docid=0c2005d6746534a90ad3c7201a895585e&rev=1"},"geometry":{"type":"Polygon","coordinates":[[[-88.291564,40.111261],[-88.291557,40.111293],[-88.291562,40.111294],[-88.291563,40.111294],[-88.291568,40.111295],[-88.291575,40.111296],[-88.29158,40.111296],[-88.29158,40.111296],[-88.291585,40.111297],[-88.291592,40.111298],[-88.291597,40.111299],[-88.291598,40.111299],[-88.291604,40.1113],[-88.29161,40.111301],[-88.291615,40.111301],[-88.291616,40.111302],[-88.291621,40.111303],[-88.291627,40.111303],[-88.291627,40.111303],[-88.291633,40.111304],[-88.291633,40.111304],[-88.291639,40.111305],[-88.291639,40.111305],[-88.291644,40.111306],[-88.291645,40.111306],[-88.29165,40.111307],[-88.291656,40.111308],[-88.291661,40.111309],[-88.29167,40.11131],[-88.291674,40.111311],[-88.291679,40.111312],[-88.29168,40.111312],[-88.291684,40.111313],[-88.291691,40.111314],[-88.291696,40.111315],[-88.291697,40.111315],[-88.291703,40.111316],[-88.291708,40.111317],[-88.291709,40.111317],[-88.291714,40.111318],[-88.29172,40.111319],[-88.291725,40.11132],[-88.291738,40.111322],[-88.291742,40.111323],[-88.291745,40.111324],[-88.291755,40.111325],[-88.29176,40.111326],[-88.291784,40.111331],[-88.291789,40.111332],[-88.29179,40.111332],[-88.291795,40.111333],[-88.291801,40.111334],[-88.291806,40.111335],[-88.291807,40.111336],[-88.291813,40.111337],[-88.291819,40.111338],[-88.291824,40.111339],[-88.291824,40.111339],[-88.29183,40.11134],[-88.291836,40.111341],[-88.291836,40.111342],[-88.291841,40.111343],[-88.291847,40.111344],[-88.291853,40.111345],[-88.291853,40.111345],[-88.291858,40.111346],[-88.291865,40.111348],[-88.29187,40.111349],[-88.29187,40.111349],[-88.291876,40.11135],[-88.291882,40.111351],[-88.291887,40.111352],[-88.291888,40.111353],[-88.291893,40.111354],[-88.291899,40.111355],[-88.291904,40.111356],[-88.29191,40.111358],[-88.291915,40.111359],[-88.291916,40.111359],[-88.291921,40.11136],[-88.291928,40.111362],[-88.291933,40.111363],[-88.291933,40.111363],[-88.291938,40.111364],[-88.291945,40.111366],[-88.291949,40.111367],[-88.291962,40.11137],[-88.291966,40.111371],[-88.291967,40.111371],[-88.291973,40.111373],[-88.291833,40.111752],[-88.291823,40.11178],[-88.291706,40.112096],[-88.291453,40.112782],[-88.291438,40.112823],[-88.293773,40.112846],[-88.293772,40.112804],[-88.293767,40.112461],[-88.294051,40.112204],[-88.294075,40.112183],[-88.29407,40.11218],[-88.294069,40.11218],[-88.294065,40.112178],[-88.294054,40.112172],[-88.29405,40.11217],[-88.294045,40.112167],[-88.294044,40.112167],[-88.29404,40.112165],[-88.294034,40.112162],[-88.29403,40.11216],[-88.29403,40.112159],[-88.294025,40.112157],[-88.29402,40.112154],[-88.294015,40.112152],[-88.294015,40.112152],[-88.294011,40.112149],[-88.29401,40.112149],[-88.294006,40.112147],[-88.294005,40.112146],[-88.294001,40.112144],[-88.293995,40.112141],[-88.293991,40.112139],[-88.293986,40.112136],[-88.293981,40.112133],[-88.293981,40.112133],[-88.293976,40.112131],[-88.293976,40.11213],[-88.293971,40.112128],[-88.293971,40.112128],[-88.293967,40.112125],[-88.293958,40.11212],[-88.293955,40.112119],[-88.293947,40.112114],[-88.293942,40.112112],[-88.293942,40.112111],[-88.293938,40.112109],[-88.293817,40.11204],[-88.293204,40.111693],[-88.29316,40.111668],[-88.293154,40.111664],[-88.293149,40.111661],[-88.293149,40.111661],[-88.293144,40.111658],[-88.29314,40.111655],[-88.293139,40.111655],[-88.293135,40.111652],[-88.293134,40.111652],[-88.29313,40.111649],[-88.293127,40.111647],[-88.293125,40.111646],[-88.293124,40.111646],[-88.29312,40.111644],[-88.293115,40.111641],[-88.293113,40.111639],[-88.293111,40.111638],[-88.29311,40.111637],[-88.293106,40.111635],[-88.293105,40.111634],[-88.293101,40.111632],[-88.293095,40.111629],[-88.293091,40.111626],[-88.293088,40.111624],[-88.293087,40.111624],[-88.293086,40.111623],[-88.293084,40.111622],[-88.293081,40.11162],[-88.29308,40.11162],[-88.293076,40.111618],[-88.293071,40.111615],[-88.293067,40.111612],[-88.293066,40.111612],[-88.293062,40.111609],[-88.293059,40.111607],[-88.293057,40.111606],[-88.293056,40.111606],[-88.293052,40.111604],[-88.293052,40.111603],[-88.293051,40.111603],[-88.293047,40.111601],[-88.293046,40.1116],[-88.293042,40.111598],[-88.293041,40.111598],[-88.293037,40.111595],[-88.293036,40.111595],[-88.293032,40.111592],[-88.293027,40.111589],[-88.293026,40.111589],[-88.293022,40.111587],[-88.293016,40.111583],[-88.293012,40.111581],[-88.293011,40.111581],[-88.293007,40.111578],[-88.293001,40.111575],[-88.292997,40.111573],[-88.292996,40.111573],[-88.292992,40.11157],[-88.292986,40.111567],[-88.292982,40.111565],[-88.292981,40.111564],[-88.292977,40.111562],[-88.292972,40.111559],[-88.292971,40.111559],[-88.292968,40.111557],[-88.292966,40.111556],[-88.292961,40.111554],[-88.292957,40.111551],[-88.292956,40.111551],[-88.292952,40.111548],[-88.292946,40.111545],[-88.292941,40.111543],[-88.292941,40.111543],[-88.292936,40.11154],[-88.29293,40.111537],[-88.292926,40.111535],[-88.292926,40.111535],[-88.292921,40.111532],[-88.292915,40.111529],[-88.292911,40.111527],[-88.292911,40.111527],[-88.292906,40.111525],[-88.292846,40.111495],[-88.292719,40.111435],[-88.292588,40.11138],[-88.292454,40.11133],[-88.29236,40.111297],[-88.2922,40.111248],[-88.292038,40.111205],[-88.291872,40.111168],[-88.291775,40.11115],[-88.291677,40.111133],[-88.291677,40.111133],[-88.291676,40.111133],[-88.291668,40.111132],[-88.291595,40.111114],[-88.291564,40.111261]]]},"id":22},{"type":"Feature","properties":{"address":"2212 N. Market St","type":"Retail in Commercial Industrial (CI) Zoning District","case":"PL05-0119","status":"Conforming","effective":"2003-03-01","link":"https://cityofchampaign.sharepoint.com/_layouts/15/guestaccess.aspx?guestaccesstoken=xCl2RPyOqKJ1J5O3m9mv7rAHXIdYQz1K25frHLlc3JU%3d&docid=0044187304451471eafa1fea6b3af80a1&rev=1"},"geometry":{"type":"Polygon","coordinates":[[[-88.238495,40.141059],[-88.238137,40.141059],[-88.237778,40.141059],[-88.23742,40.141059],[-88.23742,40.141114],[-88.237421,40.141611],[-88.237421,40.141638],[-88.237779,40.141638],[-88.238137,40.141638],[-88.238496,40.141637],[-88.23857,40.141637],[-88.238854,40.141637],[-88.238854,40.14161],[-88.238848,40.141114],[-88.238847,40.141059],[-88.238495,40.141059]]]},"id":23},{"type":"Feature","properties":{"address":"2901 W. Kirby Ave","type":"Service station in Neighborhood Commercial (CN) Zoning District","case":"1669-01-01-SU","status":"Conforming","effective":"9999-09-09","link":"https://cityofchampaign.sharepoint.com/_layouts/15/guestaccess.aspx?guestaccesstoken=oYL2YlB4lHgFCROgDHv8U%2f37e1nUswP46vfnkLqwDU8%3d&docid=05e4c252d4f1c41a2827dfa8a5cdb066c&rev=1"},"geometry":{"type":"Polygon","coordinates":[[[-88.293447,40.09634],[-88.293593,40.09634],[-88.293581,40.097608],[-88.293877,40.097609],[-88.293894,40.097609],[-88.293912,40.097609],[-88.294798,40.097612],[-88.295072,40.097612],[-88.295125,40.097613],[-88.295122,40.096905],[-88.295122,40.096794],[-88.295119,40.096108],[-88.295093,40.096108],[-88.295065,40.096108],[-88.294563,40.096103],[-88.294437,40.096102],[-88.294148,40.096099],[-88.293736,40.096096],[-88.293628,40.096096],[-88.293614,40.096117],[-88.293597,40.096137],[-88.293575,40.096154],[-88.293549,40.096167],[-88.293521,40.096178],[-88.293491,40.096184],[-88.29346,40.096186],[-88.293448,40.096186],[-88.293447,40.09634]]]},"id":24},{"type":"Feature","properties":{"address":"2302 Moreland Blvd","type":"Exam Preparatory Boarding School in Commercial General (CG) Zoning District","case":"PL05-0127","status":"Conforming","link":"https://cityofchampaign.sharepoint.com/_layouts/15/guestaccess.aspx?guestaccesstoken=agU9wJ9nFPz%2baFBhFhAJj4aBDz1kU1Fj7TLZzNuYqTQ%3d&docid=06063a2d3d8194c6b89b4e0507a759b56&rev=1"},"geometry":{"type":"Polygon","coordinates":[[[-88.248651,40.14272],[-88.248649,40.14361],[-88.248663,40.14361],[-88.249239,40.14362],[-88.251205,40.143651],[-88.251115,40.143645],[-88.251026,40.143633],[-88.250939,40.143614],[-88.250856,40.143588],[-88.250776,40.143556],[-88.2507,40.143518],[-88.250631,40.143474],[-88.250567,40.143425],[-88.25051,40.143371],[-88.25046,40.143314],[-88.250418,40.143252],[-88.250384,40.143188],[-88.250359,40.143122],[-88.250343,40.143053],[-88.250336,40.142984],[-88.250338,40.142915],[-88.250349,40.142847],[-88.250373,40.142716],[-88.248651,40.14272]]]},"id":25},{"type":"Feature","properties":{"address":"901 W. Springfield Ave","type":"Drive-in automobile oil change service station in Neighborhood Commercial (CN) Zoning District","case":"1624-99-01-SU","status":"Conforming","link":"https://cityofchampaign.sharepoint.com/_layouts/15/guestaccess.aspx?guestaccesstoken=%2fGEB91jv%2f%2fwghGgWAeNCBovW1OewXc9Si61gCIkt7Ac%3d&docid=085cc2aeb11f04de2ae988da50bb3a45e&rev=1"},"geometry":{"type":"Polygon","coordinates":[[[-88.258086,40.112563],[-88.258186,40.112564],[-88.258392,40.112566],[-88.258392,40.112558],[-88.258403,40.112558],[-88.258401,40.112379],[-88.258401,40.112373],[-88.258399,40.11218],[-88.257929,40.112176],[-88.257929,40.112186],[-88.257943,40.112186],[-88.257943,40.112197],[-88.257929,40.112197],[-88.257931,40.112368],[-88.257932,40.112426],[-88.257981,40.112529],[-88.258086,40.112563]]]},"id":26},{"type":"Feature","properties":{"address":"4910 N. Market","type":"Truck stop/restaurant in Commercial Industrial (CI) Zoning District","case":"PL06-0049","status":"Conforming","link":"https://cityofchampaign.sharepoint.com/_layouts/15/guestaccess.aspx?guestaccesstoken=%2bon%2fOpMTpaEyN61bcrypo3JWlKpIjkM91m7%2fbsM15yk%3d&docid=0b893a09ca3ea4efbab1ba6db68871ec9&rev=1"},"geometry":{"type":"Polygon","coordinates":[[[-88.23965,40.178898],[-88.239682,40.180143],[-88.239683,40.180171],[-88.239733,40.180044],[-88.239784,40.179928],[-88.239858,40.179775],[-88.23994,40.179625],[-88.240029,40.179478],[-88.240126,40.179333],[-88.240229,40.179191],[-88.24034,40.179053],[-88.240457,40.178917],[-88.24047,40.178904],[-88.240482,40.17889],[-88.240589,40.178778],[-88.240701,40.178668],[-88.241126,40.178265],[-88.241164,40.178097],[-88.241001,40.177894],[-88.240845,40.177688],[-88.240696,40.177478],[-88.240555,40.177265],[-88.240421,40.17705],[-88.240295,40.176832],[-88.240176,40.176611],[-88.240065,40.176388],[-88.239962,40.176163],[-88.239867,40.175935],[-88.23978,40.175706],[-88.239701,40.175475],[-88.239645,40.175294],[-88.239636,40.175262],[-88.239601,40.175102],[-88.239599,40.175091],[-88.239598,40.175086],[-88.239595,40.175074],[-88.239588,40.17504],[-88.239591,40.175296],[-88.239484,40.175297],[-88.238518,40.175302],[-88.238559,40.178232],[-88.238559,40.178237],[-88.239525,40.178231],[-88.239526,40.178231],[-88.239544,40.178231],[-88.239633,40.178231],[-88.23965,40.178898]]]},"id":27},{"type":"Feature","properties":{"address":"411 E Park St","type":"Office space with residential in Single-Family Residential (SF-1) Zoning District","case":"PL10-0013","status":"Conforming","effective":"2010-05-18","link":"https://cityofchampaign.sharepoint.com/_layouts/15/guestaccess.aspx?guestaccesstoken=%2bT%2b3FP3z1%2blISogyRvtUQnZU%2bN7gckoDDer1UgHCwJA%3d&docid=0c92ab931021c417da9d9b8308400c605&rev=1"},"geometry":{"type":"Polygon","coordinates":[[[-88.232226,40.116884],[-88.232224,40.117248],[-88.232464,40.117247],[-88.232465,40.116883],[-88.232226,40.116884]]]},"id":28},{"type":"Feature","properties":{"address":"805 Pioneer St.","type":"Recycling drop-off facility in Commercial Industrial (CI) Zoning District","case":"PL11-0008","status":"Expired","effective":"2011-05-03","link":"https://cityofchampaign.sharepoint.com/:b:/g/EfXe1_0OSfhFjJIqnW1WjJsBMBa0nETQ3hDYHJAkGX3BqQ?e=KVpFf6"},"geometry":{"type":"Polygon","coordinates":[[[-88.255793,40.129165],[-88.255792,40.129515],[-88.256059,40.129514],[-88.256056,40.129165],[-88.256056,40.129151],[-88.255947,40.129151],[-88.255793,40.129151],[-88.255793,40.129165]]]},"id":29},{"type":"Feature","properties":{"address":"222 North State Street","type":"Eden Supportive Living SUP - Allowing multi-family on the ground floor and reduced parking in CB","case":"PL11-0028","status":"Conforming","effective":"2011-07-19","link":"https://cityofchampaign.sharepoint.com/_layouts/15/guestaccess.aspx?guestaccesstoken=Pt1gIYh143ZXjsSH8b2JwTkOrl8nnrDlnTKsOO%2f0Xyk%3d&docid=0cf1f5f46bf3544a5826c1ad2b8f2e058&rev=1"},"geometry":{"type":"Polygon","coordinates":[[[-88.246477,40.117407],[-88.246472,40.117407],[-88.246436,40.117407],[-88.246438,40.117769],[-88.246439,40.117792],[-88.246439,40.117814],[-88.246441,40.118175],[-88.246481,40.118175],[-88.246717,40.118175],[-88.246715,40.117814],[-88.246715,40.117769],[-88.246713,40.117407],[-88.246477,40.117407]]]},"id":30},{"type":"Feature","properties":{"address":"1802 South Duncan Road","type":"Owens Funeral Home Special Use Permit – Funeral home in Multi-Family (MF-3) Zoning District","case":"PL11-0033","status":"Expired","effective":"2011-08-16","link":"https://cityofchampaign.sharepoint.com/:b:/g/ETuBVqYLqtRLljpn46EcapoBJZVFP0GJEfVXNZ-2rdg6DA?e=8Dvugu"},"geometry":{"type":"Polygon","coordinates":[[[-88.295069,40.094745],[-88.295075,40.093731],[-88.293856,40.093718],[-88.293848,40.094741],[-88.295069,40.094745]]]},"id":31},{"type":"Feature","properties":{"address":"601 N. Country Fair Dr.","type":"Fluid Events SUP – Allow flexibility with parking and outdoor events in (CI) Zoning District","case":"PL14-0018","status":"Expired","effective":"2014-07-15","link":"https://cityofchampaign.sharepoint.com/_layouts/15/guestaccess.aspx?guestaccesstoken=ntHK5cAR0sEs7NILiimXXCm1JKKwULKH7kWqiNrWvDo%3d&docid=08c8d569fa2b04b2087a1c14c0682cae7&rev=1"},"geometry":{"type":"Polygon","coordinates":[[[-88.281872,40.120576],[-88.281847,40.121687],[-88.281858,40.121685],[-88.281936,40.12167],[-88.285433,40.121021],[-88.285546,40.121],[-88.285704,40.120224],[-88.285711,40.120187],[-88.2857,40.119381],[-88.285606,40.119433],[-88.285594,40.119439],[-88.285474,40.1195],[-88.285325,40.119575],[-88.285214,40.119624],[-88.285098,40.119675],[-88.284855,40.119777],[-88.2847,40.119835],[-88.284598,40.119873],[-88.284434,40.119932],[-88.284267,40.119989],[-88.284116,40.120037],[-88.283909,40.1201],[-88.283797,40.120134],[-88.28365,40.120176],[-88.283548,40.120205],[-88.283538,40.120207],[-88.283284,40.120275],[-88.283118,40.120315],[-88.28295,40.120357],[-88.282821,40.120387],[-88.282743,40.120405],[-88.282591,40.120439],[-88.282424,40.120473],[-88.282271,40.120504],[-88.282129,40.12053],[-88.282022,40.120548],[-88.281938,40.120565],[-88.281935,40.120565],[-88.281872,40.120576]]]},"id":32},{"type":"Feature","properties":{"address":"4114 W. Springfield Ave.","type":"Assisted/Independent Living Facility in Commercial General (CG) Zoning District","case":"PL14-0021","status":"Conforming","effective":"2014-08-05","link":"https://cityofchampaign.sharepoint.com/_layouts/15/guestaccess.aspx?guestaccesstoken=SNzTVdgvprSXqxXcqi6G8pKMdU7TRmrKLTCoo2z9ch8%3d&docid=0b902adb7d7424fb7af4583a5b90af039&rev=1"},"geometry":{"type":"Polygon","coordinates":[[[-88.312547,40.113983],[-88.312547,40.114367],[-88.313287,40.11438],[-88.314391,40.114398],[-88.314389,40.114097],[-88.314389,40.114091],[-88.314368,40.113541],[-88.314332,40.11353],[-88.313963,40.113427],[-88.312594,40.11341],[-88.312548,40.113409],[-88.312546,40.113409],[-88.312547,40.113983]]]},"id":33},{"type":"Feature","properties":{"address":"601 N. Country Fair Dr.","type":"Fluid Events SUP Re-Approval – Event Center in Commercial Industrial (CI) Zoning District","case":"PL15-0031","status":"Expired","effective":"2015-08-15","link":"https://cityofchampaign.sharepoint.com/_layouts/15/guestaccess.aspx?guestaccesstoken=witovG0qnPcSaGbCHgQmIEAP3mf%2bNIzz4UOLXUxwh8I%3d&docid=0cd7b0bb45d204d3581a382dac349e272&rev=1"},"geometry":{"type":"Polygon","coordinates":[[[-88.281872,40.120576],[-88.281847,40.121687],[-88.281858,40.121685],[-88.281936,40.12167],[-88.285433,40.121021],[-88.285546,40.121],[-88.285704,40.120224],[-88.285711,40.120187],[-88.2857,40.119381],[-88.285606,40.119433],[-88.285594,40.119439],[-88.285474,40.1195],[-88.285325,40.119575],[-88.285214,40.119624],[-88.285098,40.119675],[-88.284855,40.119777],[-88.2847,40.119835],[-88.284598,40.119873],[-88.284434,40.119932],[-88.284267,40.119989],[-88.284116,40.120037],[-88.283909,40.1201],[-88.283797,40.120134],[-88.28365,40.120176],[-88.283548,40.120205],[-88.283538,40.120207],[-88.283284,40.120275],[-88.283118,40.120315],[-88.28295,40.120357],[-88.282821,40.120387],[-88.282743,40.120405],[-88.282591,40.120439],[-88.282424,40.120473],[-88.282271,40.120504],[-88.282129,40.12053],[-88.282022,40.120548],[-88.281938,40.120565],[-88.281935,40.120565],[-88.281872,40.120576]]]},"id":34},{"type":"Feature","properties":{"address":"1701 Congressional Way","type":"Memory-Care Unit in Multi-Family Low Density Residential (MF-1) Zoning District","case":"PL13-0031","status":"Conforming","effective":"2013-10-15","link":"https://cityofchampaign.sharepoint.com/_layouts/15/guestaccess.aspx?guestaccesstoken=Q8Hd3VZrzwykic2n5eDkNed%2fJsdu9i2xoTFwwD%2fiY3o%3d&docid=0896ac6328ba34594b249cc458a4ffb7b&rev=1"},"geometry":{"type":"Polygon","coordinates":[[[-88.274625,40.066244],[-88.274705,40.066285],[-88.274789,40.06632],[-88.274877,40.06635],[-88.274968,40.066373],[-88.275062,40.06639],[-88.275157,40.0664],[-88.275253,40.066404],[-88.275395,40.066405],[-88.275809,40.066407],[-88.275819,40.066407],[-88.275889,40.066391],[-88.275889,40.066386],[-88.275889,40.066369],[-88.275922,40.064448],[-88.275242,40.064451],[-88.275245,40.064806],[-88.274947,40.064806],[-88.274539,40.064806],[-88.274544,40.065694],[-88.274591,40.06574],[-88.274288,40.065993],[-88.274625,40.066244]]]},"id":35},{"type":"Feature","properties":{"address":"901 S. Fourth St","type":"Liquor Establishment in Multi-Family University (MFUniv) Zoning District","case":"PL16-0047","status":"Conforming","effective":"2017-01-17","link":"https://cityofchampaign.sharepoint.com/:b:/g/EaJkrSJLzytDsCKSKQf3Di8BXf0EU-99vrwb_Y_YvDCVVA?e=foaMLO"},"geometry":{"type":"Polygon","coordinates":[[[-88.233881,40.107866],[-88.233878,40.107634],[-88.233648,40.107636],[-88.233652,40.107868],[-88.233881,40.107866]]]},"id":36},{"type":"Feature","properties":{"address":"802 W. John St","type":"Mixed use Residential and Commercial building in (IT-SF1) District","case":"PL16-0051","status":"Conforming","effective":"2017-01-17","link":"https://cityofchampaign.sharepoint.com/:b:/g/EWhhgmo35blMqnhVNQMzdJsBZ6QpAHrPiasuMGtZolaXjg?e=VLbkfx"},"geometry":{"type":"Polygon","coordinates":[[[-88.25647,40.109343],[-88.256469,40.109126],[-88.255981,40.109124],[-88.255984,40.109342],[-88.25647,40.109343]]]},"id":37},{"type":"Feature","properties":{"address":"1600 N Market St.","type":"Convenience Store in Manufactured Housing Park (MHP) Zoning District","status":"Conforming","effective":"2017-12-19","link":"https://cityofchampaign.sharepoint.com/:b:/g/EbksjmTEVltPh8NV73_sDHIBz8VlOQtMn4wY92NThCJ4xA?e=UKkUBr"},"geometry":{"type":"Polygon","coordinates":[[[-88.238772,40.132787],[-88.238769,40.132562],[-88.238358,40.132565],[-88.23836,40.132791],[-88.238772,40.132787]]]},"id":38},{"type":"Feature","properties":{"address":"1702 W Springfield Ave","type":"Drive thru in Neighborhood Commercial (CN) Zoning District","status":"Conforming"},"geometry":{"type":"Polygon","coordinates":[[[-88.276653,40.113518],[-88.276649,40.113219],[-88.276648,40.113219],[-88.276574,40.11304],[-88.276408,40.113],[-88.276069,40.112996],[-88.276069,40.112985],[-88.276068,40.112985],[-88.27578,40.112981],[-88.27578,40.112976],[-88.275466,40.11295],[-88.27547,40.113238],[-88.27547,40.113252],[-88.27547,40.113266],[-88.275474,40.113513],[-88.275499,40.113513],[-88.275788,40.113516],[-88.275973,40.113517],[-88.276076,40.113518],[-88.276619,40.113518],[-88.276653,40.113518]]]},"id":39},{"type":"Feature","properties":{"address":"1211 Broadmoor","type":"Clinic in Single Family Residential (SF-1) Zoning District","status":"Conforming","link":"https://cityofchampaign.sharepoint.com/:b:/g/EUSwd4YoHHZGhInONz0TxjIBZDMidhrSBj1qoqnPgBtckQ?e=sVBR5r"},"geometry":{"type":"Polygon","coordinates":[[[-88.263387,40.093177],[-88.263389,40.093451],[-88.263851,40.093454],[-88.263845,40.09318],[-88.263845,40.093163],[-88.263845,40.093163],[-88.263845,40.093163],[-88.263844,40.093151],[-88.263844,40.093151],[-88.263844,40.093151],[-88.263844,40.093151],[-88.263843,40.093139],[-88.263843,40.093139],[-88.263841,40.093127],[-88.263841,40.093127],[-88.263841,40.093127],[-88.263841,40.093127],[-88.263839,40.093115],[-88.263839,40.093115],[-88.263839,40.093115],[-88.263839,40.093115],[-88.263836,40.093103],[-88.263836,40.093103],[-88.263836,40.093103],[-88.263836,40.093103],[-88.263832,40.093092],[-88.263832,40.093092],[-88.263832,40.093092],[-88.263832,40.093092],[-88.263828,40.09308],[-88.263828,40.09308],[-88.263828,40.09308],[-88.263824,40.093069],[-88.263824,40.093069],[-88.263819,40.093057],[-88.263819,40.093057],[-88.263813,40.093046],[-88.263813,40.093046],[-88.263813,40.093046],[-88.263813,40.093046],[-88.263813,40.093046],[-88.263807,40.093035],[-88.263807,40.093035],[-88.2638,40.093024],[-88.2638,40.093024],[-88.263793,40.093014],[-88.263793,40.093014],[-88.263793,40.093013],[-88.263793,40.093013],[-88.263785,40.093003],[-88.263785,40.093003],[-88.263777,40.092993],[-88.263777,40.092993],[-88.263777,40.092993],[-88.263768,40.092983],[-88.263768,40.092983],[-88.263768,40.092983],[-88.263768,40.092983],[-88.263759,40.092973],[-88.263759,40.092973],[-88.263759,40.092973],[-88.263759,40.092973],[-88.263749,40.092964],[-88.263749,40.092964],[-88.263739,40.092954],[-88.263739,40.092954],[-88.263739,40.092954],[-88.263739,40.092954],[-88.263729,40.092946],[-88.263729,40.092946],[-88.263729,40.092946],[-88.263729,40.092946],[-88.263718,40.092937],[-88.263718,40.092937],[-88.263718,40.092937],[-88.263718,40.092937],[-88.263707,40.092929],[-88.263707,40.092929],[-88.263695,40.092921],[-88.263695,40.092921],[-88.263695,40.092921],[-88.263683,40.092913],[-88.263683,40.092913],[-88.263671,40.092906],[-88.263671,40.092906],[-88.263671,40.092906],[-88.26367,40.092906],[-88.263658,40.092899],[-88.263658,40.092899],[-88.263645,40.092892],[-88.263645,40.092892],[-88.263631,40.092886],[-88.263618,40.09288],[-88.263618,40.09288],[-88.263604,40.092875],[-88.263604,40.092875],[-88.263604,40.092875],[-88.263604,40.092875],[-88.26359,40.09287],[-88.263575,40.092865],[-88.26356,40.092861],[-88.263546,40.092857],[-88.263531,40.092853],[-88.263531,40.092853],[-88.263531,40.092853],[-88.263531,40.092853],[-88.263516,40.09285],[-88.2635,40.092848],[-88.2635,40.092848],[-88.263485,40.092846],[-88.263485,40.092846],[-88.263469,40.092844],[-88.263469,40.092844],[-88.263469,40.092844],[-88.263469,40.092844],[-88.263454,40.092843],[-88.263454,40.092843],[-88.263454,40.092843],[-88.263438,40.092842],[-88.263402,40.092842],[-88.263384,40.092842],[-88.263387,40.093177]]]},"id":40},{"type":"Feature","properties":{"address":"50-54 E Springfield Ave","type":"Allow Outdoor Sales Display Area of greater than 540 sq. ft. for Automobile Sales in CB-1","case":"PL18-0015","status":"Conforming","effective":"2018-08-18","bill":"CB2018-167","link":"https://cityofchampaign.sharepoint.com/:b:/g/EUSwd4YoHHZGhInONz0TxjIBZDMidhrSBj1qoqnPgBtckQ?e=OgjV7m"},"geometry":{"type":"Polygon","coordinates":[[[-88.239328,40.112732],[-88.239271,40.112929],[-88.239538,40.112995],[-88.239805,40.113061],[-88.239945,40.112726],[-88.239649,40.112729],[-88.239328,40.112732]]]},"id":41},{"type":"Feature","properties":{"address":"301 S Locust","type":"Parking Lot with additional waivers in CB-1","status":"Conforming"},"geometry":{"type":"Polygon","coordinates":[[[-88.239728,40.113244],[-88.239457,40.113177],[-88.239453,40.113176],[-88.239405,40.113293],[-88.239404,40.113296],[-88.239357,40.113412],[-88.239355,40.113416],[-88.239336,40.113462],[-88.239118,40.113411],[-88.239109,40.113434],[-88.239044,40.113421],[-88.23903,40.113463],[-88.238844,40.113418],[-88.238845,40.113557],[-88.239256,40.113657],[-88.239528,40.113723],[-88.239591,40.113573],[-88.239629,40.113483],[-88.239678,40.113364],[-88.239708,40.113292],[-88.239728,40.113244]]]},"id":42},{"type":"Feature","properties":{"address":"2511 W. Springfield Ave","type":"Allow a Contractor Shop in MF3","case":"PL20-0012","status":"Conforming","effective":"2020-12-15","bill":"CB2020-159","link":"https://documents.ci.champaign.il.us/object?id=1ngbxrbWF8av4iFYTfKxIhpo-XfaPVhAV"},"geometry":{"type":"Polygon","coordinates":[[[-88.289192,40.112793],[-88.289164,40.111245],[-88.288657,40.111243],[-88.288678,40.112246],[-88.288689,40.112785],[-88.289192,40.112793]]]},"id":43},{"type":"Feature","properties":{"address":"105 N Fourth St, 311 E Park Ave","type":"Allow an Off-Site Parking Lot in SF1","case":"PL21-0027","status":"Conforming","effective":"2021-10-19","bill":"CB2021-151","link":"https://documents.ci.champaign.il.us/object?id=1vr3A0VtSLXKzBhHfsWq_90CLDxdoeLO8"},"geometry":{"type":"Polygon","coordinates":[[[-88.233901,40.117239],[-88.234137,40.117237],[-88.234373,40.117236],[-88.234491,40.117235],[-88.234613,40.117234],[-88.234845,40.117233],[-88.234963,40.117232],[-88.234962,40.116866],[-88.234844,40.116867],[-88.234607,40.116868],[-88.234489,40.116869],[-88.234371,40.116869],[-88.234135,40.11687],[-88.233901,40.116872],[-88.233901,40.117038],[-88.233901,40.117239]]]},"id":44},{"type":"Feature","properties":{"address":"302 S Country Fair Dr","type":"Expanding a Tavern without additional parking","case":"PL20-0020","status":"Conforming","effective":"2020-09-15","bill":"CB2020-105","link":"https://documents.ci.champaign.il.us/object?id=1B8X0vEhrfFhuWab_ED9XAFIVU8GtWIGl"},"geometry":{"type":"Polygon","coordinates":[[[-88.282318,40.113792],[-88.282611,40.113795],[-88.282623,40.11378],[-88.28266,40.113732],[-88.282692,40.113681],[-88.282719,40.113627],[-88.28274,40.11357],[-88.282757,40.113512],[-88.282768,40.113453],[-88.282773,40.113392],[-88.282325,40.113389],[-88.282324,40.113424],[-88.282318,40.113792]]]},"id":45},{"type":"Feature","properties":{"address":"2511 W Springfield Ave","type":"Allow a Contractor Shop in MF3","case":"PL20-0012","status":"Conforming","effective":"2020-12-15","bill":"CB2020-159","link":"https://documents.ci.champaign.il.us/object?id=1ngbxrbWF8av4iFYTfKxIhpo-XfaPVhAV"},"geometry":{"type":"Polygon","coordinates":[[[-88.288672,40.111984],[-88.288689,40.112785],[-88.289072,40.112791],[-88.289192,40.112793],[-88.289192,40.112793],[-88.289191,40.112733],[-88.289175,40.111897],[-88.289175,40.111883],[-88.289164,40.111248],[-88.289164,40.111245],[-88.288657,40.111243],[-88.288672,40.111984]]]},"id":46},{"type":"Feature","properties":{"address":"302 South Country Fair Dr","type":"Allow the Expansion of a Tavern Without Required Vehicular Parking in CG","case":"PL20-0020","status":"Conforming","effective":"2020-09-15","bill":"CB2020-105","link":"https://documents.ci.champaign.il.us/object?id=1B8X0vEhrfFhuWab_ED9XAFIVU8GtWIGl"},"geometry":{"type":"Polygon","coordinates":[[[-88.282729,40.113392],[-88.282699,40.113392],[-88.282325,40.113389],[-88.282324,40.113424],[-88.282318,40.113792],[-88.282611,40.113795],[-88.282658,40.113733],[-88.282697,40.113669],[-88.282729,40.113602],[-88.282752,40.113533],[-88.282767,40.113463],[-88.282773,40.113392],[-88.282729,40.113392]]]},"id":47},{"type":"Feature","properties":{"address":"105 N Fourth St, 311 E Park St, 300 Blk E Park St","type":"Allow an Off-Site Parking Lot in SF1","case":"PL21-0027","status":"Conforming","effective":"2021-10-19","bill":"CB2021-151","link":"https://documents.ci.champaign.il.us/object?id=1vr3A0VtSLXKzBhHfsWq_90CLDxdoeLO8"},"geometry":{"type":"Polygon","coordinates":[[[-88.234963,40.117187],[-88.234963,40.117063],[-88.234962,40.116866],[-88.234844,40.116867],[-88.234611,40.116868],[-88.234607,40.116868],[-88.234489,40.116869],[-88.234371,40.116869],[-88.234135,40.11687],[-88.233901,40.116872],[-88.233901,40.117038],[-88.233901,40.117239],[-88.234137,40.117237],[-88.234373,40.117236],[-88.234491,40.117235],[-88.234609,40.117234],[-88.234613,40.117234],[-88.234845,40.117233],[-88.234963,40.117232],[-88.234963,40.117187]]]},"id":48},{"type":"Feature","properties":{"address":"2903 N Market St","type":"Allow a solar farm in MF1","status":"Conforming","effective":"2024-02-20","bill":"CB2024-018","link":"https://documents.ci.champaign.il.us/object?id=1kytlD5WqR9RHWDWRalX_gn3QQMX67s14"},"geometry":{"type":"Polygon","coordinates":[[[-88.239278,40.149503],[-88.239325,40.151781],[-88.243906,40.151789],[-88.243881,40.150301],[-88.243863,40.149196],[-88.242987,40.149191],[-88.239279,40.149503],[-88.239278,40.149503]]]},"id":49},{"type":"Feature","properties":{"address":"3009 and 3113 N Market St","type":"Allow an animal shelter in MF1","case":"PL23-0029","status":"Conforming","effective":"2024-02-20","bill":"CB2024-019","link":"https://documents.ci.champaign.il.us/object?id=1pkpq5dKnwHu8QEpvHQ_Bty_ItVW09NM1"},"geometry":{"type":"Polygon","coordinates":[[[-88.239351,40.15303],[-88.240775,40.153035],[-88.240764,40.152217],[-88.243913,40.15222],[-88.243906,40.151789],[-88.239325,40.151781],[-88.239351,40.15303]]]},"id":50},{"type":"Feature","properties":{"address":"1207 S Mattis Ave","type":"Allow a Transitional Home in CN","case":"PL24-0022","status":"Conforming","effective":"2024-11-20","bill":"CB2024-186","link":"https://documents.ci.champaign.il.us/object?id=1GK95JgShW_AUyB1hpB0P4vD7oRW4Wipp"},"geometry":{"type":"Polygon","coordinates":[[[-88.276722,40.103155],[-88.27758,40.103163],[-88.27758,40.103154],[-88.277577,40.102986],[-88.277574,40.102812],[-88.277573,40.102724],[-88.277501,40.102724],[-88.277497,40.102449],[-88.277426,40.102448],[-88.27743,40.102723],[-88.277098,40.10272],[-88.276715,40.102716],[-88.276722,40.103155]]]},"id":51},{"type":"Feature","properties":{"address":"212 E Springfield Ave","type":"Allow groundfloor office in MFUniv","case":"PL23-0015","status":"Conforming","effective":"2023-10-03","bill":"CB2023-165","link":"https://documents.ci.champaign.il.us/object?id=1hW2fsWt9uKsZqHvhDgMZ5cFvVm2bIiDT"},"geometry":{"type":"Polygon","coordinates":[[[-88.235526,40.112963],[-88.235712,40.112961],[-88.235906,40.11296],[-88.236255,40.112958],[-88.236253,40.112755],[-88.235903,40.112757],[-88.235714,40.112759],[-88.235524,40.11276],[-88.235526,40.112963]]]},"id":52},{"type":"Feature","properties":{"address":"919 W Hill St","type":"Allow Multifamily in SF2","case":"PL-25-7","status":"Conforming","effective":"2025-06-10","bill":"CB2025-080","link":"https://documents.ci.champaign.il.us/object?id=16UXesmL4C7kLNs5uZW9GfQYP1v9Qf6Dz"},"geometry":{"type":"Polygon","coordinates":[[[-88.260129,40.119133],[-88.260124,40.118907],[-88.259796,40.118903],[-88.2598,40.119129],[-88.260129,40.119133]]]},"id":53}]}