{"type":"FeatureCollection","features":[{"type":"Feature","properties":{"name":"Campustown"},"geometry":{"type":"Polygon","coordinates":[[[-88.230091,40.111423],[-88.230298,40.111422],[-88.230534,40.11142],[-88.23077,40.111418],[-88.230927,40.111416],[-88.230924,40.111142],[-88.231003,40.111142],[-88.231002,40.110922],[-88.231001,40.110866],[-88.231115,40.110865],[-88.231209,40.110864],[-88.23122,40.110864],[-88.231351,40.110862],[-88.231456,40.110861],[-88.231562,40.11086],[-88.231674,40.110858],[-88.231937,40.110855],[-88.231936,40.110799],[-88.232172,40.110796],[-88.232792,40.110789],[-88.232997,40.110786],[-88.2332,40.110784],[-88.233203,40.11075],[-88.233412,40.110748],[-88.233698,40.110762],[-88.233961,40.11076],[-88.234145,40.110758],[-88.234223,40.110758],[-88.234334,40.110757],[-88.234335,40.110351],[-88.234322,40.11017],[-88.234318,40.109808],[-88.234081,40.10981],[-88.233877,40.109812],[-88.233683,40.109814],[-88.233397,40.109849],[-88.233115,40.109851],[-88.233036,40.109852],[-88.232959,40.109853],[-88.232881,40.109854],[-88.232879,40.109688],[-88.232811,40.109689],[-88.232649,40.10969],[-88.232633,40.10969],[-88.232402,40.109692],[-88.232405,40.109877],[-88.232156,40.109878],[-88.232157,40.109937],[-88.231921,40.10994],[-88.231663,40.109942],[-88.23166,40.109764],[-88.231659,40.10968],[-88.231657,40.10968],[-88.231444,40.109683],[-88.23125,40.109685],[-88.231207,40.109685],[-88.230971,40.109688],[-88.230968,40.109523],[-88.230728,40.109526],[-88.230726,40.109405],[-88.230726,40.109343],[-88.230645,40.109344],[-88.230645,40.109161],[-88.230566,40.109161],[-88.230487,40.109162],[-88.230251,40.109163],[-88.230166,40.109163],[-88.230167,40.109319],[-88.230168,40.109421],[-88.230169,40.109493],[-88.22999,40.109492],[-88.229991,40.109506],[-88.229877,40.109506],[-88.229879,40.109702],[-88.229881,40.109833],[-88.229887,40.109864],[-88.229734,40.109866],[-88.229657,40.109867],[-88.229657,40.109877],[-88.229656,40.109948],[-88.229579,40.109949],[-88.229502,40.109949],[-88.229425,40.10995],[-88.229349,40.10995],[-88.229272,40.109951],[-88.229195,40.109951],[-88.229195,40.110054],[-88.229038,40.110055],[-88.22904,40.110238],[-88.229042,40.110419],[-88.229047,40.11077],[-88.229277,40.110768],[-88.229276,40.110887],[-88.22996,40.110879],[-88.230038,40.110878],[-88.230039,40.110933],[-88.230086,40.110933],[-88.230088,40.111116],[-88.230091,40.111423]]]},"id":0}]}