{"type":"FeatureCollection","features":[{"type":"Feature","properties":{"name":"North Mattis Avenue"},"geometry":{"type":"Polygon","coordinates":[[[-88.277089,40.120882],[-88.277064,40.119263],[-88.277064,40.119246],[-88.276824,40.119243],[-88.276692,40.119242],[-88.276678,40.119242],[-88.276674,40.119242],[-88.27662,40.119242],[-88.275109,40.119228],[-88.274751,40.119225],[-88.273352,40.119212],[-88.273144,40.11925],[-88.273157,40.120109],[-88.273161,40.120247],[-88.273168,40.120752],[-88.273045,40.120751],[-88.273052,40.121351],[-88.276725,40.120927],[-88.276744,40.122156],[-88.276633,40.122266],[-88.276435,40.122304],[-88.276438,40.122503],[-88.276175,40.122497],[-88.276036,40.122321],[-88.27603,40.122087],[-88.275911,40.12187],[-88.275396,40.121638],[-88.273666,40.121815],[-88.273267,40.121919],[-88.272167,40.122281],[-88.272065,40.122751],[-88.271363,40.123414],[-88.271363,40.12367],[-88.271604,40.123698],[-88.271505,40.1242],[-88.27132,40.124372],[-88.271679,40.124549],[-88.271942,40.124628],[-88.272242,40.124679],[-88.272627,40.124693],[-88.276783,40.124752],[-88.276769,40.127104],[-88.276766,40.127163],[-88.276735,40.127221],[-88.276669,40.127287],[-88.276627,40.127296],[-88.276507,40.127323],[-88.276178,40.127318],[-88.276179,40.127537],[-88.276505,40.127542],[-88.276665,40.127582],[-88.276737,40.127616],[-88.276808,40.127738],[-88.276831,40.127846],[-88.276832,40.127938],[-88.27712,40.127938],[-88.27712,40.127796],[-88.277161,40.127669],[-88.277201,40.12762],[-88.277274,40.127588],[-88.277437,40.127553],[-88.277637,40.127555],[-88.277637,40.127321],[-88.277364,40.127319],[-88.277274,40.127295],[-88.277201,40.127261],[-88.27713,40.127128],[-88.277114,40.124982],[-88.277093,40.122498],[-88.277091,40.122262],[-88.277089,40.120882]]]},"id":0},{"type":"Feature","properties":{"name":"Bristol Park"},"geometry":{"type":"Polygon","coordinates":[[[-88.245116,40.126524],[-88.243699,40.126526],[-88.243463,40.126526],[-88.243462,40.126451],[-88.243461,40.126269],[-88.243459,40.126088],[-88.242932,40.126092],[-88.24245,40.126096],[-88.242457,40.127119],[-88.242221,40.12712],[-88.241224,40.127125],[-88.238939,40.127135],[-88.238937,40.126857],[-88.238701,40.126857],[-88.23826,40.126859],[-88.238256,40.126475],[-88.237816,40.126477],[-88.237207,40.12648],[-88.237208,40.126609],[-88.236815,40.126611],[-88.236708,40.126868],[-88.236601,40.126867],[-88.236486,40.127144],[-88.236409,40.12729],[-88.234904,40.130942],[-88.235721,40.130938],[-88.236151,40.130936],[-88.238749,40.130922],[-88.238766,40.132341],[-88.238786,40.133979],[-88.238755,40.133999],[-88.238764,40.134218],[-88.239028,40.134384],[-88.239461,40.134378],[-88.241073,40.13436],[-88.241136,40.134351],[-88.241226,40.134334],[-88.241297,40.134317],[-88.241372,40.134294],[-88.241475,40.134256],[-88.241548,40.134223],[-88.241625,40.134182],[-88.241693,40.13414],[-88.241732,40.134113],[-88.241775,40.134081],[-88.241818,40.134045],[-88.242427,40.133338],[-88.243007,40.132665],[-88.243463,40.132135],[-88.243821,40.132202],[-88.244671,40.132961],[-88.24475,40.133032],[-88.246023,40.133029],[-88.246021,40.132688],[-88.245965,40.132662],[-88.245907,40.132634],[-88.245881,40.13262],[-88.245832,40.132594],[-88.24576,40.132553],[-88.245704,40.132518],[-88.245633,40.13247],[-88.245441,40.132331],[-88.245292,40.132169],[-88.245171,40.132038],[-88.24502,40.131899],[-88.244892,40.131838],[-88.245084,40.131496],[-88.244923,40.131493],[-88.244786,40.131482],[-88.244673,40.131467],[-88.244609,40.131458],[-88.244528,40.131447],[-88.244198,40.131403],[-88.244199,40.131236],[-88.244197,40.130957],[-88.244196,40.130839],[-88.244212,40.130839],[-88.244214,40.130508],[-88.244216,40.130043],[-88.244412,40.130009],[-88.244412,40.129795],[-88.244436,40.129658],[-88.244435,40.1294],[-88.244435,40.129053],[-88.244435,40.128368],[-88.245669,40.128373],[-88.24567,40.127303],[-88.24512,40.127301],[-88.245119,40.127074],[-88.245116,40.126524]]]},"id":1},{"type":"Feature","properties":{"name":"Downtown Fringe"},"geometry":{"type":"Polygon","coordinates":[[[-88.243461,40.126267],[-88.243462,40.126449],[-88.243463,40.126524],[-88.243699,40.126524],[-88.243697,40.126343],[-88.243675,40.123518],[-88.245097,40.123518],[-88.245097,40.123417],[-88.24509,40.122568],[-88.245091,40.122401],[-88.245089,40.12221],[-88.245088,40.122051],[-88.245084,40.121297],[-88.244133,40.121304],[-88.244128,40.120675],[-88.244009,40.120675],[-88.244007,40.120313],[-88.245314,40.120308],[-88.245314,40.120306],[-88.245313,40.120086],[-88.24531,40.119724],[-88.24531,40.119679],[-88.245308,40.119317],[-88.246724,40.119309],[-88.24696,40.119307],[-88.246958,40.119126],[-88.246954,40.118354],[-88.246953,40.118173],[-88.246718,40.118173],[-88.246441,40.118174],[-88.246439,40.11779],[-88.246436,40.117405],[-88.246713,40.117405],[-88.246949,40.117406],[-88.246944,40.116414],[-88.246943,40.116185],[-88.24694,40.115822],[-88.24694,40.115777],[-88.246939,40.115416],[-88.246938,40.115235],[-88.246933,40.114458],[-88.246933,40.114277],[-88.246697,40.114283],[-88.246223,40.114285],[-88.246166,40.114285],[-88.245276,40.114287],[-88.245266,40.112721],[-88.245265,40.112487],[-88.245029,40.112473],[-88.244951,40.11251],[-88.244784,40.11251],[-88.24465,40.112501],[-88.244548,40.112495],[-88.244473,40.112491],[-88.244356,40.112487],[-88.244256,40.112485],[-88.244223,40.112484],[-88.244084,40.112483],[-88.243728,40.112481],[-88.243231,40.112494],[-88.243015,40.112496],[-88.242836,40.112498],[-88.242729,40.112499],[-88.242657,40.112499],[-88.242479,40.11252],[-88.242373,40.112521],[-88.241869,40.112525],[-88.241634,40.112528],[-88.241634,40.11253],[-88.24161,40.112709],[-88.241571,40.112827],[-88.241425,40.113264],[-88.241308,40.11361],[-88.241283,40.113684],[-88.241257,40.113759],[-88.241223,40.113859],[-88.241202,40.113919],[-88.241195,40.113939],[-88.241176,40.113994],[-88.241173,40.114001],[-88.24096,40.114607],[-88.240929,40.114695],[-88.240928,40.114696],[-88.240928,40.114697],[-88.24083,40.114873],[-88.240607,40.115492],[-88.240447,40.115935],[-88.240747,40.115999],[-88.240903,40.116038],[-88.240886,40.116076],[-88.241205,40.116158],[-88.241222,40.116118],[-88.241666,40.11623],[-88.241827,40.11623],[-88.241977,40.116229],[-88.242095,40.115946],[-88.242148,40.115819],[-88.242664,40.11595],[-88.242543,40.116227],[-88.242807,40.116226],[-88.243388,40.116224],[-88.24363,40.116197],[-88.243629,40.115838],[-88.243629,40.115793],[-88.243628,40.115434],[-88.245047,40.115429],[-88.245054,40.116418],[-88.243634,40.116426],[-88.243641,40.116781],[-88.243642,40.116825],[-88.244176,40.116824],[-88.24418,40.117179],[-88.244116,40.117405],[-88.244118,40.117768],[-88.244118,40.117814],[-88.244275,40.117814],[-88.245062,40.117813],[-88.245067,40.118724],[-88.244043,40.118728],[-88.244042,40.119143],[-88.243646,40.119145],[-88.243646,40.118358],[-88.243646,40.118177],[-88.243382,40.118206],[-88.243129,40.118783],[-88.242583,40.118644],[-88.24282,40.118067],[-88.242896,40.117884],[-88.242221,40.117717],[-88.241982,40.117657],[-88.241719,40.117592],[-88.241802,40.117383],[-88.241846,40.117274],[-88.241906,40.117122],[-88.241939,40.117015],[-88.242006,40.116854],[-88.241938,40.116837],[-88.24196,40.116784],[-88.242029,40.116801],[-88.242096,40.11664],[-88.241829,40.116573],[-88.241875,40.116466],[-88.241739,40.116432],[-88.241636,40.116406],[-88.240924,40.116416],[-88.240532,40.116418],[-88.240197,40.117198],[-88.240191,40.117214],[-88.24013,40.117197],[-88.239659,40.118331],[-88.239716,40.118343],[-88.239515,40.118808],[-88.23985,40.11889],[-88.239719,40.11921],[-88.239462,40.119833],[-88.239462,40.120025],[-88.239196,40.120665],[-88.239066,40.120976],[-88.239075,40.121033],[-88.239102,40.121098],[-88.239163,40.121175],[-88.239032,40.121489],[-88.238935,40.121722],[-88.238846,40.121935],[-88.239317,40.12206],[-88.239183,40.122381],[-88.239432,40.122378],[-88.240875,40.122381],[-88.24112,40.122452],[-88.241357,40.122517],[-88.241357,40.122544],[-88.241455,40.122545],[-88.241835,40.122651],[-88.241908,40.122671],[-88.242388,40.122805],[-88.24239,40.123029],[-88.242391,40.123189],[-88.242393,40.123431],[-88.242375,40.123633],[-88.242603,40.123634],[-88.242528,40.123844],[-88.242473,40.123998],[-88.242441,40.124088],[-88.242442,40.124271],[-88.242913,40.12427],[-88.242917,40.124817],[-88.242917,40.124998],[-88.242923,40.125909],[-88.242932,40.126091],[-88.242993,40.12609],[-88.243459,40.126086],[-88.243461,40.126267]]]},"id":2},{"type":"Feature","properties":{"name":"Garden Hills"},"geometry":{"type":"Polygon","coordinates":[[[-88.277105,40.123891],[-88.277116,40.125345],[-88.277126,40.1267],[-88.277155,40.127201],[-88.277201,40.127261],[-88.277274,40.127295],[-88.277364,40.127319],[-88.27757,40.127321],[-88.277568,40.127444],[-88.277566,40.127554],[-88.277437,40.127553],[-88.277274,40.127588],[-88.277201,40.12762],[-88.277161,40.127669],[-88.27712,40.127796],[-88.27712,40.127916],[-88.276831,40.127921],[-88.276831,40.127844],[-88.27683,40.1278],[-88.276807,40.127738],[-88.276785,40.127677],[-88.276737,40.127616],[-88.276665,40.127582],[-88.276505,40.127542],[-88.276314,40.127539],[-88.276319,40.12732],[-88.267595,40.127241],[-88.262645,40.127126],[-88.258555,40.127096],[-88.258546,40.126202],[-88.257851,40.126173],[-88.257827,40.125939],[-88.257242,40.125948],[-88.257253,40.127062],[-88.256509,40.12708],[-88.253049,40.125889],[-88.253058,40.128126],[-88.253068,40.130166],[-88.254957,40.130935],[-88.256224,40.131572],[-88.256228,40.131771],[-88.256461,40.131876],[-88.256504,40.131806],[-88.256687,40.131778],[-88.257528,40.132134],[-88.257608,40.132194],[-88.257723,40.13241],[-88.257721,40.132633],[-88.258356,40.132645],[-88.258513,40.133844],[-88.263227,40.135517],[-88.266648,40.136305],[-88.266737,40.136116],[-88.266822,40.135906],[-88.269106,40.136791],[-88.271094,40.13755],[-88.273054,40.138304],[-88.274765,40.13903],[-88.27503,40.139073],[-88.275229,40.139104],[-88.275714,40.139135],[-88.275957,40.139128],[-88.276239,40.1391],[-88.276593,40.139034],[-88.277009,40.138909],[-88.277027,40.138325],[-88.277077,40.138312],[-88.277083,40.138148],[-88.27724,40.138187],[-88.277147,40.134826],[-88.277061,40.131739],[-88.280043,40.131702],[-88.280735,40.130635],[-88.280077,40.130481],[-88.278823,40.130467],[-88.278799,40.129466],[-88.278793,40.129258],[-88.278777,40.127579],[-88.278786,40.126824],[-88.278797,40.126361],[-88.278888,40.126094],[-88.278944,40.125922],[-88.278957,40.125787],[-88.278956,40.124993],[-88.278181,40.124977],[-88.278175,40.123886],[-88.277105,40.123891]]]},"id":3},{"type":"Feature","properties":{"name":"North Campustown"},"geometry":{"type":"Polygon","coordinates":[[[-88.239849,40.118894],[-88.239511,40.118812],[-88.239717,40.118347],[-88.239656,40.118334],[-88.240052,40.117383],[-88.240129,40.1172],[-88.240197,40.117203],[-88.240532,40.11642],[-88.240689,40.115988],[-88.240447,40.115937],[-88.24083,40.114874],[-88.240928,40.114697],[-88.24161,40.112711],[-88.241634,40.11253],[-88.240267,40.112542],[-88.240295,40.112057],[-88.238361,40.112073],[-88.238366,40.112559],[-88.237189,40.112567],[-88.237177,40.11136],[-88.235277,40.111375],[-88.235287,40.112581],[-88.233442,40.112594],[-88.233392,40.112776],[-88.233392,40.112962],[-88.231975,40.112973],[-88.231982,40.11548],[-88.235302,40.115475],[-88.235532,40.115463],[-88.236617,40.11546],[-88.23672,40.11546],[-88.23672,40.115822],[-88.236482,40.115822],[-88.236482,40.115868],[-88.236483,40.116229],[-88.235536,40.116233],[-88.235534,40.115825],[-88.2353,40.115832],[-88.233406,40.115835],[-88.233409,40.116241],[-88.233514,40.116472],[-88.233661,40.116666],[-88.233662,40.116831],[-88.233662,40.116876],[-88.233665,40.117467],[-88.236018,40.117453],[-88.23602,40.117863],[-88.236256,40.117862],[-88.236258,40.118227],[-88.23626,40.118408],[-88.236734,40.118406],[-88.236739,40.118813],[-88.236976,40.118812],[-88.236982,40.119355],[-88.237687,40.119354],[-88.23769,40.119717],[-88.23761,40.119763],[-88.237611,40.119939],[-88.236989,40.119944],[-88.2369,40.120104],[-88.236899,40.121041],[-88.236419,40.120933],[-88.23617,40.120852],[-88.235637,40.120714],[-88.235166,40.120592],[-88.234917,40.120528],[-88.234917,40.120698],[-88.234917,40.120836],[-88.236411,40.121234],[-88.236411,40.121292],[-88.237989,40.12171],[-88.238046,40.121572],[-88.23878,40.121769],[-88.23878,40.121686],[-88.238779,40.121627],[-88.238855,40.121445],[-88.239032,40.121491],[-88.239163,40.121177],[-88.239138,40.121151],[-88.239086,40.121067],[-88.239066,40.120978],[-88.239462,40.120027],[-88.23921,40.12003],[-88.239284,40.119836],[-88.239462,40.119835],[-88.239849,40.118894]]]},"id":4},{"type":"Feature","properties":{"name":"Springfield and Mattis"},"geometry":{"type":"Polygon","coordinates":[[[-88.276684,40.117941],[-88.27669,40.118336],[-88.27669,40.118517],[-88.276691,40.118667],[-88.276691,40.11888],[-88.276692,40.119242],[-88.276693,40.119242],[-88.277064,40.119246],[-88.277069,40.119578],[-88.277075,40.119778],[-88.277079,40.120118],[-88.277079,40.120147],[-88.277083,40.120392],[-88.277088,40.120767],[-88.277088,40.120804],[-88.277089,40.120882],[-88.277262,40.120862],[-88.277814,40.120798],[-88.278202,40.120752],[-88.278965,40.120666],[-88.280005,40.120547],[-88.280436,40.120494],[-88.280605,40.120474],[-88.280773,40.120455],[-88.280942,40.120434],[-88.28111,40.120414],[-88.281279,40.120393],[-88.281447,40.120371],[-88.281615,40.120349],[-88.281645,40.120345],[-88.281656,40.120344],[-88.281676,40.120341],[-88.281688,40.120339],[-88.281706,40.120336],[-88.281718,40.120335],[-88.281719,40.120335],[-88.28172,40.120334],[-88.281724,40.120334],[-88.281741,40.120331],[-88.281742,40.120331],[-88.281771,40.120327],[-88.28179,40.120324],[-88.281797,40.120323],[-88.281828,40.120318],[-88.281859,40.120313],[-88.281864,40.120313],[-88.281874,40.120311],[-88.281878,40.12031],[-88.281878,40.120293],[-88.281879,40.12019],[-88.281881,40.119376],[-88.281886,40.119341],[-88.28189,40.119308],[-88.281913,40.119147],[-88.28196,40.118807],[-88.281977,40.118684],[-88.281953,40.118279],[-88.281912,40.117913],[-88.281858,40.117914],[-88.281853,40.117581],[-88.28185,40.117399],[-88.281845,40.117069],[-88.281899,40.117068],[-88.281929,40.116711],[-88.281923,40.116302],[-88.281889,40.116001],[-88.281843,40.115594],[-88.281823,40.115425],[-88.281798,40.115425],[-88.281798,40.115212],[-88.28312,40.115223],[-88.283718,40.115228],[-88.283718,40.11595],[-88.28518,40.115963],[-88.285195,40.116459],[-88.285198,40.116564],[-88.285198,40.116569],[-88.285199,40.116579],[-88.284965,40.116579],[-88.285026,40.116597],[-88.285087,40.116615],[-88.285148,40.116633],[-88.285209,40.116652],[-88.28527,40.116671],[-88.28533,40.116691],[-88.28539,40.116711],[-88.28545,40.116731],[-88.28551,40.116752],[-88.28557,40.116773],[-88.285629,40.116794],[-88.285688,40.116816],[-88.285747,40.116838],[-88.285806,40.116861],[-88.285865,40.116884],[-88.285923,40.116907],[-88.285981,40.11693],[-88.286039,40.116954],[-88.286093,40.116977],[-88.286146,40.117],[-88.286254,40.117047],[-88.286249,40.116581],[-88.286305,40.116581],[-88.287489,40.115243],[-88.28936,40.113091],[-88.28936,40.112794],[-88.289196,40.112793],[-88.289195,40.112793],[-88.289192,40.112793],[-88.289072,40.112791],[-88.288689,40.112785],[-88.288691,40.112867],[-88.288238,40.112864],[-88.288188,40.112822],[-88.287453,40.112817],[-88.287238,40.112816],[-88.286654,40.112811],[-88.286649,40.112468],[-88.286185,40.112461],[-88.286168,40.111233],[-88.286167,40.111142],[-88.286166,40.111101],[-88.286166,40.111045],[-88.286165,40.110984],[-88.286161,40.110697],[-88.286156,40.110349],[-88.286152,40.110002],[-88.286149,40.109791],[-88.286147,40.109613],[-88.286145,40.109478],[-88.286143,40.10936],[-88.286141,40.109209],[-88.285924,40.109206],[-88.285393,40.109199],[-88.28491,40.109193],[-88.281351,40.109144],[-88.281207,40.109142],[-88.281211,40.109337],[-88.281216,40.109701],[-88.281228,40.110502],[-88.281221,40.110502],[-88.280582,40.110496],[-88.280578,40.110496],[-88.279662,40.110487],[-88.279023,40.110481],[-88.279023,40.110481],[-88.279025,40.11086],[-88.279026,40.110962],[-88.279028,40.111044],[-88.278499,40.111039],[-88.277962,40.111034],[-88.277927,40.111034],[-88.277926,40.111034],[-88.27791,40.111034],[-88.277563,40.11103],[-88.276703,40.111022],[-88.276701,40.111022],[-88.276587,40.11102],[-88.276587,40.111021],[-88.276593,40.111413],[-88.2766,40.111808],[-88.275651,40.111797],[-88.275494,40.111795],[-88.275312,40.111793],[-88.275097,40.111791],[-88.27491,40.111789],[-88.274452,40.111783],[-88.274237,40.111781],[-88.274175,40.11178],[-88.274172,40.111961],[-88.274174,40.112345],[-88.273899,40.112342],[-88.273623,40.112339],[-88.273623,40.112339],[-88.273623,40.112394],[-88.273348,40.112391],[-88.273072,40.112388],[-88.273072,40.112334],[-88.273072,40.112333],[-88.272879,40.112331],[-88.272683,40.112329],[-88.272478,40.112327],[-88.272224,40.112324],[-88.271992,40.112322],[-88.271846,40.11232],[-88.271701,40.112319],[-88.271556,40.112317],[-88.271411,40.112316],[-88.271413,40.112701],[-88.271414,40.112882],[-88.271521,40.112883],[-88.271699,40.112885],[-88.271878,40.112886],[-88.272057,40.112888],[-88.272307,40.112891],[-88.272307,40.112904],[-88.272307,40.112907],[-88.272522,40.11291],[-88.272955,40.112914],[-88.273315,40.112918],[-88.273659,40.112921],[-88.273945,40.112924],[-88.274231,40.112927],[-88.27453,40.112931],[-88.274829,40.112934],[-88.275103,40.112937],[-88.275338,40.11294],[-88.275466,40.11295],[-88.27578,40.112976],[-88.27578,40.112981],[-88.276069,40.112985],[-88.276069,40.112992],[-88.276069,40.112996],[-88.276408,40.113],[-88.276574,40.11304],[-88.276649,40.113219],[-88.276653,40.113518],[-88.276655,40.113682],[-88.276658,40.113903],[-88.276661,40.114123],[-88.276664,40.114343],[-88.276668,40.114562],[-88.27667,40.114743],[-88.276675,40.115096],[-88.27668,40.115448],[-88.276658,40.115448],[-88.276651,40.115448],[-88.276652,40.115629],[-88.276657,40.11597],[-88.276661,40.116236],[-88.276662,40.116334],[-88.276666,40.116641],[-88.276679,40.117546],[-88.276679,40.117546],[-88.276684,40.117941]]]},"id":5}]}